{"type":"FeatureCollection","features":[{"type":"Feature","geometry":{"type":"Polygon","coordinates":[[[-79.4480100974008,43.695673611976],[-79.4479827377311,43.6956790633116],[-79.4480027534528,43.6957306588083],[-79.4480175579286,43.6957688220076],[-79.4479476501505,43.6957838043457],[-79.4480547712668,43.696046924752],[-79.4481635295272,43.6960236157789],[-79.4482723001015,43.696000315709],[-79.4483810581934,43.6959770065285],[-79.4484898161936,43.6959537062458],[-79.4485985865155,43.695930405865],[-79.448707344355,43.6959070963737],[-79.4488161145086,43.6958837957856],[-79.4489245619709,43.6958605579588],[-79.4488151294637,43.695597941396],[-79.4486708344909,43.6952516960828],[-79.448495820406,43.6952002740004],[-79.4484142357258,43.6951763207829],[-79.4485474741144,43.6955095995909],[-79.4484752590438,43.6955248602538],[-79.4485269381248,43.6956596868508],[-79.4484914632201,43.6956672949631],[-79.4483826933325,43.6956905952432],[-79.4482739357666,43.6957138954253],[-79.4481651657107,43.6957371954982],[-79.4480564079688,43.6957605044744],[-79.4480463325214,43.6957626602049],[-79.4480309817814,43.6957249468255],[-79.4480100974008,43.695673611976]]]},"properties":{"_id":930,"OBJECTID":927,"BLD_ID":5556,"DEV_ID":161,"DEV_NAME":"Doug Saunders Apartments","NGHBRHD_NUM":107,"POLICE_DIV":13,"PSTL_CODE":"M6E 4Z9","TTL_RES_UNIT":300,"MRKT_UNIT":1,"RGI_UNITS":299,"YR_BUILT":1981,"BLD_TYPO":null,"SCATTERED":"NULL","BLD_FORM":"High Rise Apt. Bldg.Elevator","FLR_ABV_GR":14,"BLD_DESC":"14 - Storey High Rise Apt. Bldg."}},{"type":"Feature","geometry":{"type":"Polygon","coordinates":[[[-79.4680701810531,43.6923213602659],[-79.4684114630439,43.6922448720691],[-79.4684825654194,43.6922289323996],[-79.4685121800278,43.6922222886041],[-79.4684787644258,43.6921437610968],[-79.4686387351039,43.692107898931],[-79.4686933748888,43.6922364884091],[-79.4687644771658,43.6922205755681],[-79.4687778460069,43.6922520567493],[-79.4688528563592,43.6922352717951],[-79.4688352872048,43.6921939960684],[-79.469384228394,43.6920711147087],[-79.469377711149,43.6920556757414],[-79.4693500811058,43.6919900938991],[-79.4693218312715,43.691923719769],[-79.4692939656208,43.6918582008574],[-79.4691936670335,43.6916225559502],[-79.4691224912015,43.6916383610244],[-79.4690221477279,43.6916606480879],[-79.4690043568545,43.6916645948341],[-79.4689331809232,43.6916803997904],[-79.4678953008451,43.6919108432173],[-79.4680701810531,43.6923213602659]],[[-79.4688321504682,43.6922384886149],[-79.4688151388875,43.6921985092236],[-79.4688329175446,43.6921945264987],[-79.4688499291361,43.6922345058874],[-79.4688321504682,43.6922384886149]]]},"properties":{"_id":994,"OBJECTID":992,"BLD_ID":5440,"DEV_ID":187,"DEV_NAME":"York Square","NGHBRHD_NUM":112,"POLICE_DIV":12,"PSTL_CODE":"M6M 5E2","TTL_RES_UNIT":210,"MRKT_UNIT":39,"RGI_UNITS":171,"YR_BUILT":1989,"BLD_TYPO":null,"SCATTERED":"NULL","BLD_FORM":"High Rise Apt. Bldg.Elevator","FLR_ABV_GR":21,"BLD_DESC":"21- Storey & 14-Storey Apt. Bldg."}},{"type":"Feature","geometry":{"type":"Polygon","coordinates":[[[-79.4420196840892,43.7019439776538],[-79.4418552011369,43.7015343088646],[-79.4419452596141,43.7015133096463],[-79.4420353428513,43.7014923013683],[-79.4421254136186,43.7014712930128],[-79.442215471916,43.70145028458],[-79.4422342852386,43.7014459014641],[-79.4421835256572,43.7013191557747],[-79.4420760192102,43.7013443499392],[-79.4418961377416,43.7013871587471],[-79.4409505572722,43.7016037220543],[-79.4410023664257,43.7017331962143],[-79.4411436855331,43.7020863262575],[-79.4411439454413,43.7020869834846],[-79.4411465461176,43.7020919265261],[-79.4411499907654,43.702096581961],[-79.4411542298263,43.7021008777536],[-79.441159201335,43.7021047418617],[-79.4411648060867,43.7021081202264],[-79.4411709573014,43.7021109407928],[-79.4411775681551,43.7021131765122],[-79.4411845022212,43.7021147733067],[-79.4411916726668,43.702115713129],[-79.4411989554371,43.7021159779127],[-79.4412062140617,43.7021155585863],[-79.441213349265,43.7021144731013],[-79.4412139449336,43.7021143473897],[-79.4412938017665,43.7020974660258],[-79.4413845294992,43.7020782858536],[-79.44147526959,43.7020590966143],[-79.4415659972158,43.7020399072965],[-79.4416567371911,43.702020717913],[-79.4417474770998,43.7020015374586],[-79.4418382045435,43.7019823569258],[-79.4419289443453,43.7019631673259],[-79.4420196840892,43.7019439776538]]]},"properties":{"_id":1304,"OBJECTID":1302,"BLD_ID":4054,"DEV_ID":223,"DEV_NAME":"Roselawn Marlee","NGHBRHD_NUM":108,"POLICE_DIV":13,"PSTL_CODE":"M6B 4C3","TTL_RES_UNIT":253,"MRKT_UNIT":0,"RGI_UNITS":253,"YR_BUILT":1974,"BLD_TYPO":null,"SCATTERED":"NULL","BLD_FORM":"High Rise Apt. Bldg.Elevator","FLR_ABV_GR":17,"BLD_DESC":"17 - Storey High Rise Apt. Bldg."}},{"type":"Feature","geometry":{"type":"Polygon","coordinates":[[[-79.4379989499241,43.6915335344043],[-79.437722586627,43.6913937290611],[-79.4377787650983,43.6915653423604],[-79.4379989499241,43.6915335344043]]]},"properties":{"_id":1460,"OBJECTID":1457,"BLD_ID":3536,"DEV_ID":265,"DEV_NAME":"Scattered Units CHU 25","NGHBRHD_NUM":107,"POLICE_DIV":13,"PSTL_CODE":"M6C 3W2","TTL_RES_UNIT":1,"MRKT_UNIT":0,"RGI_UNITS":1,"YR_BUILT":1929,"BLD_TYPO":null,"SCATTERED":"Scattered","BLD_FORM":"House Semi-Detached Single Fam.","FLR_ABV_GR":2,"BLD_DESC":"2 - Storey Semi-Detached House Single Fam."}},{"type":"Feature","geometry":{"type":"Polygon","coordinates":[[[-79.434273034778,43.6906856999064],[-79.434657200665,43.6906055835757],[-79.4346382954876,43.6905600892111],[-79.4342549487717,43.6906400349254],[-79.4342621609189,43.6906582306953],[-79.434273034778,43.6906856999064]]]},"properties":{"_id":1461,"OBJECTID":1458,"BLD_ID":3539,"DEV_ID":265,"DEV_NAME":"Scattered Units CHU 25","NGHBRHD_NUM":107,"POLICE_DIV":13,"PSTL_CODE":"M6C 3P8","TTL_RES_UNIT":1,"MRKT_UNIT":0,"RGI_UNITS":1,"YR_BUILT":1927,"BLD_TYPO":null,"SCATTERED":"Scattered","BLD_FORM":"House Semi-Detached Single Fam.","FLR_ABV_GR":2,"BLD_DESC":"2 - Storey Semi-Detached House Single Fam."}},{"type":"Feature","geometry":{"type":"Polygon","coordinates":[[[-79.4237094679494,43.7019938741792],[-79.4242531395031,43.7017168613139],[-79.4243260259106,43.7017014543925],[-79.4241959172606,43.7013726774402],[-79.4240145150819,43.7014109294547],[-79.4240249533267,43.7014373101442],[-79.4238434760264,43.7014758588791],[-79.4236619984825,43.7015144163269],[-79.4236041534822,43.7015267004338],[-79.42351799599568,43.70154500338633],[-79.42351799599568,43.70188420232313],[-79.4235258743544,43.7018900927639],[-79.423546811336,43.70190481486],[-79.4235683692802,43.701919069301],[-79.4235905234069,43.7019328290661],[-79.4236132489016,43.7019460941382],[-79.4236365333798,43.7019588465063],[-79.4236603396541,43.7019710591414],[-79.4236846677127,43.7019827410444],[-79.4237094679494,43.7019938741792]]]},"properties":{"_id":1619,"OBJECTID":1619,"BLD_ID":5467,"DEV_ID":405,"DEV_NAME":"Bathurst Eglinton","NGHBRHD_NUM":102,"POLICE_DIV":53,"PSTL_CODE":"M5N 1G2","TTL_RES_UNIT":57,"MRKT_UNIT":10,"RGI_UNITS":47,"YR_BUILT":1941,"BLD_TYPO":null,"SCATTERED":"NULL","BLD_FORM":"Low Rise Apt. Bldg.Elevator","FLR_ABV_GR":4,"BLD_DESC":"4 - Storey Low Rise Apt. Bldg. (hist)"}},{"type":"Feature","geometry":{"type":"Polygon","coordinates":[[[-79.4248264852372,43.7018755723207],[-79.4249723564306,43.7019052013577],[-79.424849980426,43.7015906882641],[-79.42472535493,43.7012703317098],[-79.4247219910549,43.7012616702627],[-79.4247000248085,43.7012663094565],[-79.4245587209835,43.7012961275397],[-79.4243773192317,43.7013344071347],[-79.4242629703603,43.7013585358699],[-79.4241959296676,43.7013726774484],[-79.4243260259106,43.7017014543925],[-79.4243985027447,43.7016861281651],[-79.4244164615585,43.7017309574137],[-79.4245165303665,43.7017662545477],[-79.4246153095259,43.7018010916782],[-79.4247174992642,43.7018371281396],[-79.4248264852372,43.7018755723207]]]},"properties":{"_id":1620,"OBJECTID":1620,"BLD_ID":5468,"DEV_ID":405,"DEV_NAME":"Bathurst Eglinton","NGHBRHD_NUM":102,"POLICE_DIV":53,"PSTL_CODE":"M5N 1G2","TTL_RES_UNIT":36,"MRKT_UNIT":7,"RGI_UNITS":29,"YR_BUILT":1941,"BLD_TYPO":null,"SCATTERED":"NULL","BLD_FORM":"Low Rise Apt. Bldg.Elevator","FLR_ABV_GR":4,"BLD_DESC":"4 - Storey Low Rise Apt. Bldg."}},{"type":"Feature","geometry":{"type":"Polygon","coordinates":[[[-79.4251028379851,43.7011813049706],[-79.4250502804735,43.7011923961041],[-79.4250134840027,43.7012001580788],[-79.4249928581169,43.7012045101672],[-79.424921523796,43.7012195674848],[-79.4249181978301,43.7012202764014],[-79.4248883759084,43.7012265667068],[-79.4247661469089,43.7012523560044],[-79.4247456202661,43.7012566901109],[-79.4247401224938,43.7012578566577],[-79.4247219910549,43.7012616702627],[-79.42472535493,43.7012703317098],[-79.424849980426,43.7015906882641],[-79.4249723564306,43.7019052013577],[-79.4250088242542,43.7019126063375],[-79.4251911634848,43.7019496490646],[-79.4253735153476,43.7019866915088],[-79.4253783459815,43.7018032125808],[-79.4253794782081,43.701760637267],[-79.4253837351519,43.7015995261378],[-79.4253869505028,43.7014779299441],[-79.4252344400955,43.7015100278711],[-79.4251166783995,43.7012158789559],[-79.4251114835896,43.7012029137086],[-79.425106301189,43.7011899484691],[-79.4251028379851,43.7011813049706]]]},"properties":{"_id":1621,"OBJECTID":1621,"BLD_ID":5469,"DEV_ID":405,"DEV_NAME":"Bathurst Eglinton","NGHBRHD_NUM":102,"POLICE_DIV":53,"PSTL_CODE":"M5N 1G1","TTL_RES_UNIT":40,"MRKT_UNIT":12,"RGI_UNITS":28,"YR_BUILT":1941,"BLD_TYPO":null,"SCATTERED":"NULL","BLD_FORM":"Low Rise Apt. Bldg.Elevator","FLR_ABV_GR":4,"BLD_DESC":"4 - Storey Low Rise Apt. Bldg."}},{"type":"Feature","geometry":{"type":"Polygon","coordinates":[[[-79.4388879046864,43.7022238882184],[-79.4387692257105,43.7022520527183],[-79.4386505342073,43.7022802260894],[-79.4385928389943,43.7022939040572],[-79.4384706972755,43.7023228945041],[-79.4385129749474,43.7024261079146],[-79.4385214651733,43.7024468154225],[-79.4385814041928,43.7025931634287],[-79.4385992015597,43.7026366041588],[-79.4387212695841,43.7026074425124],[-79.4387284427541,43.7026057271135],[-79.4388092711757,43.7025864176624],[-79.4388469240765,43.7025774185315],[-79.4388492696221,43.702576861707],[-79.4389653804639,43.7025491188145],[-79.4388879046864,43.7022238882184]]]},"properties":{"_id":1646,"OBJECTID":1645,"BLD_ID":5781,"DEV_ID":425,"DEV_NAME":"Elm Ridge Dr. (165)","NGHBRHD_NUM":102,"POLICE_DIV":13,"PSTL_CODE":"M6B 1B2","TTL_RES_UNIT":14,"MRKT_UNIT":14,"RGI_UNITS":0,"YR_BUILT":1985,"BLD_TYPO":null,"SCATTERED":"NULL","BLD_FORM":"Low Rise Apt. Bldg.Elevator","FLR_ABV_GR":2,"BLD_DESC":"2 - Storey Low Rise Apt Bld w. elevator - Multiplex Nursing Home"}},{"type":"Feature","geometry":{"type":"Polygon","coordinates":[[[-79.4380606909837,43.7027652929419],[-79.4381179897536,43.7027515970267],[-79.4381504429047,43.702743846488],[-79.4382401947616,43.7027223999636],[-79.4383299341474,43.7027009533619],[-79.4383396266433,43.702698636261],[-79.4384196982839,43.702679506703],[-79.4385094499583,43.7026580509656],[-79.4385984445303,43.7026367837777],[-79.4385992015597,43.7026366041588],[-79.4385814041928,43.7025931634287],[-79.4385214651733,43.7024468154225],[-79.4385129749474,43.7024261079146],[-79.4384706972755,43.7023228945041],[-79.4383807849131,43.7023442331092],[-79.4382908600704,43.702365580638],[-79.4382009475806,43.7023869191014],[-79.4381110226197,43.7024082574872],[-79.4380211099931,43.7024296048102],[-79.4379958302119,43.7024355949532],[-79.4379340640872,43.7024502695217],[-79.4379311973028,43.7024509520622],[-79.437854129273,43.7024692097878],[-79.4378756698445,43.7024917516974],[-79.4378964407997,43.7025146622372],[-79.4379164173237,43.7025379413941],[-79.4379355994345,43.702561571166],[-79.4379539623262,43.7025855425384],[-79.4379715060166,43.7026098375093],[-79.4379882181256,43.7026344290684],[-79.4380040862451,43.7026593172094],[-79.43801659615,43.7026801709545],[-79.4380285227341,43.7027012044074],[-79.4380398411916,43.7027224085536],[-79.4380505639386,43.7027437743988],[-79.4380606909837,43.7027652929419]]]},"properties":{"_id":1718,"OBJECTID":1718,"BLD_ID":5949,"DEV_ID":481,"DEV_NAME":"Elm Ridge Dr. (145)","NGHBRHD_NUM":102,"POLICE_DIV":13,"PSTL_CODE":"M6B 4H4","TTL_RES_UNIT":53,"MRKT_UNIT":26,"RGI_UNITS":27,"YR_BUILT":1985,"BLD_TYPO":null,"SCATTERED":"NULL","BLD_FORM":"High Rise Apt. Bldg.Elevator","FLR_ABV_GR":9,"BLD_DESC":"9 - Storey High Rise Apt. Bldg."}},{"type":"Feature","geometry":{"type":"Polygon","coordinates":[[[-79.447312090342,43.6956626708526],[-79.4469713605057,43.6957359008052],[-79.4469526682311,43.6956898235326],[-79.446949994339,43.695683269353],[-79.4469318038757,43.6956871764703],[-79.446877455809,43.6956988619035],[-79.446914827911,43.6957909714574],[-79.4469201756579,43.6958041248245],[-79.4469745238034,43.6957924483726],[-79.4473334567866,43.6957153382427],[-79.4473281213709,43.6957021758991],[-79.447312090342,43.6956626708526]]]},"properties":{"_id":2070,"OBJECTID":2070,"BLD_ID":5432,"DEV_ID":950,"DEV_NAME":"Northcliffe Blvd. (659)","NGHBRHD_NUM":107,"POLICE_DIV":13,"PSTL_CODE":"M6E 5B3","TTL_RES_UNIT":54,"MRKT_UNIT":23,"RGI_UNITS":31,"YR_BUILT":2003,"BLD_TYPO":null,"SCATTERED":"NULL","BLD_FORM":"Mid Rise Apt. Bldg.Elevator","FLR_ABV_GR":7,"BLD_DESC":"7 - Storey Mid Rise Apt. Bldg."}}]}