{"type":"FeatureCollection","features":[{"type":"Feature","geometry":{"type":"MultiPolygon","coordinates":[[[[-79.4719498449804,43.686539026988],[-79.4718168649199,43.6862302531404],[-79.4719070535076,43.6862098243769],[-79.4719972370768,43.6861893865397],[-79.4720874255438,43.6861689540331],[-79.472177608991,43.6861485151533],[-79.4722677923737,43.6861280834032],[-79.4723579806597,43.6861076452821],[-79.4724481639187,43.68608721609],[-79.4724931314781,43.6860770194399],[-79.4726509385756,43.6864434428046],[-79.472605957133,43.6864536215101],[-79.472569885129,43.6864617887444],[-79.4725157721409,43.6864740445241],[-79.472432792069,43.6864928363681],[-79.4724255846085,43.6864944638657],[-79.4723353870856,43.6865148966357],[-79.4722452031517,43.6865353167359],[-79.4722091273333,43.6865434739539],[-79.4721550141942,43.6865557385638],[-79.4721081234,43.6865663666733],[-79.4720648301338,43.6865761675228],[-79.4720071094777,43.6865892358976],[-79.4719746422935,43.6865965910089],[-79.4719498449804,43.686539026988]]]]},"properties":{"_id":37,"BranchCode":"EG","PhysicalBranch":1,"BranchName":"Evelyn Gregory","Address":"120 Trowell Avenue, Toronto, ON, M6M 1L7","PostalCode":"M6M 1L7","Website":"https://www.tpl.ca/evelyngregory","Telephone":"416-394-1006","SquareFootage":"6200","PublicParking":"19","KidsStop":0,"LeadingReading":1,"CLC":0,"DIH":0,"TeenCouncil":0,"YouthHub":0,"AdultLiteracyProgram":0,"Service Tier":"NL","Lat":"43.68631","Long":"-79.47233","NBHDNo":110,"NBHDName":"Keelesdale-Eglinton West","TPLNIA":"1","WardNo":5,"WardName":"York South-Weston","PresentSiteYear":1968,"PublicWashroom":"1","Hours":"Mon 10 a.m. to 8:30 p.m.; Tue 12:30 p.m. to 8:30 p.m.; Wed 10 a.m. to 6 p.m.; Thu 12:30 p.m. to 8:30 p.m.; Fri 10 a.m. to 6 p.m.; Sat 9 a.m. to 5 p.m.; Sun 12 p.m. to 5 p.m."}},{"type":"Feature","geometry":{"type":"MultiPoint","coordinates":[[-79.44727,43.69614]]},"properties":{"_id":66,"BranchCode":"MAS","PhysicalBranch":1,"BranchName":"Maria A. Shchuka","Address":"1745 Eglinton Avenue W, Toronto, ON, M6E 2H4","PostalCode":"M6E 2H4","Website":"https://www.tpl.ca/mariaashchuka","Telephone":"416-394-1000","SquareFootage":"25475","PublicParking":"14","KidsStop":0,"LeadingReading":1,"CLC":1,"DIH":1,"TeenCouncil":1,"YouthHub":1,"AdultLiteracyProgram":1,"Service Tier":"DL","Lat":"43.69614","Long":"-79.44727","NBHDNo":107,"NBHDName":"Oakwood Village","TPLNIA":"0","WardNo":12,"WardName":"Toronto-St. Paul?s","PresentSiteYear":1951,"PublicWashroom":"1","Hours":"Mon 9 a.m. to 8:30 p.m.; Tue 9 a.m. to 8:30 p.m.; Wed 9 a.m. to 8:30 p.m.; Thu 9 a.m. to 8:30 p.m.; Fri 9 a.m. to 8:30 p.m.; Sat 9 a.m. to 5 p.m.; Sun 12 p.m. to 5 p.m."}},{"type":"Feature","geometry":{"type":"MultiPolygon","coordinates":[[[[-79.4881894392055,43.6867599816361],[-79.4880957097948,43.6867136818084],[-79.4880019631609,43.6866673909029],[-79.488222960888,43.6864314951052],[-79.4882453962685,43.68644257802],[-79.4883166899625,43.6864777678269],[-79.4884104229035,43.6865240341709],[-79.488441666836,43.6865394547681],[-79.4882206832019,43.6867754121946],[-79.4881894392055,43.6867599816361]]]]},"properties":{"_id":68,"BranchCode":"MD","PhysicalBranch":1,"BranchName":"Mount Dennis","Address":"1123 Weston Road, Toronto, ON, M6N 3S3","PostalCode":"M6N 3S3","Website":"https://www.tpl.ca/mountdennis","Telephone":"416-394-1008","SquareFootage":"11350","PublicParking":"119","KidsStop":1,"LeadingReading":1,"CLC":0,"DIH":0,"TeenCouncil":1,"YouthHub":1,"AdultLiteracyProgram":0,"Service Tier":"NL","Lat":"43.68659","Long":"-79.48828","NBHDNo":115,"NBHDName":"Mount Dennis","TPLNIA":"1","WardNo":5,"WardName":"York South-Weston","PresentSiteYear":1951,"PublicWashroom":"1","Hours":"Mon 9 a.m. to 8:30 p.m.; Tue 9 a.m. to 8:30 p.m.; Wed 9 a.m. to 8:30 p.m.; Thu 9 a.m. to 8:30 p.m.; Fri 9 a.m. to 8:30 p.m.; Sat 9 a.m. to 5 p.m.; Sun 12 p.m. to 5 p.m."}},{"type":"Feature","geometry":{"type":"MultiPolygon","coordinates":[[[[-79.4377332912619,43.6865729977466],[-79.4377877419163,43.6865614094112],[-79.4378239546706,43.6865536987944],[-79.4379146453351,43.6865343754814],[-79.4382980955257,43.6864527081427],[-79.4383300209228,43.6865325750384],[-79.4383563516588,43.6865984319783],[-79.4379728859591,43.6866798807702],[-79.437992262023,43.6867282993934],[-79.4379992300324,43.6867457188951],[-79.4380112830686,43.6867757987872],[-79.4380255865644,43.6868115597204],[-79.4379348844153,43.6868308237056],[-79.4378986442344,43.6868385199403],[-79.4378441722896,43.6868500831127],[-79.4378392703728,43.6868511227981],[-79.4377283881113,43.6865740509286],[-79.4377332912619,43.6865729977466]]]]},"properties":{"_id":78,"BranchCode":"OV","PhysicalBranch":1,"BranchName":"Oakwood Village Library and Arts Centre","Address":"341 Oakwood Avenue, Toronto, ON, M6E 2W1","PostalCode":"M6E 2W1","Website":"https://www.tpl.ca/oakwood","Telephone":"416-394-1040","SquareFootage":"17270","PublicParking":"shared","KidsStop":0,"LeadingReading":0,"CLC":0,"DIH":0,"TeenCouncil":0,"YouthHub":0,"AdultLiteracyProgram":0,"Service Tier":"NL","Lat":"43.68656","Long":"-79.43826","NBHDNo":107,"NBHDName":"Oakwood Village","TPLNIA":"0","WardNo":12,"WardName":"Toronto-St. Paul?s","PresentSiteYear":1997,"PublicWashroom":"1","Hours":"Mon 10 a.m. to 8:30 p.m.; Tue 12:30 p.m. to 8:30 p.m.; Wed 10 a.m. to 6 p.m.; Thu 12:30 p.m. to 8:30 p.m.; Fri 10 a.m. to 6 p.m.; Sat 9 a.m. to 5 p.m.; Sun 12 p.m. to 5 p.m."}}]}