{
"type": "FeatureCollection",
"name": "LittleJamaicaBoundary",
"crs": { "type": "name", "properties": { "name": "urn:ogc:def:crs:OGC:1.3:CRS84" } },
"features": [
{ "type": "Feature", "properties": { "id": null, "Area": 6338556 }, "geometry": { "type": "MultiPolygon", "coordinates": [ [ [ [ -79.434920023603041, 43.699372771629278 ], [ -79.4335311909647, 43.699701709096416 ], [ -79.433379807765121, 43.699753813504039 ], [ -79.43335341577351, 43.699613801783578 ], [ -79.433466831225289, 43.699756589342599 ], [ -79.432998162402541, 43.699001508389685 ], [ -79.434201557829169, 43.698710945271444 ], [ -79.433159057805668, 43.69605876914251 ], [ -79.433806341077727, 43.695592321501834 ], [ -79.434513954590457, 43.695425111781354 ], [ -79.43342712771009, 43.694483494409766 ], [ -79.432476984537516, 43.692066044715077 ], [ -79.433096818242291, 43.69193778122041 ], [ -79.432710287956382, 43.690741132878109 ], [ -79.431990893314719, 43.690829206995367 ], [ -79.431411195964543, 43.689544212945336 ], [ -79.430431346317619, 43.689632119597434 ], [ -79.430166542212689, 43.688531872189024 ], [ -79.43115162561574, 43.688267241650458 ], [ -79.430575628372097, 43.686914348127765 ], [ -79.434657586425487, 43.685962982406529 ], [ -79.43484259380493, 43.686599823799497 ], [ -79.437693168744062, 43.686045327283402 ], [ -79.43729053459397, 43.685091233236712 ], [ -79.438608825511395, 43.684841666410115 ], [ -79.439251031338515, 43.686475377070344 ], [ -79.441207961826933, 43.686136912321878 ], [ -79.442716119682032, 43.685853169443526 ], [ -79.441714358834602, 43.683361638913837 ], [ -79.443321769124665, 43.683028813067239 ], [ -79.443511299673048, 43.683318652495977 ], [ -79.445443159965933, 43.682946034505079 ], [ -79.446385422681573, 43.685438454699643 ], [ -79.447214691806977, 43.685387127790499 ], [ -79.449221587528186, 43.684724673548693 ], [ -79.456261328788941, 43.683197938493961 ], [ -79.457247415242989, 43.682932655975989 ], [ -79.459802905137167, 43.683472721299374 ], [ -79.467640173326359, 43.681845699981977 ], [ -79.469086212953883, 43.682333509009389 ], [ -79.472372164401648, 43.682054623932828 ], [ -79.47605830884811, 43.681696710117933 ], [ -79.478850795828038, 43.683217606295706 ], [ -79.480291150842049, 43.686211499803683 ], [ -79.480766984329946, 43.687419655391317 ], [ -79.480255647350958, 43.687721733599311 ], [ -79.480826662216913, 43.689171520073778 ], [ -79.480612746634037, 43.690457387584047 ], [ -79.481409751278321, 43.691794968124825 ], [ -79.483051097702699, 43.692304006473087 ], [ -79.483185397304837, 43.693006376128743 ], [ -79.483371416138681, 43.693666644811245 ], [ -79.48179609282154, 43.693993361493334 ], [ -79.47922265752247, 43.694043216701083 ], [ -79.478576808363485, 43.693532059457318 ], [ -79.475357609551722, 43.694199538718443 ], [ -79.475338049200332, 43.694526130680615 ], [ -79.469614927444169, 43.695629770534737 ], [ -79.468693617887837, 43.696285404852212 ], [ -79.462235017984071, 43.69794629491615 ], [ -79.461275916355618, 43.698521277836868 ], [ -79.45928942477606, 43.69855654368012 ], [ -79.45461172310992, 43.699095441451611 ], [ -79.450824519860916, 43.69944973433838 ], [ -79.445608132826109, 43.70069102828014 ], [ -79.43699515322001, 43.70290370224668 ], [ -79.435939449652665, 43.700972227585545 ], [ -79.434920023603041, 43.699372771629278 ] ] ] ] } }
]
}
