{"type":"FeatureCollection","features":[{"type":"Feature","geometry":{"type":"Polygon","coordinates":[[[-79.42202653047971,43.68432081274017],[-79.42202127237898,43.684321938822464],[-79.4220418030973,43.6843724773889],[-79.42210191422663,43.684520442908045],[-79.42225697403612,43.684902125463246],[-79.4223627557009,43.68516250819108],[-79.42239016043673,43.68522996668545],[-79.42240691192927,43.685271199721335],[-79.42272999591655,43.686066450694874],[-79.42293994139847,43.68660040543819],[-79.42294273191052,43.686607502178525],[-79.4229547470688,43.686638059038],[-79.42295768594803,43.686645534834526],[-79.4229811932755,43.68667141873721],[-79.42302607129558,43.68672083303791],[-79.42307460345617,43.68677427067989],[-79.42314311915759,43.68684971112052],[-79.42317912855259,43.68688936104004],[-79.42321920951672,43.686933491851114],[-79.42324663004234,43.686963683668814],[-79.42325320452781,43.686966372283635],[-79.42329495990339,43.68698344615411],[-79.42336441422107,43.68701184606996],[-79.42344813464338,43.68704607936724],[-79.42361914756108,43.68711600638173],[-79.42370238228223,43.687150040237995],[-79.42384181989826,43.68720705501514],[-79.42385284478563,43.68723839603435],[-79.42385388074852,43.687272547819056],[-79.4240163702658,43.687276904578404],[-79.42450259246746,43.68748173544984],[-79.42455286016816,43.687502911892174],[-79.42459312171384,43.68751987268424],[-79.42464713854886,43.68754262769319],[-79.42464380259419,43.68754794168686],[-79.42468297655613,43.6875627486091],[-79.42485468244071,43.68763037798319],[-79.4248601031385,43.68763234113876],[-79.4250959732874,43.68773170243425],[-79.42517278263075,43.687764058556304],[-79.42526952155778,43.68780481060721],[-79.4252916107675,43.68781411533108],[-79.42541702856072,43.68786694689467],[-79.42553755657843,43.68818165836596],[-79.42555369218891,43.688223795153135],[-79.42556574060279,43.688280952514816],[-79.42554522413127,43.688410981528044],[-79.42507414518124,43.6890154377848],[-79.4250393904654,43.68900318217781],[-79.42502621003872,43.68899867286367],[-79.42501303641154,43.68899866422249],[-79.42499947144697,43.688994154653],[-79.42498590648441,43.688989645081904],[-79.424971951373,43.68898963592314],[-79.42495800866612,43.68898962677083],[-79.42494442569104,43.68898961785301],[-79.42493048297297,43.68898961769866],[-79.4249165278728,43.6889895995318],[-79.42490293929373,43.68899408227408],[-79.42488937549925,43.68899858303368],[-79.42487581733123,43.68899857412401],[-79.42486261327682,43.689003066115525],[-79.42484981857045,43.68900755837463],[-79.42483702948236,43.68900754996598],[-79.42482499823407,43.689016543394324],[-79.4248129850087,43.68902103616322],[-79.42480174086369,43.68902552943679],[-79.424790496717,43.68903002270927],[-79.42478038816307,43.689039017397896],[-79.42477030441525,43.689048012101935],[-79.4247609953728,43.68905250664502],[-79.42475244978502,43.6890615023599],[-79.4247443011406,43.689070498335425],[-79.42473693398117,43.68907949482492],[-79.42473033590247,43.68908849182035],[-79.42375522664511,43.68867667695553],[-79.42303979828456,43.68837452298606],[-79.42145516680097,43.687721030592996],[-79.42144827372444,43.68771818773325],[-79.42157207212558,43.688025808982225],[-79.42191890010622,43.68889333191035],[-79.42069652963305,43.689137506883064],[-79.42094901733572,43.68978083556436],[-79.42047121391927,43.68986140907003],[-79.41900352667238,43.68927063779024],[-79.4175128275754,43.68840238447905],[-79.4167726136146,43.6865627458681],[-79.41575421337828,43.686703786310574],[-79.4164242503931,43.68833370924814],[-79.41518529170101,43.6885813867119],[-79.41529731344163,43.68882858897392],[-79.41412223656194,43.68906447985165],[-79.41413056122691,43.68910711465052],[-79.41426313523958,43.68947803424513],[-79.4143063681568,43.68959899065292],[-79.41428536819491,43.689748000174234],[-79.41426675660973,43.689880063758956],[-79.4142113546003,43.68994270751449],[-79.41415123469315,43.69001683340702],[-79.41410990365738,43.69006783994698],[-79.41409392103151,43.6900889180722],[-79.41407796147742,43.69010251610041],[-79.41405356861179,43.69011474858376],[-79.41402259828699,43.6901290194186],[-79.41399913869013,43.69013920028715],[-79.41397568393552,43.69014598765003],[-79.4139353557533,43.69015480560883],[-79.41390626921454,43.690161588717054],[-79.41388938605243,43.69017042431529],[-79.41386590498205,43.69019558336677],[-79.41383679600722,43.69021801976718],[-79.41381989944766,43.69022753044532],[-79.41379456956743,43.69023567555923],[-79.41376362518164,43.69024041392626],[-79.41371202944991,43.6902519417092],[-79.41362009103601,43.6902736465073],[-79.4135722568261,43.69028314276714],[-79.41354224374174,43.69028719767664],[-79.4135263015985,43.69028855382099],[-79.41350659885745,43.69029125731835],[-79.41347847698027,43.690282729771724],[-79.41344621375,43.69027377962009],[-79.41343910738375,43.690271808346765],[-79.41341473487002,43.690269755585575],[-79.41339130153888,43.69026157361965],[-79.41331128602631,43.69022160103344],[-79.41326386784638,43.69023162765863],[-79.41301656442347,43.69028391934047],[-79.41301255644159,43.690284766916946],[-79.41148095815502,43.6906086060271],[-79.41065683373228,43.690791314003114],[-79.4100822284208,43.690918699536745],[-79.40988250296324,43.69043123955977],[-79.40947548425915,43.689437824591074],[-79.40945074443405,43.68934217476783],[-79.40945045400089,43.68934145983142],[-79.40944958292093,43.68934164276872],[-79.40942351308358,43.68927752897735],[-79.40866901590202,43.68742192150113],[-79.40790752245259,43.68545914629158],[-79.40786466014426,43.68534869764684],[-79.40932785554315,43.68502712168417],[-79.41112506019256,43.6846289309517],[-79.41101576685091,43.68453731392856],[-79.41050589200776,43.68325810157609],[-79.41034091594199,43.682844209073075],[-79.41020443918563,43.682508023945985],[-79.41020123979239,43.68250011284642],[-79.41015284773128,43.6823876929628],[-79.4100492982296,43.682147082838334],[-79.41004924393556,43.6821468955675],[-79.41000244065626,43.68203821242409],[-79.40996794754973,43.68193870053088],[-79.40989805440275,43.68176660623611],[-79.40938537277253,43.680568992323266],[-79.40898851409489,43.679565985615184],[-79.41051099809594,43.679227081344706],[-79.41022052624216,43.67848468908066],[-79.41068243248439,43.67837409030511],[-79.4107578188065,43.678339093400204],[-79.41080811087649,43.678312797382596],[-79.41087151590378,43.67825969022469],[-79.41084811135964,43.67820529837707],[-79.41113071389594,43.67830829952531],[-79.41199620986178,43.678419287044484],[-79.41210759623428,43.67842989622872],[-79.41302219693213,43.67855971845696],[-79.41312172116679,43.67857010339412],[-79.41360339205124,43.678630710035925],[-79.41369050029637,43.6786230247717],[-79.41513678825912,43.67834591620716],[-79.41521871213735,43.67853611715432],[-79.41551189037085,43.67848722732061],[-79.4155177035429,43.67848622076469],[-79.41640249332512,43.678336434278016],[-79.41653966440454,43.67877952906898],[-79.41671338074491,43.67925013053164],[-79.41694646986289,43.67982064397365],[-79.41705075804026,43.68010125680471],[-79.4174246331167,43.680034351290004],[-79.4176580545887,43.679984456838746],[-79.41766173060499,43.67998365476559],[-79.41792354835015,43.67993323744047],[-79.41792896112818,43.67993214766224],[-79.41826033558435,43.67986585608754],[-79.41928293259616,43.67966395504645],[-79.42043093877042,43.67940965971363],[-79.42129163036634,43.6792324725137],[-79.42220212989466,43.67904697928152],[-79.42237653876462,43.67949057572631],[-79.42237724836379,43.67949236747782],[-79.4225622355381,43.67997939332074],[-79.42274780037837,43.68044868474653],[-79.4227484148772,43.68045018118675],[-79.42279492089317,43.68056779548618],[-79.42291161048938,43.68084859403816],[-79.42295678584215,43.6809626887374],[-79.42295819887592,43.68096629743193],[-79.4230972837001,43.681337280111904],[-79.42323697966667,43.68169040612777],[-79.42323777837471,43.681692389661904],[-79.42341366312148,43.6821431881913],[-79.4231738814215,43.68220280886036],[-79.42322861311156,43.682336812733666],[-79.42332547136714,43.6825740039169],[-79.42332667302361,43.682577095786584],[-79.42338344914711,43.682727906468656],[-79.42338775026188,43.682738892798604],[-79.42386003943179,43.68395000321298],[-79.42324901018945,43.684067596853176],[-79.42324601890566,43.68406821683785],[-79.42265040416477,43.68418541256413],[-79.42202653047971,43.68432081274017]]]},"properties":{"StationName":"St Clair West","MTSA_Type":"Protected Major Transit Station Area","SASP_No":717}},{"type":"Feature","geometry":{"type":"Polygon","coordinates":[[[-79.42005923479684,43.70011223747285],[-79.42003542310792,43.70003977547384],[-79.42003070758454,43.69994992637335],[-79.42003310135529,43.699871138569826],[-79.42002985729317,43.69986996792859],[-79.41980506350777,43.69974895957871],[-79.41980494049713,43.69974816647587],[-79.41979427790807,43.69967945009556],[-79.41923174187833,43.69842709313322],[-79.41919764220481,43.69810219409942],[-79.42039389874147,43.69783693356347],[-79.42160966264598,43.69758287962611],[-79.4216934489781,43.69776289337063],[-79.42285982242674,43.69750896331235],[-79.42400513271751,43.69727164989264],[-79.42353683750196,43.69610868558258],[-79.42426208738179,43.69596075630793],[-79.42438711186493,43.69594445575917],[-79.4244570729629,43.69594246771564],[-79.42454292168809,43.69594302849297],[-79.42480352488597,43.695988251877715],[-79.4260097257585,43.6961229688766],[-79.42727116344835,43.69629593604483],[-79.42733660796719,43.6965352590769],[-79.42763372404283,43.69724216699631],[-79.42962718071148,43.69682861427135],[-79.42967040979596,43.69691371512496],[-79.42998502161339,43.697655099130465],[-79.43070581095844,43.69945239184982],[-79.43086620443272,43.69985232954921],[-79.43099905340385,43.69982678935453],[-79.43115142699035,43.70021419644603],[-79.43133681840159,43.700685545169094],[-79.43166420632882,43.70151540481606],[-79.43201631868601,43.70232545000682],[-79.4323368347733,43.70312683853498],[-79.43253922865422,43.70364508839217],[-79.43260793960035,43.70377000149152],[-79.43252838534467,43.703799158432794],[-79.43247119446754,43.70382391698704],[-79.4324055994165,43.70386232554044],[-79.43233650419009,43.70391388290756],[-79.43227856216225,43.7039664639895],[-79.43224154274763,43.70401601500105],[-79.43221777017894,43.70407063979699],[-79.43220865732383,43.70410756769357],[-79.43221060608856,43.70415093719074],[-79.43221778039198,43.70418160892934],[-79.4322274829903,43.70421483854016],[-79.43224296880595,43.70424808778055],[-79.43114506527442,43.70450679021945],[-79.43101220976895,43.704532314355916],[-79.43063861863014,43.70462141372453],[-79.43036599371587,43.70468359288025],[-79.42999065119358,43.704740694786956],[-79.43028458339333,43.70551793362019],[-79.42821444397534,43.70596096613598],[-79.42675512166346,43.70625042810775],[-79.42659686127988,43.70621473359708],[-79.42459165871261,43.70663198307161],[-79.42444828121202,43.70653485604888],[-79.42438818465222,43.70647864002127],[-79.42433450994396,43.706418062576084],[-79.42428452303203,43.70635453511739],[-79.42423314470825,43.70629342806695],[-79.42418602687528,43.70622784116489],[-79.42414594677952,43.7061614577963],[-79.42410992399111,43.70609426788863],[-79.42407616147285,43.70602653849122],[-79.42404116703135,43.7059616616807],[-79.42401143775014,43.7058925757444],[-79.42398736885592,43.70582268344561],[-79.4239638323776,43.70575274648846],[-79.42394687455219,43.70568192367295],[-79.42391943230743,43.705609894901265],[-79.4238927492776,43.70554686524108],[-79.42386066112145,43.70547033000276],[-79.42382045747728,43.70537579391888],[-79.42376979310778,43.70527224052796],[-79.42371718061698,43.70517769612843],[-79.42365137526014,43.70509663496241],[-79.42356154653736,43.70499756316677],[-79.42347053364162,43.704902991163486],[-79.42335007856443,43.70480839034573],[-79.42325824859437,43.70474982108279],[-79.42321910017024,43.704731793062855],[-79.42314779079142,43.704713743411],[-79.42259146455879,43.704529870805175],[-79.42254063859438,43.70451546847462],[-79.42265580442506,43.70430158338472],[-79.42268912979777,43.70421990278495],[-79.42277756220237,43.70400315686133],[-79.4228138965976,43.703923018378894],[-79.4227882107391,43.703916889137595],[-79.42266652502448,43.70387179939388],[-79.42263021724717,43.70384621288556],[-79.42262910467328,43.70383915690057],[-79.42260667352465,43.703822311053585],[-79.42259735415269,43.70381171469435],[-79.42258829298783,43.703795235248684],[-79.42236727918153,43.70289495452331],[-79.42218532810229,43.70222728581685],[-79.42103260374056,43.70245488034742],[-79.42084975329546,43.70200118191241],[-79.42067494543872,43.7015757087693],[-79.42028737026004,43.70063227264628],[-79.42005923479684,43.70011223747285]]]},"properties":{"StationName":"Forest Hill","MTSA_Type":"Protected Major Transit Station Area","SASP_No":677}},{"type":"Feature","geometry":{"type":"Polygon","coordinates":[[[-79.46356784674151,43.68777945030996],[-79.46361371239203,43.68789725378207],[-79.46365249363606,43.68796035472613],[-79.46369491395741,43.687997451935416],[-79.46378437432347,43.68800949440447],[-79.4639168689533,43.68799496853313],[-79.46406131982769,43.68796214743978],[-79.46422372013049,43.68790968095305],[-79.46441939602356,43.68784245249494],[-79.46451209733934,43.687791738045746],[-79.46489523605935,43.68758212597309],[-79.46513949311453,43.687428374978666],[-79.46520812195712,43.687357646232684],[-79.46581489674122,43.68694894238631],[-79.46653976264234,43.68650380547209],[-79.46679861288037,43.68724556196565],[-79.46727746770438,43.68714138258067],[-79.46728527085268,43.687139683560275],[-79.46853394246922,43.68686802160411],[-79.46891546889302,43.68778684896394],[-79.46926616429856,43.688584441958454],[-79.46961970783514,43.68940775675098],[-79.46989548945105,43.690096406956485],[-79.46992832116405,43.690178388088235],[-79.46996152588551,43.6902613027462],[-79.46996817771455,43.69037244311757],[-79.47017343983411,43.69081702883013],[-79.47036218298899,43.6912258313441],[-79.46968207379807,43.69136231937823],[-79.46984193477616,43.69172937585288],[-79.46984480945702,43.69173597549073],[-79.47001364474212,43.69212366242876],[-79.47015404052199,43.692443998182284],[-79.47011608124927,43.69287201342561],[-79.47029373638586,43.69366761199888],[-79.47033941311578,43.69388235065437],[-79.47063536982591,43.69527368637094],[-79.46957133339248,43.6955369661266],[-79.46898416620654,43.696070331522435],[-79.46870223538724,43.696326403695004],[-79.46849694741191,43.69649196724854],[-79.46793496884628,43.697012700740736],[-79.46764599311923,43.6972326639653],[-79.46750200101235,43.697331756535895],[-79.46732067548307,43.69746041391634],[-79.46710925110526,43.697591934672914],[-79.4669507492395,43.697659461915414],[-79.46674540290964,43.69772509314145],[-79.46658708276166,43.697756686635664],[-79.46650958379973,43.697772551297135],[-79.46634853323187,43.697805520863625],[-79.46464892025429,43.69818717267368],[-79.46348404142509,43.69844275647706],[-79.46332513896512,43.69844678500521],[-79.46318487445885,43.69844524749633],[-79.46297860297986,43.698434705133565],[-79.4627909121145,43.698409199244196],[-79.46238047611988,43.69833273816342],[-79.46222578203907,43.698313236183154],[-79.46205251695267,43.69831318149475],[-79.46191224332752,43.698326593622994],[-79.46172451202234,43.69836395212657],[-79.4608784317408,43.69857017859462],[-79.45989361011199,43.6987712761504],[-79.45973590487463,43.69881630924461],[-79.45939899017476,43.69892903337863],[-79.45928652416676,43.69865789147519],[-79.45917336459752,43.69838647015943],[-79.45887365397562,43.69769970826734],[-79.45871541142922,43.69730306086369],[-79.45836986438681,43.69650898512248],[-79.45815130302174,43.69600671487859],[-79.45752801864168,43.694541758807624],[-79.45742661312028,43.69430341352763],[-79.45734549622203,43.694112745875785],[-79.45774263914161,43.69401960987439],[-79.45848884449467,43.69384459404679],[-79.45963925620171,43.69360602694553],[-79.46024756127113,43.693469127304596],[-79.46023302249512,43.69336895451019],[-79.460229992636,43.69336963035637],[-79.46021982368437,43.69334553294876],[-79.46009778652775,43.693057039075676],[-79.46007005311466,43.69299147447635],[-79.4600379004763,43.6929154451739],[-79.46000573426963,43.69283942125747],[-79.45997648997948,43.69277028797537],[-79.45994724699518,43.69270115738581],[-79.45991010319159,43.692613325544954],[-79.45988238009515,43.69254778520221],[-79.45985659541888,43.69248684071418],[-79.45982999336103,43.692423928240665],[-79.4597900717754,43.69232955230986],[-79.45975015031428,43.69223517726375],[-79.45972325243766,43.69217160216017],[-79.45969663578413,43.69210867164429],[-79.45967001918441,43.692045743821964],[-79.4596434026397,43.69198281689288],[-79.45961689392146,43.6919201195291],[-79.4595924982131,43.69186243124866],[-79.45959019076057,43.691857030531594],[-79.45956809634406,43.691804750161275],[-79.45954147877244,43.69174182230532],[-79.45951375028048,43.69167627466021],[-79.45948603177422,43.69161072521091],[-79.45945459520473,43.691536444939416],[-79.45943024686333,43.69147887995558],[-79.45942268193117,43.69146095831006],[-79.45939153287351,43.691387332518524],[-79.45935968785801,43.69131203492191],[-79.459320500948,43.691219397228046],[-79.45928381721328,43.691132664387844],[-79.45927029132643,43.6911007327271],[-79.45924703448945,43.69104571726742],[-79.459210263032,43.69095877643879],[-79.45917199058715,43.69086831913853],[-79.45913485153012,43.69078047981817],[-79.45911035144576,43.69072258165481],[-79.45909769396917,43.69069264767884],[-79.45906082262549,43.69060546822556],[-79.4590233816625,43.69051696985887],[-79.45898456981895,43.6904252044011],[-79.45895130527649,43.6903465486695],[-79.45895041232414,43.69034444293586],[-79.45891248745443,43.69025477688142],[-79.45887921069665,43.690176119321876],[-79.45885925882295,43.690128928026546],[-79.45883623677558,43.69007451384784],[-79.45881322344637,43.69002010956858],[-79.45879046405554,43.689966290462735],[-79.45878217993557,43.6899466924615],[-79.45875444565402,43.689881143709385],[-79.45872673127853,43.68981559765735],[-79.45869258685264,43.68973487571705],[-79.45867150824817,43.68968505648724],[-79.45865042843441,43.68963524265346],[-79.4586305029058,43.68958814313691],[-79.45859816587654,43.68951134820361],[-79.45861374436159,43.68942371860321],[-79.45891458503044,43.68935897787695],[-79.4590730798677,43.689321199402556],[-79.45923368114937,43.68928291918463],[-79.46051141977887,43.68900107129971],[-79.46174044617754,43.68870393285118],[-79.46141936311315,43.68766877776398],[-79.4616236859914,43.6876208450837],[-79.46289666870452,43.6873221849519],[-79.46293599274772,43.68731377695286],[-79.46332456055273,43.68723068846691],[-79.46340359055685,43.68739730165071],[-79.46342876122397,43.68745036542127],[-79.46356784674151,43.68777945030996]]]},"properties":{"StationName":"Caledonia","MTSA_Type":"Protected Major Transit Station Area","SASP_No":674}},{"type":"Feature","geometry":{"type":"Polygon","coordinates":[[[-79.45815130302174,43.69600671487859],[-79.45836986438681,43.69650898512248],[-79.45871541142922,43.69730306086369],[-79.45887365397562,43.69769970826734],[-79.45917336459752,43.69838647015943],[-79.45919537672992,43.698436905244606],[-79.4579966092128,43.69856378577599],[-79.45672899613227,43.69869793406736],[-79.4513929481461,43.69926435282005],[-79.45138110567913,43.699212518159605],[-79.45136817531738,43.6991558952303],[-79.45126591787681,43.698694026120315],[-79.45088613568464,43.698764181921995],[-79.45062772608215,43.69882088696227],[-79.45049993959296,43.69885852924438],[-79.4503581618084,43.69892199910962],[-79.45019776766505,43.69897639635515],[-79.45003535037851,43.699018037614096],[-79.44978313523954,43.69906821748975],[-79.44851235947375,43.69932105653201],[-79.4479483084317,43.69945561390038],[-79.44675981036929,43.69971038275931],[-79.44654775039582,43.699743723708565],[-79.44641423002763,43.699747837807806],[-79.4462875181875,43.69975644661088],[-79.44599615250516,43.69981318058785],[-79.44566280141655,43.699883936835086],[-79.44556529131894,43.69993889752562],[-79.4452636217378,43.69924249119555],[-79.44495519117591,43.6984744220793],[-79.44464323870218,43.697733508224],[-79.44448848261135,43.69734802786879],[-79.44447606885083,43.69731714728782],[-79.4443361940898,43.69696873689246],[-79.44516927986213,43.696788078732546],[-79.44527396508174,43.69676538434426],[-79.44496106258332,43.69607158993666],[-79.4446417006401,43.69531788310722],[-79.44429890254608,43.69444606009796],[-79.44430352914048,43.694397246330595],[-79.4443546639847,43.69431280903835],[-79.44456439773901,43.693966592793686],[-79.44463071135739,43.693899618115694],[-79.4446347396882,43.69384136974377],[-79.44420570151662,43.69279045889019],[-79.44411473132028,43.69252928033855],[-79.44372302056458,43.691573068930666],[-79.44340221797879,43.69077720407249],[-79.44451316375567,43.690535655963124],[-79.44459944245737,43.69073340319106],[-79.44571068780516,43.690489078375215],[-79.44678606317106,43.690265672166774],[-79.44687385024021,43.6904630817399],[-79.44689765955806,43.6905129332109],[-79.44691982551726,43.69054281084499],[-79.44696238250826,43.690574246167714],[-79.44702250670694,43.690592312729514],[-79.44708522257139,43.69058469874273],[-79.44715279595033,43.69056885974466],[-79.44804867289254,43.69039176853333],[-79.44826579533,43.69095550376183],[-79.44845073398078,43.690899813226906],[-79.4485367711218,43.690850315835],[-79.4486206505685,43.690788133623556],[-79.44866645156976,43.69073340536614],[-79.44867931002733,43.69065976759673],[-79.44866990136873,43.69059959573078],[-79.4486418405458,43.690507693869996],[-79.44861925531441,43.69043612848471],[-79.44862872470875,43.690339301746796],[-79.44867810192909,43.69028136070962],[-79.44876536477062,43.69022319450164],[-79.44889504048776,43.690163796010125],[-79.4500659977846,43.68981045469581],[-79.4501403227298,43.68986788237672],[-79.4501991985069,43.68990485043704],[-79.45028593148999,43.689945080969025],[-79.45038855312106,43.6899876946853],[-79.4505168291537,43.690001695160596],[-79.45064033661885,43.690008419451175],[-79.45076560686908,43.68998476484953],[-79.45227063264763,43.68967061105181],[-79.45245356742612,43.689673408394256],[-79.4521145709624,43.69087207861784],[-79.4520463280275,43.69102419331112],[-79.45195552423817,43.69114308174611],[-79.45208153636997,43.691090503823226],[-79.45221940262786,43.691042423283854],[-79.4528721869526,43.690904976523534],[-79.45292410338507,43.69090277458584],[-79.45299615343552,43.69091277861743],[-79.45303490213998,43.69091836637214],[-79.45308504333252,43.69094652604254],[-79.45312155747095,43.690981376197826],[-79.45356675527002,43.69201398148077],[-79.45411053094912,43.69328664592313],[-79.45524769356585,43.693027220179545],[-79.45657238551212,43.6927467814865],[-79.45698626948679,43.69375515664932],[-79.45714799160139,43.69414914630368],[-79.45734549622203,43.694112745875785],[-79.45742661312028,43.69430341352763],[-79.45815130302174,43.69600671487859]]]},"properties":{"StationName":"Fairbank","MTSA_Type":"Protected Major Transit Station Area","SASP_No":675}},{"type":"Feature","geometry":{"type":"Polygon","coordinates":[[[-79.44835549660729,43.69892957128513],[-79.44851235947375,43.69932105653201],[-79.4479483084317,43.69945561390038],[-79.44675981036929,43.69971038275931],[-79.44654775039582,43.699743723708565],[-79.44641423002763,43.699747837807806],[-79.4462875181875,43.69975644661088],[-79.44599615250516,43.69981318058785],[-79.44566280141655,43.699883936835086],[-79.44556529131894,43.69993889752562],[-79.44546276475111,43.69998177506374],[-79.4454025438249,43.70001536535641],[-79.4453238733005,43.70004821678644],[-79.44520288194636,43.700090352549275],[-79.44340793808787,43.70047693540749],[-79.4405705270681,43.70108496770398],[-79.44025884015588,43.70032480383705],[-79.44010523272313,43.69991247007852],[-79.43996825206722,43.69994439792408],[-79.43975798443869,43.69999342372351],[-79.43932776091945,43.70008898645396],[-79.43919405514885,43.70012430860753],[-79.4391019516091,43.70016849117459],[-79.43904080486185,43.700199882198625],[-79.43899629687094,43.700227636535196],[-79.43890415680582,43.700259839062625],[-79.4386416827429,43.700318603125076],[-79.43833628182941,43.70038918017369],[-79.43806430397501,43.70044694853636],[-79.4374025837527,43.69885000445548],[-79.43725343742986,43.69849004071229],[-79.43714933487219,43.69851451843194],[-79.43712511647543,43.698459552923154],[-79.43695505974168,43.6980174221615],[-79.43692004004508,43.6979264012361],[-79.43653884548796,43.69693530258],[-79.43772189538902,43.69666996942575],[-79.43836092744215,43.69655430038477],[-79.43832647654096,43.69645055679584],[-79.43799169513784,43.69560831664702],[-79.43778129628897,43.69510862219658],[-79.43766730535111,43.69479133339473],[-79.43716336818304,43.69354570070041],[-79.43734632474631,43.69349412087418],[-79.43754266080262,43.69347910968068],[-79.4377572394547,43.69348046440717],[-79.43804990540525,43.693431440109975],[-79.43822133249274,43.69339192162068],[-79.43837618306871,43.693344039801325],[-79.43933800474392,43.69311660720637],[-79.43900441894924,43.69231194713805],[-79.43873438853409,43.69166059391505],[-79.43865208164256,43.69144787790319],[-79.43886354325822,43.69154069685832],[-79.4395765117878,43.691943283546756],[-79.43973859407718,43.69203480827471],[-79.44026353822623,43.69233822357481],[-79.44080537580383,43.69265470613405],[-79.44060012417198,43.692262136965645],[-79.44055121227194,43.69214716988961],[-79.44028455553071,43.691482697215],[-79.44080372887116,43.691365227075316],[-79.44340221797879,43.69077720407249],[-79.44372302056458,43.691573068930666],[-79.44411473132028,43.69252928033855],[-79.44420570151662,43.69279045889019],[-79.44531958318345,43.692544433500466],[-79.44536515444167,43.69267923587299],[-79.44561852277107,43.693271266409425],[-79.44668067792082,43.6930495256613],[-79.44719836481498,43.69420610239566],[-79.44724731095033,43.69432104859967],[-79.44725419983227,43.69435782311916],[-79.44725822437718,43.69439162587696],[-79.44725393030382,43.6944332109481],[-79.44723239811236,43.694480926970606],[-79.44713126464919,43.69471797080792],[-79.44710497814087,43.69479418371941],[-79.44709960403823,43.694849145160006],[-79.44711641988732,43.6949100316425],[-79.44736922927548,43.695554525661045],[-79.44764573052714,43.69625936580838],[-79.44729330350268,43.69635948675206],[-79.44759606623228,43.69710601157162],[-79.44790380187291,43.69784064070535],[-79.44813446043369,43.69838854558351],[-79.44835549660729,43.69892957128513]]]},"properties":{"StationName":"Oakwood","MTSA_Type":"Protected Major Transit Station Area","SASP_No":676}},{"type":"Feature","geometry":{"type":"Polygon","coordinates":[[[-79.43475730121081,43.69574667873617],[-79.43593562463457,43.695508560633776],[-79.43714104122057,43.695241296268485],[-79.43778129628897,43.69510862219658],[-79.43773981656099,43.69499316564758],[-79.43766730535111,43.69479133339473],[-79.4388433536583,43.69452827195136],[-79.43895358107828,43.69476030147896],[-79.44146610208118,43.69419582348821],[-79.44177518160653,43.69498743060172],[-79.44212214680736,43.69578451076459],[-79.44241400473405,43.69650877457366],[-79.44246944363513,43.696611554451486],[-79.44260572757251,43.69694305455529],[-79.44261526937268,43.69696626476851],[-79.44275361210067,43.69730274254273],[-79.4443361940898,43.69696873689246],[-79.44447606885083,43.69731714728782],[-79.44448848261135,43.69734802786879],[-79.44464323870218,43.697733508224],[-79.44495519117591,43.6984744220793],[-79.4452636217378,43.69924249119555],[-79.44556529131894,43.69993889752562],[-79.44601114581138,43.70121138192353],[-79.4447769134603,43.701476610315325],[-79.44365742006515,43.70171717155686],[-79.44233167424328,43.70199203089973],[-79.44179519570848,43.702103242127755],[-79.44162011890558,43.702139535277944],[-79.4411995167424,43.702226730601964],[-79.44106893211013,43.70225380323105],[-79.4402656369616,43.702416411858486],[-79.43895426329463,43.70267970071376],[-79.43779852260242,43.7029351291461],[-79.43753806012252,43.70300040509442],[-79.43728803446805,43.70306307129202],[-79.43694471814591,43.70314432994745],[-79.4368283791091,43.703171865552314],[-79.43569966161509,43.70342779264532],[-79.43453827508168,43.70368846057428],[-79.43341784435776,43.703968569895984],[-79.43341106358487,43.70395175238702],[-79.43340320254609,43.70393566245472],[-79.43339563624401,43.70392232799656],[-79.43338515625726,43.703907092562105],[-79.43337728930436,43.70389523414338],[-79.43336513374057,43.70388050180414],[-79.43334297109271,43.70386048075571],[-79.43331509153136,43.70383664971106],[-79.43328227113221,43.703815191223256],[-79.43325027869118,43.70379789271789],[-79.43321992149241,43.70378180043521],[-79.43319530241794,43.70377166136853],[-79.43315098472605,43.70375734496858],[-79.43311651339778,43.703747785208215],[-79.4330779338276,43.703739429208724],[-79.43303606353132,43.70373463578994],[-79.43297780157077,43.70372984264737],[-79.43291540325693,43.70372920565599],[-79.43286203566775,43.70373036429706],[-79.43280210113518,43.70373449938884],[-79.43272410498756,43.703745176778966],[-79.43267230643518,43.703752331131874],[-79.43266826093652,43.7037528868306],[-79.43260793960035,43.70377000149152],[-79.43253922865422,43.70364508839217],[-79.4323368347733,43.70312683853498],[-79.43201631868601,43.70232545000682],[-79.43166420632882,43.70151540481606],[-79.43133681840159,43.700685545169094],[-79.43115142699035,43.70021419644603],[-79.43099905340385,43.69982678935453],[-79.43097876383139,43.69983068998012],[-79.43086620443272,43.69985232954921],[-79.43070581095844,43.69945239184982],[-79.42998502161339,43.697655099130465],[-79.42975123085604,43.69710418340407],[-79.42962718071148,43.69682861427135],[-79.43352560426132,43.696002594289446],[-79.43475730121081,43.69574667873617]]]},"properties":{"StationName":"Eglinton West","MTSA_Type":"Protected Major Transit Station Area","SASP_No":716}},{"type":"Feature","geometry":{"type":"Polygon","coordinates":[[[-79.47782719877638,43.685045701342275],[-79.47905190230033,43.68587187874435],[-79.47827618761828,43.68669706725032],[-79.4787249298494,43.688456014001865],[-79.47885918173046,43.689297080067384],[-79.47980192576442,43.69170186527348],[-79.48017262718585,43.692806894483546],[-79.48030705212737,43.69277452371895],[-79.48121356191288,43.692556222907896],[-79.4814026660868,43.692510682772784],[-79.48142763945516,43.69250569199239],[-79.48154424505353,43.6924824001216],[-79.48161389918383,43.692377616904565],[-79.4830401794548,43.69205617200077],[-79.48351589418853,43.692135302122175],[-79.48330405773514,43.692185408815725],[-79.48315653014228,43.69222029975179],[-79.48315821782565,43.69222268355406],[-79.48326151402978,43.69236838533669],[-79.4833057326127,43.692430752152106],[-79.4833850209868,43.692542606190436],[-79.48347863348575,43.6926746513362],[-79.48358868707192,43.692829888901564],[-79.48367996110551,43.692796159567386],[-79.48370557202819,43.69278662270671],[-79.48371920727608,43.6928075464511],[-79.48421649501348,43.69348474333628],[-79.48412844644596,43.69358606185334],[-79.48398094550114,43.69353769871781],[-79.48366834466327,43.693436463294],[-79.48341957339143,43.6934072937647],[-79.48322730163962,43.69340979148809],[-79.48220639000829,43.6937082194515],[-79.48200810796034,43.69438724353086],[-79.48196065866397,43.69445794151404],[-79.4818923630534,43.694506933065476],[-79.48180427483342,43.69453276910169],[-79.48174199434287,43.694545602270786],[-79.48158412286477,43.69456675707882],[-79.4805077184674,43.69470831806002],[-79.48017542195647,43.69475433872749],[-79.47915691388097,43.6949308725821],[-79.4783977047192,43.69508381906015],[-79.4763357289563,43.695540869195845],[-79.47616591250207,43.6955959175528],[-79.47599567063895,43.695665450507626],[-79.47578302644992,43.695786532949],[-79.47575350344033,43.695806392625],[-79.4756754774402,43.69589836873563],[-79.47559344278484,43.69593844137039],[-79.47558391411926,43.69594058075173],[-79.47555249529475,43.69595442708232],[-79.47546917786076,43.69597584769864],[-79.47542485124443,43.69597584627861],[-79.47537110768367,43.69597778709993],[-79.4752783953425,43.695956315118266],[-79.47520854565221,43.69593582916708],[-79.47515078634599,43.69590461711749],[-79.47510870333304,43.695882291865324],[-79.47512847117251,43.695974956753396],[-79.4751631408877,43.69613745268628],[-79.47501630292521,43.69626348880012],[-79.47496248045175,43.696314301226835],[-79.4748570698254,43.69633811090771],[-79.47465946949453,43.69638275076909],[-79.4745330419545,43.69641130999157],[-79.47450164038965,43.6964184068398],[-79.47440300129196,43.69644069008637],[-79.47432103752016,43.696459205438366],[-79.47427296175621,43.69647003942879],[-79.4741429071936,43.69649941832413],[-79.47414042697805,43.69649996684411],[-79.4740128773209,43.69652878627536],[-79.47395981120873,43.696540774769886],[-79.47388282622708,43.696558163074975],[-79.47377921257133,43.696581563511124],[-79.47375278369336,43.696587533427525],[-79.4736227559213,43.69661690093497],[-79.47359860996345,43.69662236096715],[-79.47349269824213,43.69664628088929],[-79.47336267269795,43.69667564720097],[-79.47323261725218,43.696705013357594],[-79.47318602749068,43.696715536692565],[-79.47310258773085,43.69673438297272],[-79.47297253574833,43.69676375963554],[-79.47284250473304,43.69679312805402],[-79.47272583146591,43.69681942105822],[-79.47272581654954,43.69681948496409],[-79.47271244877528,43.69682250351951],[-79.4725824051009,43.69685186983853],[-79.47245236377924,43.69688123961053],[-79.47232232233318,43.69691060383361],[-79.4721922894392,43.696939979612374],[-79.47219208099357,43.69694002636858],[-79.47216314552092,43.69694649038026],[-79.47207264659595,43.696966712291804],[-79.47198218110773,43.69698693233956],[-79.47195285102998,43.69699348801478],[-79.47183095384543,43.69701209979011],[-79.47181984577266,43.69701379740299],[-79.47167920013322,43.69703526861528],[-79.47160260113799,43.697046966639704],[-79.47151631835973,43.69706014471878],[-79.4713614514584,43.697083787616215],[-79.47135345276877,43.69708462363553],[-79.47118280138837,43.697110666588586],[-79.47101034507143,43.697079395576296],[-79.4709736531568,43.697072745985565],[-79.4708570189336,43.69702586259831],[-79.47084440675526,43.69702079253474],[-79.4707403365159,43.696978962876926],[-79.47069140611588,43.69695929144175],[-79.47066994635573,43.69695067256686],[-79.4706236939751,43.69693207294775],[-79.47056602892907,43.696908895896875],[-79.47050703424924,43.696885179294206],[-79.47042712072722,43.69685306261251],[-79.47018632289719,43.69676077335462],[-79.4700825523745,43.69669684491351],[-79.4699791405021,43.69663313160346],[-79.46987508640977,43.69656902287155],[-79.46977134259132,43.69650511395578],[-79.46966762256481,43.69644120495144],[-79.46956380105158,43.69637725081861],[-79.469460355554,43.696313510922856],[-79.469356611381,43.69624959172628],[-79.46925280541251,43.696185644514074],[-79.4691492714839,43.69612144884362],[-79.46910541774658,43.69609425028512],[-79.46904784873487,43.69601248463932],[-79.46957133339248,43.6955369661266],[-79.47063536982591,43.69527368637094],[-79.4705471067919,43.69485875902282],[-79.47033941311578,43.69388235065437],[-79.4703037442717,43.69371466096606],[-79.47029373638586,43.69366761199888],[-79.47011608124927,43.69287201342561],[-79.47014724910957,43.692520577965496],[-79.47015404052199,43.692443998182284],[-79.47001364474212,43.69212366242876],[-79.46984480945702,43.69173597549073],[-79.46984193477616,43.69172937585288],[-79.46973878001258,43.69149252163451],[-79.46968207379807,43.69136231937823],[-79.47036218298899,43.6912258313441],[-79.47030597514505,43.6911040898771],[-79.47017343983411,43.69081702883013],[-79.46996817771455,43.69037244311757],[-79.46996152588551,43.6902613027462],[-79.46992832116405,43.690178388088235],[-79.46989548945105,43.690096406956485],[-79.46968410863828,43.68956857197895],[-79.46961970783514,43.68940775675098],[-79.46926616429856,43.688584441958454],[-79.46891546889302,43.68778684896394],[-79.46853394246922,43.68686802160411],[-79.4707972604961,43.68635489841106],[-79.47040473316517,43.685456547814184],[-79.47221757257233,43.68504180219173],[-79.47277290209212,43.68491473868262],[-79.47238082683928,43.683998320044054],[-79.47226263815926,43.6837435406628],[-79.47288275232953,43.683580954966935],[-79.47394120833506,43.68330344382816],[-79.47428113877804,43.683214318342436],[-79.47451282673131,43.683169060142404],[-79.47504309289165,43.68300348299818],[-79.47527309843397,43.682892707462436],[-79.47657762323081,43.68257577282186],[-79.47730528154499,43.682877543151506],[-79.47927872534771,43.68394712788289],[-79.47894505710264,43.68432673567157],[-79.47802320249797,43.68481520660008],[-79.47771484397687,43.68496990525679],[-79.47782719877638,43.685045701342275]]]},"properties":{"StationName":"Keelesdale","MTSA_Type":"Protected Major Transit Station Area","SASP_No":673}}]}