{"type":"FeatureCollection","features":[{"type":"Feature","geometry":{"type":"MultiPoint","coordinates":[[-79.4604033429507,43.6827599113969]]},"properties":{"_id":1596,"LOCATIONID":"1348","ASSET_ID":46305,"ASSET_NAME":"ST. NICHOLAS OF BARI CATHOLIC SCHOOL","TYPE":"Community Centre","AMENITIES":"None","ADDRESS":"363 ROGERS RD","PHONE":"None","URL":"https://www.toronto.ca/explore-enjoy/parks-recreation/places-spaces/parks-and-recreation-facilities/location/?id=1348"}},{"type":"Feature","geometry":{"type":"MultiPoint","coordinates":[[-79.4367356625274,43.6909406829253]]},"properties":{"_id":1598,"LOCATIONID":"1371","ASSET_ID":13074,"ASSET_NAME":"VAUGHAN ROAD ACADEMY","TYPE":"Community Centre","AMENITIES":"None","ADDRESS":"529 VAUGHAN RD","PHONE":"None","URL":"https://www.toronto.ca/explore-enjoy/parks-recreation/places-spaces/parks-and-recreation-facilities/location/?id=1371"}},{"type":"Feature","geometry":{"type":"MultiPoint","coordinates":[[-79.4897566367635,43.6876098594328]]},"properties":{"_id":1609,"LOCATIONID":"1462","ASSET_ID":741,"ASSET_NAME":"MOUNT DENNIS COMMUNITY HALL","TYPE":"Community Centre","AMENITIES":"None","ADDRESS":"4 HOLLIS ST","PHONE":"416-394-2747","URL":"https://www.toronto.ca/explore-enjoy/parks-recreation/places-spaces/parks-and-recreation-facilities/location/?id=1462"}},{"type":"Feature","geometry":{"type":"MultiPoint","coordinates":[[-79.4820344136735,43.687872905789]]},"properties":{"_id":1658,"LOCATIONID":"3501","ASSET_ID":45062,"ASSET_NAME":"YORK RECREATION CENTRE","TYPE":"Community Centre","AMENITIES":"Wi-Fi","ADDRESS":"115 BLACK CREEK DR","PHONE":"416-392-9675","URL":"https://www.toronto.ca/explore-enjoy/parks-recreation/places-spaces/parks-and-recreation-facilities/location/?id=3501"}},{"type":"Feature","geometry":{"type":"MultiPoint","coordinates":[[-79.4770361975589,43.6902863306723]]},"properties":{"_id":1684,"LOCATIONID":"474","ASSET_ID":1676,"ASSET_NAME":"THE NEW GENERATION YOUTH RECREATION CENTRE","TYPE":"Community Centre","AMENITIES":"Wi-Fi","ADDRESS":"2694 EGLINTON AVE W","PHONE":"416-394-2717","URL":"https://www.toronto.ca/explore-enjoy/parks-recreation/places-spaces/parks-and-recreation-facilities/location/?id=474"}},{"type":"Feature","geometry":{"type":"MultiPoint","coordinates":[[-79.4770361975589,43.6902863306723]]},"properties":{"_id":1685,"LOCATIONID":"474","ASSET_ID":1676,"ASSET_NAME":"THE NEW GENERATION YOUTH RECREATION CENTRE","TYPE":"Community Centre","AMENITIES":"None","ADDRESS":"2694 EGLINTON AVE W","PHONE":"416-394-2717","URL":"https://www.toronto.ca/explore-enjoy/parks-recreation/places-spaces/parks-and-recreation-facilities/location/?id=474"}},{"type":"Feature","geometry":{"type":"MultiPoint","coordinates":[[-79.4788670927587,43.6876680705564]]},"properties":{"_id":1686,"LOCATIONID":"476","ASSET_ID":2058,"ASSET_NAME":"CHRIS TONKS ARENA","TYPE":"Community Centre","AMENITIES":"Wi-Fi","ADDRESS":"2801 EGLINTON AVE W","PHONE":"416-394-2733","URL":"https://www.toronto.ca/explore-enjoy/parks-recreation/places-spaces/parks-and-recreation-facilities/location/?id=476"}},{"type":"Feature","geometry":{"type":"MultiPoint","coordinates":[[-79.4315518192318,43.6912757940726]]},"properties":{"_id":1687,"LOCATIONID":"477","ASSET_ID":1908,"ASSET_NAME":"PHIL WHITE ARENA","TYPE":"Community Centre","AMENITIES":"Washroom, Wi-Fi","ADDRESS":"443 ARLINGTON AVE","PHONE":"416-394-2734","URL":"https://www.toronto.ca/explore-enjoy/parks-recreation/places-spaces/parks-and-recreation-facilities/location/?id=477"}},{"type":"Feature","geometry":{"type":"MultiPoint","coordinates":[[-79.4783923296905,43.6899244188196]]},"properties":{"_id":1698,"LOCATIONID":"525","ASSET_ID":2112,"ASSET_NAME":"YORK CIVIC CENTRE","TYPE":"Civic Centre","AMENITIES":"None","ADDRESS":"2700 EGLINTON AVE W","PHONE":"None","URL":"https://www.toronto.ca/explore-enjoy/parks-recreation/places-spaces/parks-and-recreation-facilities/location/?id=525"}},{"type":"Feature","geometry":{"type":"MultiPoint","coordinates":[[-79.4479867215526,43.6912994410153]]},"properties":{"_id":1709,"LOCATIONID":"482","ASSET_ID":13487,"ASSET_NAME":"FAIRBANK MEMORIAL COMMUNITY CENTRE","TYPE":"Community Centre","AMENITIES":"Wi-Fi","ADDRESS":"2213 DUFFERIN ST","PHONE":"416-394-2473","URL":"https://www.toronto.ca/explore-enjoy/parks-recreation/places-spaces/parks-and-recreation-facilities/location/?id=482"}}]}