{"type":"FeatureCollection","features":[{"type":"Feature","geometry":{"type":"MultiPoint","coordinates":[[-79.4753823399146,43.6960597222336]]},"properties":{"_id":91,"LOCATIONID":"2409","ASSET_ID":1380,"ASSET_NAME":"KING GEORGES - KEELE PARKETTE","TYPE":"Park","AMENITIES":"None","ADDRESS":" KING GEORGE'S DR","PHONE":"None","URL":"https://www.toronto.ca/explore-enjoy/parks-recreation/places-spaces/parks-and-recreation-facilities/location/?id=2409"}},{"type":"Feature","geometry":{"type":"MultiPoint","coordinates":[[-79.4352780072927,43.6893995017415]]},"properties":{"_id":158,"LOCATIONID":"2690","ASSET_ID":251,"ASSET_NAME":"CY TOWNSEND PARK","TYPE":"Park","AMENITIES":"Playground","ADDRESS":"455 Winona Dr","PHONE":"None","URL":"https://www.toronto.ca/explore-enjoy/parks-recreation/places-spaces/parks-and-recreation-facilities/location/?id=2690"}},{"type":"Feature","geometry":{"type":"MultiPoint","coordinates":[[-79.4512605065141,43.684098770908]]},"properties":{"_id":169,"LOCATIONID":"3803","ASSET_ID":80564,"ASSET_NAME":"NAIRN PARK","TYPE":"Park","AMENITIES":"Outdoor Ping Pong/Table Tennis, Playground","ADDRESS":"261 Nairn Ave","PHONE":"None","URL":"https://www.toronto.ca/explore-enjoy/parks-recreation/places-spaces/parks-and-recreation-facilities/location/?id=3803"}},{"type":"Feature","geometry":{"type":"MultiPoint","coordinates":[[-79.4352115755479,43.698473108678]]},"properties":{"_id":198,"LOCATIONID":"1046","ASSET_ID":84,"ASSET_NAME":"BEN NOBLEMAN PARK","TYPE":"Park","AMENITIES":"Playground","ADDRESS":"1075 Eglinton Ave W","PHONE":"None","URL":"https://www.toronto.ca/explore-enjoy/parks-recreation/places-spaces/parks-and-recreation-facilities/location/?id=1046"}},{"type":"Feature","geometry":{"type":"MultiPoint","coordinates":[[-79.4453560037414,43.694422490823]]},"properties":{"_id":216,"LOCATIONID":"2659","ASSET_ID":933,"ASSET_NAME":"SENATOR PETER BOSA PARKETTE","TYPE":"Park","AMENITIES":"None","ADDRESS":"725 Vaughan Rd","PHONE":"None","URL":"https://www.toronto.ca/explore-enjoy/parks-recreation/places-spaces/parks-and-recreation-facilities/location/?id=2659"}},{"type":"Feature","geometry":{"type":"MultiPoint","coordinates":[[-79.479011194583,43.6947769071944]]},"properties":{"_id":218,"LOCATIONID":"2522","ASSET_ID":1332,"ASSET_NAME":"GREEN HILLS PARK","TYPE":"Park","AMENITIES":"None","ADDRESS":"1 A Paulson Rd","PHONE":"None","URL":"https://www.toronto.ca/explore-enjoy/parks-recreation/places-spaces/parks-and-recreation-facilities/location/?id=2522"}},{"type":"Feature","geometry":{"type":"MultiPoint","coordinates":[[-79.4334146867407,43.6914432653416]]},"properties":{"_id":229,"LOCATIONID":"2717","ASSET_ID":45,"ASSET_NAME":"ARLINGTON PARKETTE","TYPE":"Park","AMENITIES":"Playground","ADDRESS":"460 Arlington Ave","PHONE":"None","URL":"https://www.toronto.ca/explore-enjoy/parks-recreation/places-spaces/parks-and-recreation-facilities/location/?id=2717"}},{"type":"Feature","geometry":{"type":"MultiPoint","coordinates":[[-79.4797720302363,43.6909914601207]]},"properties":{"_id":325,"LOCATIONID":"2031","ASSET_ID":230,"ASSET_NAME":"CORONATION PARK - YORK","TYPE":"Park","AMENITIES":"Ball Diamond, Basketball Court, Outdoor Dry Pad, Outdoor Fitness Equipment, Outdoor Ping Pong/Table Tennis, Playground","ADDRESS":"2700 Eglinton Ave W","PHONE":"None","URL":"https://www.toronto.ca/explore-enjoy/parks-recreation/places-spaces/parks-and-recreation-facilities/location/?id=2031"}},{"type":"Feature","geometry":{"type":"MultiPoint","coordinates":[[-79.4637194901539,43.69216709418]]},"properties":{"_id":332,"LOCATIONID":"2739","ASSET_ID":1290,"ASSET_NAME":"EGLINTON - GILBERT PARKETTE","TYPE":"Park","AMENITIES":"None","ADDRESS":"504 Gilbert Ave","PHONE":"None","URL":"https://www.toronto.ca/explore-enjoy/parks-recreation/places-spaces/parks-and-recreation-facilities/location/?id=2739"}},{"type":"Feature","geometry":{"type":"MultiPoint","coordinates":[[-79.4477474522899,43.6918448284323]]},"properties":{"_id":425,"LOCATIONID":"502","ASSET_ID":354,"ASSET_NAME":"FAIRBANK MEMORIAL PARK","TYPE":"Park","AMENITIES":"Ball Diamond, Basketball Court, Playground","ADDRESS":"2213 Dufferin St","PHONE":"None","URL":"https://www.toronto.ca/explore-enjoy/parks-recreation/places-spaces/parks-and-recreation-facilities/location/?id=502"}},{"type":"Feature","geometry":{"type":"MultiPoint","coordinates":[[-79.486015167755,43.6964106506128]]},"properties":{"_id":429,"LOCATIONID":"835","ASSET_ID":1055,"ASSET_NAME":"TRETHEWEY PARK EAST","TYPE":"Park","AMENITIES":"Playground","ADDRESS":"121 Trethewey Dr","PHONE":"None","URL":"https://www.toronto.ca/explore-enjoy/parks-recreation/places-spaces/parks-and-recreation-facilities/location/?id=835"}},{"type":"Feature","geometry":{"type":"MultiPoint","coordinates":[[-79.4834180956778,43.7027816818672]]},"properties":{"_id":445,"LOCATIONID":"2243","ASSET_ID":1477,"ASSET_NAME":"REDBANK GREENBELT","TYPE":"Park","AMENITIES":"None","ADDRESS":"99 Culford Rd","PHONE":"None","URL":"https://www.toronto.ca/explore-enjoy/parks-recreation/places-spaces/parks-and-recreation-facilities/location/?id=2243"}},{"type":"Feature","geometry":{"type":"MultiPoint","coordinates":[[-79.4364450021458,43.6928213423716]]},"properties":{"_id":490,"LOCATIONID":"833","ASSET_ID":608,"ASSET_NAME":"LAUGHLIN PARK","TYPE":"Park","AMENITIES":"Outdoor Ping Pong/Table Tennis, Playground","ADDRESS":"420 Atlas Ave","PHONE":"None","URL":"https://www.toronto.ca/explore-enjoy/parks-recreation/places-spaces/parks-and-recreation-facilities/location/?id=833"}},{"type":"Feature","geometry":{"type":"MultiPoint","coordinates":[[-79.44777760595,43.6997395310475]]},"properties":{"_id":499,"LOCATIONID":"836","ASSET_ID":1084,"ASSET_NAME":"WALTER SAUNDERS MEMORIAL PARK","TYPE":"Park","AMENITIES":"Basketball Court, Outdoor Fitness Equipment, Playground","ADDRESS":"440 Hopewell Ave","PHONE":"None","URL":"https://www.toronto.ca/explore-enjoy/parks-recreation/places-spaces/parks-and-recreation-facilities/location/?id=836"}},{"type":"Feature","geometry":{"type":"MultiPoint","coordinates":[[-79.4261437677493,43.6836982099568]]},"properties":{"_id":553,"LOCATIONID":"1956","ASSET_ID":516,"ASSET_NAME":"HUMEWOOD PARK","TYPE":"Park","AMENITIES":"Playground","ADDRESS":"37 Humewood Dr","PHONE":"None","URL":"https://www.toronto.ca/explore-enjoy/parks-recreation/places-spaces/parks-and-recreation-facilities/location/?id=1956"}},{"type":"Feature","geometry":{"type":"MultiPoint","coordinates":[[-79.4507125098432,43.7015009628446]]},"properties":{"_id":756,"LOCATIONID":"2706","ASSET_ID":536,"ASSET_NAME":"J.T. WATSON PARKETTE","TYPE":"Park","AMENITIES":"Playground","ADDRESS":"605 Ridelle Ave","PHONE":"None","URL":"https://www.toronto.ca/explore-enjoy/parks-recreation/places-spaces/parks-and-recreation-facilities/location/?id=2706"}},{"type":"Feature","geometry":{"type":"MultiPoint","coordinates":[[-79.4506489377488,43.6874906323607]]},"properties":{"_id":835,"LOCATIONID":"2303","ASSET_ID":676,"ASSET_NAME":"MARBLE HILL PARKETTE","TYPE":"Park","AMENITIES":"Playground","ADDRESS":"22 A Ennerdale Rd","PHONE":"None","URL":"https://www.toronto.ca/explore-enjoy/parks-recreation/places-spaces/parks-and-recreation-facilities/location/?id=2303"}},{"type":"Feature","geometry":{"type":"MultiPoint","coordinates":[[-79.4800118522546,43.6867768684201]]},"properties":{"_id":918,"LOCATIONID":"497","ASSET_ID":571,"ASSET_NAME":"KEELESDALE PARK","TYPE":"Park","AMENITIES":"Sports Field","ADDRESS":"95 Black Creek Dr","PHONE":"None","URL":"https://www.toronto.ca/explore-enjoy/parks-recreation/places-spaces/parks-and-recreation-facilities/location/?id=497"}},{"type":"Feature","geometry":{"type":"MultiPoint","coordinates":[[-79.487926785598,43.7012449454493]]},"properties":{"_id":949,"LOCATIONID":"2496","ASSET_ID":1578,"ASSET_NAME":"WESTVIEW GREENBELT","TYPE":"Park","AMENITIES":"None","ADDRESS":"20 A Nordale Cres","PHONE":"None","URL":"https://www.toronto.ca/explore-enjoy/parks-recreation/places-spaces/parks-and-recreation-facilities/location/?id=2496"}},{"type":"Feature","geometry":{"type":"MultiPoint","coordinates":[[-79.4613375630626,43.6878430796668]]},"properties":{"_id":953,"LOCATIONID":"606","ASSET_ID":92,"ASSET_NAME":"BERT ROBINSON PARK","TYPE":"Park","AMENITIES":"Basketball Court, Playground, Sports Field","ADDRESS":"400 Caledonia Rd","PHONE":"None","URL":"https://www.toronto.ca/explore-enjoy/parks-recreation/places-spaces/parks-and-recreation-facilities/location/?id=606"}},{"type":"Feature","geometry":{"type":"MultiPoint","coordinates":[[-79.4293463942146,43.6920429918136]]},"properties":{"_id":976,"LOCATIONID":"629","ASSET_ID":170,"ASSET_NAME":"CEDARVALE PARK","TYPE":"Park","AMENITIES":"Ball Diamond, Cricket Pitch Field, Dog Off-Leash Area, Pickleball Court, Playground, Sports Field, Tennis Court","ADDRESS":"443 Arlington Ave","PHONE":"None","URL":"https://www.toronto.ca/explore-enjoy/parks-recreation/places-spaces/parks-and-recreation-facilities/location/?id=629"}},{"type":"Feature","geometry":{"type":"MultiPoint","coordinates":[[-79.4719383021443,43.6983644283283]]},"properties":{"_id":985,"LOCATIONID":"3791","ASSET_ID":77394,"ASSET_NAME":"CANON JACKSON PARK","TYPE":"Park","AMENITIES":"Playground","ADDRESS":"80 Canon Jackson Dr","PHONE":"None","URL":"https://www.toronto.ca/explore-enjoy/parks-recreation/places-spaces/parks-and-recreation-facilities/location/?id=3791"}},{"type":"Feature","geometry":{"type":"MultiPoint","coordinates":[[-79.4310478864768,43.7009059070208]]},"properties":{"_id":995,"LOCATIONID":"278","ASSET_ID":1572,"ASSET_NAME":"WEMBLEY PARKETTE","TYPE":"Park","AMENITIES":"None","ADDRESS":"9 Park Rd","PHONE":"None","URL":"https://www.toronto.ca/explore-enjoy/parks-recreation/places-spaces/parks-and-recreation-facilities/location/?id=278"}},{"type":"Feature","geometry":{"type":"MultiPoint","coordinates":[[-79.4824739306051,43.6908245091908]]},"properties":{"_id":1061,"LOCATIONID":"715","ASSET_ID":570,"ASSET_NAME":"NORTH KEELESDALE PARK","TYPE":"Park","AMENITIES":"Ball Diamond, Washroom","ADDRESS":"415 Black Creek Dr","PHONE":"None","URL":"https://www.toronto.ca/explore-enjoy/parks-recreation/places-spaces/parks-and-recreation-facilities/location/?id=715"}},{"type":"Feature","geometry":{"type":"MultiPoint","coordinates":[[-79.4913022539355,43.6848460558872]]},"properties":{"_id":1067,"LOCATIONID":"2096","ASSET_ID":1324,"ASSET_NAME":"GLADHURST PARK","TYPE":"Park","AMENITIES":"None","ADDRESS":"2 Elhurst Crt","PHONE":"None","URL":"https://www.toronto.ca/explore-enjoy/parks-recreation/places-spaces/parks-and-recreation-facilities/location/?id=2096"}},{"type":"Feature","geometry":{"type":"MultiPoint","coordinates":[[-79.4797945351303,43.6981523784847]]},"properties":{"_id":1128,"LOCATIONID":"650","ASSET_ID":449,"ASSET_NAME":"GULLIVER PARK","TYPE":"Park","AMENITIES":"Ball Diamond, Outdoor Fitness Equipment, Playground","ADDRESS":"55 Gulliver Rd","PHONE":"None","URL":"https://www.toronto.ca/explore-enjoy/parks-recreation/places-spaces/parks-and-recreation-facilities/location/?id=650"}},{"type":"Feature","geometry":{"type":"MultiPoint","coordinates":[[-79.4383524769538,43.6850574694774]]},"properties":{"_id":1147,"LOCATIONID":"829","ASSET_ID":179,"ASSET_NAME":"CHARLES BRERETON PARK","TYPE":"Park","AMENITIES":"None","ADDRESS":"306 Oakwood Ave","PHONE":"None","URL":"https://www.toronto.ca/explore-enjoy/parks-recreation/places-spaces/parks-and-recreation-facilities/location/?id=829"}},{"type":"Feature","geometry":{"type":"MultiPoint","coordinates":[[-79.4291974166971,43.6955896068364]]},"properties":{"_id":1190,"LOCATIONID":"1069","ASSET_ID":415,"ASSET_NAME":"GLEN CEDAR PARK","TYPE":"Park","AMENITIES":"Playground","ADDRESS":"50 Glen Cedar Rd","PHONE":"None","URL":"https://www.toronto.ca/explore-enjoy/parks-recreation/places-spaces/parks-and-recreation-facilities/location/?id=1069"}},{"type":"Feature","geometry":{"type":"MultiPoint","coordinates":[[-79.451797954817,43.7026942032563]]},"properties":{"_id":1232,"LOCATIONID":"3674","ASSET_ID":49802,"ASSET_NAME":"DUFFERIN HILL PARK","TYPE":"Park","AMENITIES":"None","ADDRESS":"1200 Briar Hill Ave","PHONE":"None","URL":"https://www.toronto.ca/explore-enjoy/parks-recreation/places-spaces/parks-and-recreation-facilities/location/?id=3674"}},{"type":"Feature","geometry":{"type":"MultiPoint","coordinates":[[-79.4249948610775,43.68916652813]]},"properties":{"_id":1261,"LOCATIONID":"2227","ASSET_ID":1246,"ASSET_NAME":"CONNAUGHT CIRCLE PARKETTE","TYPE":"Park","AMENITIES":"None","ADDRESS":" CONNAUGHT CIR","PHONE":"None","URL":"https://www.toronto.ca/explore-enjoy/parks-recreation/places-spaces/parks-and-recreation-facilities/location/?id=2227"}},{"type":"Feature","geometry":{"type":"MultiPoint","coordinates":[[-79.4696432351612,43.6968422103694]]},"properties":{"_id":1338,"LOCATIONID":"608","ASSET_ID":1147,"ASSET_NAME":"WOODBOROUGH PARK","TYPE":"Park","AMENITIES":"Ball Diamond, Basketball Court, Playground","ADDRESS":"1486 Castlefield Ave","PHONE":"None","URL":"https://www.toronto.ca/explore-enjoy/parks-recreation/places-spaces/parks-and-recreation-facilities/location/?id=608"}},{"type":"Feature","geometry":{"type":"MultiPoint","coordinates":[[-79.4710649186293,43.687518317438]]},"properties":{"_id":1382,"LOCATIONID":"3578","ASSET_ID":60822,"ASSET_NAME":"SILVERTHORN PARKETTE","TYPE":"Park","AMENITIES":"Playground","ADDRESS":"181 Scott Rd","PHONE":"None","URL":"https://www.toronto.ca/explore-enjoy/parks-recreation/places-spaces/parks-and-recreation-facilities/location/?id=3578"}},{"type":"Feature","geometry":{"type":"MultiPoint","coordinates":[[-79.4649469079649,43.6897776417939]]},"properties":{"_id":1470,"LOCATIONID":"1951","ASSET_ID":470,"ASSET_NAME":"HAVERSON PARK","TYPE":"Park","AMENITIES":"Playground","ADDRESS":"65 Woodenhill Crt","PHONE":"None","URL":"https://www.toronto.ca/explore-enjoy/parks-recreation/places-spaces/parks-and-recreation-facilities/location/?id=1951"}},{"type":"Feature","geometry":{"type":"MultiPoint","coordinates":[[-79.4540375505034,43.6883367362778]]},"properties":{"_id":1488,"LOCATIONID":"834","ASSET_ID":180,"ASSET_NAME":"CHARLES CACCIA PARK","TYPE":"Park","AMENITIES":"Playground","ADDRESS":"348 Nairn Ave","PHONE":"None","URL":"https://www.toronto.ca/explore-enjoy/parks-recreation/places-spaces/parks-and-recreation-facilities/location/?id=834"}}]}