{"type":"FeatureCollection","features":[{"type":"Feature","geometry":{"type":"Polygon","coordinates":[[[-79.4386255729219,43.6916959228978],[-79.4385714990189,43.6917083336424],[-79.4385503992843,43.6917070891241],[-79.4383237800084,43.691759084576],[-79.4382643953816,43.6917726984832],[-79.4382733543355,43.6917944594529],[-79.4383057871858,43.6918733373122],[-79.4383490104831,43.6919784687587],[-79.4387192350385,43.6919235349019],[-79.4386759244174,43.6918182865307],[-79.4386326139384,43.6917130471426],[-79.4386255729219,43.6916959228978]]]},"properties":{"_id":127,"ADDRESS_POINT_ID":61165,"ADDRESS_NUMBER":"5","LINEAR_NAME_FULL":"Glenora Ave","ADDRESS_FULL":"5 Glenora Ave","POSTAL_CODE":"M6C3Y2","MUNICIPALITY":"YORK","CITY":"Toronto","PLACE_NAME":"New Dawn Moravian Church","GENERAL_USE_CODE":109001,"CENTRELINE_ID":20042497,"LO_NUM":5,"LO_NUM_SUF":null,"HI_NUM":null,"HI_NUM_SUF":null,"LINEAR_NAME_ID":617,"X":null,"Y":null,"LONGITUDE":null,"LATITUDE":null,"OBJECTID":120,"FTH_PRIORITY":null,"FTH_ORGANIZATION":"Berean Baptist Church","FTH_FAITH":"Christian","FTH_DENOMINATION":null,"FTH_GROUPING":null,"FTH_PHONE":"4166525113","FTH_EXTENSION":null,"FTH_FAX":null,"FTH_CELL":null,"FTH_HOME":null,"FTH_SALUTATION":null,"FTH_FIRST_NAME":null,"FTH_LAST_NAME":null,"FTH_POSITION":null,"FTH_EMAIL":null,"FTH_CONTACT":null,"FTH_WEBSITE":null,"FTH_FORUM":null,"WARD_NAME":"Toronto-St. Paul's (12)","WARD_NUMBER":"12","COMM_COUNCIL_NAME":"NORTH YORK COMMUNITY COUNCIL","COMM_COUNCIL_CODE":"NO","NEIGHBOURHOOD_NAME":"Oakwood-Vaughan (107)"}},{"type":"Feature","geometry":{"type":"Polygon","coordinates":[[[-79.4516043148764,43.683687161143],[-79.4516431111123,43.6837818263199],[-79.452105840256,43.6836795502382],[-79.4520670433582,43.6835848852164],[-79.4516043148764,43.683687161143]]]},"properties":{"_id":177,"ADDRESS_POINT_ID":68675,"ADDRESS_NUMBER":"236","LINEAR_NAME_FULL":"Nairn Ave","ADDRESS_FULL":"236 Nairn Ave","POSTAL_CODE":"M6E4H4","MUNICIPALITY":"YORK","CITY":"Toronto","PLACE_NAME":"Berean Church Of God Of Toronto","GENERAL_USE_CODE":109001,"CENTRELINE_ID":20061217,"LO_NUM":236,"LO_NUM_SUF":null,"HI_NUM":null,"HI_NUM_SUF":null,"LINEAR_NAME_ID":784,"X":null,"Y":null,"LONGITUDE":null,"LATITUDE":null,"OBJECTID":170,"FTH_PRIORITY":null,"FTH_ORGANIZATION":"Carisma Church","FTH_FAITH":"Christian","FTH_DENOMINATION":null,"FTH_GROUPING":null,"FTH_PHONE":"4166516167","FTH_EXTENSION":null,"FTH_FAX":null,"FTH_CELL":null,"FTH_HOME":null,"FTH_SALUTATION":null,"FTH_FIRST_NAME":null,"FTH_LAST_NAME":null,"FTH_POSITION":null,"FTH_EMAIL":null,"FTH_CONTACT":null,"FTH_WEBSITE":null,"FTH_FORUM":null,"WARD_NAME":"Davenport (9)","WARD_NUMBER":"9","COMM_COUNCIL_NAME":"ETOBICOKE YORK COMMUNITY COUNCIL","COMM_COUNCIL_CODE":"WE","NEIGHBOURHOOD_NAME":"Caledonia-Fairbanks (109)"}},{"type":"Feature","geometry":{"type":"Polygon","coordinates":[[[-79.448398946217,43.6861975917163],[-79.4484892890291,43.6861772085028],[-79.4485796565879,43.686156825229],[-79.4484655057038,43.6858787955281],[-79.4483751385393,43.6858991607102],[-79.4482847589254,43.6859195078126],[-79.448398946217,43.6861975917163]]]},"properties":{"_id":178,"ADDRESS_POINT_ID":9780597,"ADDRESS_NUMBER":"48","LINEAR_NAME_FULL":"Bloem Ave","ADDRESS_FULL":"48 Bloem Ave","POSTAL_CODE":"M6E1S1","MUNICIPALITY":"YORK","CITY":"Toronto","PLACE_NAME":"Toronto United Brethren Church","GENERAL_USE_CODE":109001,"CENTRELINE_ID":9780576,"LO_NUM":48,"LO_NUM_SUF":null,"HI_NUM":null,"HI_NUM_SUF":null,"LINEAR_NAME_ID":457,"X":null,"Y":null,"LONGITUDE":null,"LATITUDE":null,"OBJECTID":171,"FTH_PRIORITY":null,"FTH_ORGANIZATION":"Church Of United Bretheren","FTH_FAITH":"Christian","FTH_DENOMINATION":null,"FTH_GROUPING":null,"FTH_PHONE":"4166561256","FTH_EXTENSION":null,"FTH_FAX":null,"FTH_CELL":null,"FTH_HOME":null,"FTH_SALUTATION":null,"FTH_FIRST_NAME":null,"FTH_LAST_NAME":null,"FTH_POSITION":null,"FTH_EMAIL":null,"FTH_CONTACT":null,"FTH_WEBSITE":null,"FTH_FORUM":null,"WARD_NAME":"Davenport (9)","WARD_NUMBER":"9","COMM_COUNCIL_NAME":"ETOBICOKE YORK COMMUNITY COUNCIL","COMM_COUNCIL_CODE":"WE","NEIGHBOURHOOD_NAME":"Caledonia-Fairbanks (109)"}},{"type":"Feature","geometry":{"type":"Polygon","coordinates":[[[-79.4466529455838,43.6865330249275],[-79.4466745315861,43.6865855846118],[-79.4467294839328,43.686722799105],[-79.4475023677508,43.6865509617304],[-79.4475384828531,43.6865428501334],[-79.4474976234777,43.6864440060569],[-79.4474974625479,43.6864436369295],[-79.4474613722527,43.6864518115342],[-79.4470871938203,43.68653659325],[-79.4470720089742,43.6864969534786],[-79.4470362908988,43.68650491209],[-79.4470146551124,43.6864522174306],[-79.4469495462227,43.686466769345],[-79.4466529455838,43.6865330249275]]]},"properties":{"_id":179,"ADDRESS_POINT_ID":57454,"ADDRESS_NUMBER":"2050","LINEAR_NAME_FULL":"Dufferin St","ADDRESS_FULL":"2050 Dufferin St","POSTAL_CODE":"M6E3R6","MUNICIPALITY":"YORK","CITY":"Toronto","PLACE_NAME":null,"GENERAL_USE_CODE":109001,"CENTRELINE_ID":14072115,"LO_NUM":2050,"LO_NUM_SUF":null,"HI_NUM":null,"HI_NUM_SUF":null,"LINEAR_NAME_ID":557,"X":null,"Y":null,"LONGITUDE":null,"LATITUDE":null,"OBJECTID":172,"FTH_PRIORITY":"5","FTH_ORGANIZATION":"Soka Gakkai International","FTH_FAITH":"Buddhist","FTH_DENOMINATION":"Nichiren","FTH_GROUPING":"Mahayana","FTH_PHONE":"(416) 654-3211","FTH_EXTENSION":null,"FTH_FAX":"(416) 654-3539","FTH_CELL":null,"FTH_HOME":null,"FTH_SALUTATION":null,"FTH_FIRST_NAME":null,"FTH_LAST_NAME":null,"FTH_POSITION":null,"FTH_EMAIL":"postmaster@sgicanada.org","FTH_CONTACT":null,"FTH_WEBSITE":"www.sgicanada.org","FTH_FORUM":null,"WARD_NAME":"Davenport (9)","WARD_NUMBER":"9","COMM_COUNCIL_NAME":"ETOBICOKE YORK COMMUNITY COUNCIL","COMM_COUNCIL_CODE":"WE","NEIGHBOURHOOD_NAME":"Caledonia-Fairbanks (109)"}},{"type":"Feature","geometry":{"type":"Polygon","coordinates":[[[-79.465132953082,43.6829890950038],[-79.465160053436,43.6830547318153],[-79.4655799688466,43.6829635767469],[-79.4655528928666,43.6828979670451],[-79.4655258293488,43.6828323573399],[-79.4651058651954,43.6829234491876],[-79.465132953082,43.6829890950038]]]},"properties":{"_id":180,"ADDRESS_POINT_ID":55207,"ADDRESS_NUMBER":"223-225","LINEAR_NAME_FULL":"Chambers Ave","ADDRESS_FULL":"223-225 Chambers Ave","POSTAL_CODE":"M6M3L4","MUNICIPALITY":"YORK","CITY":"Toronto","PLACE_NAME":"Davenport Gospel Hall","GENERAL_USE_CODE":109001,"CENTRELINE_ID":8823,"LO_NUM":223,"LO_NUM_SUF":null,"HI_NUM":225,"HI_NUM_SUF":null,"LINEAR_NAME_ID":498,"X":null,"Y":null,"LONGITUDE":null,"LATITUDE":null,"OBJECTID":173,"FTH_PRIORITY":null,"FTH_ORGANIZATION":"Davenport Gospel Hall","FTH_FAITH":"Christian","FTH_DENOMINATION":null,"FTH_GROUPING":null,"FTH_PHONE":null,"FTH_EXTENSION":null,"FTH_FAX":null,"FTH_CELL":null,"FTH_HOME":null,"FTH_SALUTATION":null,"FTH_FIRST_NAME":null,"FTH_LAST_NAME":null,"FTH_POSITION":null,"FTH_EMAIL":null,"FTH_CONTACT":null,"FTH_WEBSITE":null,"FTH_FORUM":null,"WARD_NAME":"York South-Weston (5)","WARD_NUMBER":"5","COMM_COUNCIL_NAME":"ETOBICOKE YORK COMMUNITY COUNCIL","COMM_COUNCIL_CODE":"WE","NEIGHBOURHOOD_NAME":"Keelesdale-Eglinton West (110)"}},{"type":"Feature","geometry":{"type":"Polygon","coordinates":[[[-79.4879008352893,43.6860397786941],[-79.4880997900955,43.6859952791251],[-79.4882607126723,43.6859592995459],[-79.4882805845322,43.6859549179494],[-79.4883168177977,43.6859469284995],[-79.4882074172304,43.6856855733681],[-79.4881713081283,43.6856936528096],[-79.4879908369061,43.6857339958456],[-79.487523984797,43.6858383879913],[-79.487521029755,43.6858525017154],[-79.4877020953611,43.6859417692792],[-79.4879008352893,43.6860397786941]]]},"properties":{"_id":183,"ADDRESS_POINT_ID":8492331,"ADDRESS_NUMBER":"1100","LINEAR_NAME_FULL":"Weston Rd","ADDRESS_FULL":"1100 Weston Rd","POSTAL_CODE":"M6N3S4","MUNICIPALITY":"YORK","CITY":"Toronto","PLACE_NAME":null,"GENERAL_USE_CODE":115001,"CENTRELINE_ID":8492330,"LO_NUM":1100,"LO_NUM_SUF":null,"HI_NUM":null,"HI_NUM_SUF":null,"LINEAR_NAME_ID":952,"X":null,"Y":null,"LONGITUDE":null,"LATITUDE":null,"OBJECTID":176,"FTH_PRIORITY":"9","FTH_ORGANIZATION":"York Temple Salvation Army","FTH_FAITH":"Christian","FTH_DENOMINATION":"Salvation Army","FTH_GROUPING":"Evangelical","FTH_PHONE":"(416) 766-1361","FTH_EXTENSION":null,"FTH_FAX":"(416) 766-7058","FTH_CELL":null,"FTH_HOME":null,"FTH_SALUTATION":"Major","FTH_FIRST_NAME":"Byron","FTH_LAST_NAME":"Kean","FTH_POSITION":null,"FTH_EMAIL":"Byron_Kean@can.salvationarmy.org","FTH_CONTACT":"Local","FTH_WEBSITE":null,"FTH_FORUM":"emailed","WARD_NAME":"York South-Weston (5)","WARD_NUMBER":"5","COMM_COUNCIL_NAME":"ETOBICOKE YORK COMMUNITY COUNCIL","COMM_COUNCIL_CODE":"WE","NEIGHBOURHOOD_NAME":"Mount Dennis (115)"}},{"type":"Feature","geometry":{"type":"Polygon","coordinates":[[[-79.4882206869222,43.6867754166956],[-79.4882411888262,43.6867855452732],[-79.4882831724819,43.6868062795867],[-79.4883769133456,43.6868525738604],[-79.4883841938349,43.6868561661206],[-79.4886647599675,43.6869947333494],[-79.4890415245681,43.6869110219619],[-79.4890480370358,43.6869092043227],[-79.4890541650867,43.686906783559],[-79.4890598094815,43.6869037956666],[-79.489064858572,43.6869003036439],[-79.4890692255199,43.6868963614906],[-79.4890728482935,43.68689203221],[-79.4890756524539,43.6868873968066],[-79.4890775883717,43.6868825272864],[-79.4890786312211,43.6868775226612],[-79.4890787561796,43.6868724639406],[-79.4890779756366,43.6868674321372],[-79.4890762771721,43.6868625172632],[-79.4890737103861,43.6868578093361],[-79.4890703124762,43.6868533893711],[-79.4890661330459,43.6868493293835],[-79.4890612713145,43.686845701393],[-79.4890557892908,43.6868425684146],[-79.4888665950836,43.6867491886218],[-79.4885978991414,43.6866165639278],[-79.488504146066,43.6865702968361],[-79.488462174901,43.6865495716054],[-79.4884416606345,43.6865394520671],[-79.4882206869222,43.6867754166956]]]},"properties":{"_id":184,"ADDRESS_POINT_ID":8492345,"ADDRESS_NUMBER":"1149","LINEAR_NAME_FULL":"Weston Rd","ADDRESS_FULL":"1149 Weston Rd","POSTAL_CODE":"M6N3S3","MUNICIPALITY":"YORK","CITY":"Toronto","PLACE_NAME":"Church Of The Good Sheppherd","GENERAL_USE_CODE":109001,"CENTRELINE_ID":8492330,"LO_NUM":1149,"LO_NUM_SUF":null,"HI_NUM":null,"HI_NUM_SUF":null,"LINEAR_NAME_ID":952,"X":null,"Y":null,"LONGITUDE":null,"LATITUDE":null,"OBJECTID":177,"FTH_PRIORITY":"9","FTH_ORGANIZATION":"The Church Of The Good Shepherd","FTH_FAITH":"Christian","FTH_DENOMINATION":"Anglican","FTH_GROUPING":"Mainstream","FTH_PHONE":"(416) 766-1887","FTH_EXTENSION":null,"FTH_FAX":null,"FTH_CELL":null,"FTH_HOME":null,"FTH_SALUTATION":"Rev.","FTH_FIRST_NAME":"Schuyler","FTH_LAST_NAME":"Brown","FTH_POSITION":"Priest in Charge","FTH_EMAIL":"schuyler.brown@utoronto.ca","FTH_CONTACT":"Local","FTH_WEBSITE":"www.churchofgoodshepherd.com","FTH_FORUM":"emailed","WARD_NAME":"York South-Weston (5)","WARD_NUMBER":"5","COMM_COUNCIL_NAME":"ETOBICOKE YORK COMMUNITY COUNCIL","COMM_COUNCIL_CODE":"WE","NEIGHBOURHOOD_NAME":"Mount Dennis (115)"}},{"type":"Feature","geometry":{"type":"Polygon","coordinates":[[[-79.4900288138566,43.6856398671049],[-79.4898892768828,43.6853094889215],[-79.4897090436437,43.6853497806862],[-79.4896189269306,43.6853699444645],[-79.4894386933297,43.6854102358025],[-79.4893990369407,43.6854191164206],[-79.4895093226318,43.6856818297023],[-79.4895373436581,43.6857485769503],[-79.489577124268,43.6857397773078],[-79.4897577928401,43.6856998188412],[-79.4898481332389,43.6856798350005],[-79.4900288138566,43.6856398671049]]]},"properties":{"_id":185,"ADDRESS_POINT_ID":13972594,"ADDRESS_NUMBER":"117","LINEAR_NAME_FULL":"Guestville Ave","ADDRESS_FULL":"117 Guestville Ave","POSTAL_CODE":"M6N4N7","MUNICIPALITY":"YORK","CITY":"Toronto","PLACE_NAME":null,"GENERAL_USE_CODE":115001,"CENTRELINE_ID":10313241,"LO_NUM":117,"LO_NUM_SUF":null,"HI_NUM":null,"HI_NUM_SUF":null,"LINEAR_NAME_ID":637,"X":null,"Y":null,"LONGITUDE":null,"LATITUDE":null,"OBJECTID":178,"FTH_PRIORITY":"9","FTH_ORGANIZATION":"Roman Catholic Episcopal","FTH_FAITH":"Catholic","FTH_DENOMINATION":"Roman","FTH_GROUPING":"Mainstream","FTH_PHONE":null,"FTH_EXTENSION":null,"FTH_FAX":null,"FTH_CELL":null,"FTH_HOME":null,"FTH_SALUTATION":null,"FTH_FIRST_NAME":null,"FTH_LAST_NAME":null,"FTH_POSITION":null,"FTH_EMAIL":null,"FTH_CONTACT":null,"FTH_WEBSITE":null,"FTH_FORUM":null,"WARD_NAME":"York South-Weston (5)","WARD_NUMBER":"5","COMM_COUNCIL_NAME":"ETOBICOKE YORK COMMUNITY COUNCIL","COMM_COUNCIL_CODE":"WE","NEIGHBOURHOOD_NAME":"Mount Dennis (115)"}},{"type":"Feature","geometry":{"type":"Polygon","coordinates":[[[-79.4533583569978,43.6943618659673],[-79.4533694396944,43.6943880912514],[-79.4533971278593,43.6944536679508],[-79.4538309272977,43.6943572421247],[-79.4538032386973,43.6942916745304],[-79.4537921558293,43.6942654492879],[-79.4533583569978,43.6943618659673]]]},"properties":{"_id":186,"ADDRESS_POINT_ID":59749,"ADDRESS_NUMBER":"228","LINEAR_NAME_FULL":"Ennerdale Rd","ADDRESS_FULL":"228 Ennerdale Rd","POSTAL_CODE":"M6E 4E2","MUNICIPALITY":"YORK","CITY":"Toronto","PLACE_NAME":"Ennerdale Road Baptist","GENERAL_USE_CODE":109001,"CENTRELINE_ID":30022491,"LO_NUM":228,"LO_NUM_SUF":null,"HI_NUM":null,"HI_NUM_SUF":null,"LINEAR_NAME_ID":581,"X":null,"Y":null,"LONGITUDE":null,"LATITUDE":null,"OBJECTID":210,"FTH_PRIORITY":null,"FTH_ORGANIZATION":"Ennerdale Road Baptist Churc","FTH_FAITH":"Christian","FTH_DENOMINATION":null,"FTH_GROUPING":null,"FTH_PHONE":null,"FTH_EXTENSION":null,"FTH_FAX":null,"FTH_CELL":null,"FTH_HOME":null,"FTH_SALUTATION":null,"FTH_FIRST_NAME":null,"FTH_LAST_NAME":null,"FTH_POSITION":null,"FTH_EMAIL":null,"FTH_CONTACT":null,"FTH_WEBSITE":null,"FTH_FORUM":null,"WARD_NAME":"Davenport (9)","WARD_NUMBER":"9","COMM_COUNCIL_NAME":"ETOBICOKE YORK COMMUNITY COUNCIL","COMM_COUNCIL_CODE":"WE","NEIGHBOURHOOD_NAME":"Caledonia-Fairbanks (109)"}},{"type":"Feature","geometry":{"type":"Polygon","coordinates":[[[-79.4886994055541,43.6842144225012],[-79.4888800205946,43.6841740423443],[-79.4893640617554,43.6840658206745],[-79.4892558748313,43.6838087421946],[-79.4888607974054,43.6838937667423],[-79.4888220908892,43.6838019316156],[-79.4887842279566,43.683709916531],[-79.4886929849958,43.6837283872286],[-79.4885110818895,43.6837652114467],[-79.4886994055541,43.6842144225012]]]},"properties":{"_id":187,"ADDRESS_POINT_ID":61948,"ADDRESS_NUMBER":"71","LINEAR_NAME_FULL":"Guestville Ave","ADDRESS_FULL":"71 Guestville Ave","POSTAL_CODE":"M6N4N4","MUNICIPALITY":"YORK","CITY":"Toronto","PLACE_NAME":null,"GENERAL_USE_CODE":109001,"CENTRELINE_ID":8787,"LO_NUM":71,"LO_NUM_SUF":null,"HI_NUM":null,"HI_NUM_SUF":null,"LINEAR_NAME_ID":637,"X":null,"Y":null,"LONGITUDE":null,"LATITUDE":null,"OBJECTID":179,"FTH_PRIORITY":"9","FTH_ORGANIZATION":"Mount Dennis United Church","FTH_FAITH":"Christian","FTH_DENOMINATION":"United Church","FTH_GROUPING":"Mainstream","FTH_PHONE":"(416) 763-2893","FTH_EXTENSION":null,"FTH_FAX":null,"FTH_CELL":null,"FTH_HOME":null,"FTH_SALUTATION":null,"FTH_FIRST_NAME":null,"FTH_LAST_NAME":null,"FTH_POSITION":null,"FTH_EMAIL":"mduc@on.aibn.com","FTH_CONTACT":"Local","FTH_WEBSITE":null,"FTH_FORUM":"YES/emailed","WARD_NAME":"York South-Weston (5)","WARD_NUMBER":"5","COMM_COUNCIL_NAME":"ETOBICOKE YORK COMMUNITY COUNCIL","COMM_COUNCIL_CODE":"WE","NEIGHBOURHOOD_NAME":"Mount Dennis (115)"}},{"type":"Feature","geometry":{"type":"Polygon","coordinates":[[[-79.49100191571,43.6874771410201],[-79.4910718224818,43.6874989026501],[-79.491167441532,43.6873629814059],[-79.491293009852,43.6871847652404],[-79.4912256218755,43.6871597544674],[-79.49100191571,43.6874771410201]]]},"properties":{"_id":196,"ADDRESS_POINT_ID":9980524,"ADDRESS_NUMBER":"1182","LINEAR_NAME_FULL":"Weston Rd","ADDRESS_FULL":"1182 Weston Rd","POSTAL_CODE":"M6M4P4","MUNICIPALITY":"YORK","CITY":"Toronto","PLACE_NAME":null,"GENERAL_USE_CODE":115001,"CENTRELINE_ID":9848230,"LO_NUM":1182,"LO_NUM_SUF":null,"HI_NUM":null,"HI_NUM_SUF":null,"LINEAR_NAME_ID":952,"X":null,"Y":null,"LONGITUDE":null,"LATITUDE":null,"OBJECTID":187,"FTH_PRIORITY":"9","FTH_ORGANIZATION":"Bethel Born Again Church of Christ Jesus","FTH_FAITH":"Christian","FTH_DENOMINATION":"Apostolic","FTH_GROUPING":"Evangelical","FTH_PHONE":"(416) 740-4774","FTH_EXTENSION":null,"FTH_FAX":null,"FTH_CELL":null,"FTH_HOME":null,"FTH_SALUTATION":"Pastor/Bishop","FTH_FIRST_NAME":"L.M.","FTH_LAST_NAME":"Allison","FTH_POSITION":"Pastor/Bishop","FTH_EMAIL":null,"FTH_CONTACT":"Local","FTH_WEBSITE":null,"FTH_FORUM":null,"WARD_NAME":"York South-Weston (5)","WARD_NUMBER":"5","COMM_COUNCIL_NAME":"ETOBICOKE YORK COMMUNITY COUNCIL","COMM_COUNCIL_CODE":"WE","NEIGHBOURHOOD_NAME":"Mount Dennis (115)"}},{"type":"Feature","geometry":{"type":"Polygon","coordinates":[[[-79.4905074003627,43.6879339441193],[-79.490734016977,43.6875934524524],[-79.4905827936945,43.6875368128999],[-79.4903535709299,43.6878811206025],[-79.4905074003627,43.6879339441193]]]},"properties":{"_id":197,"ADDRESS_POINT_ID":9848227,"ADDRESS_NUMBER":"1181A","LINEAR_NAME_FULL":"Weston Rd","ADDRESS_FULL":"1181A Weston Rd","POSTAL_CODE":"M6M4P5","MUNICIPALITY":"YORK","CITY":"Toronto","PLACE_NAME":null,"GENERAL_USE_CODE":107010,"CENTRELINE_ID":9848230,"LO_NUM":1181,"LO_NUM_SUF":"A","HI_NUM":null,"HI_NUM_SUF":null,"LINEAR_NAME_ID":952,"X":null,"Y":null,"LONGITUDE":null,"LATITUDE":null,"OBJECTID":188,"FTH_PRIORITY":"9","FTH_ORGANIZATION":"International Gospel Church of Christ Ministries","FTH_FAITH":"Christian","FTH_DENOMINATION":"Pentecostal","FTH_GROUPING":"Evangelical","FTH_PHONE":"(416) 241-3016","FTH_EXTENSION":null,"FTH_FAX":null,"FTH_CELL":null,"FTH_HOME":null,"FTH_SALUTATION":null,"FTH_FIRST_NAME":null,"FTH_LAST_NAME":null,"FTH_POSITION":null,"FTH_EMAIL":null,"FTH_CONTACT":"Local","FTH_WEBSITE":null,"FTH_FORUM":null,"WARD_NAME":"York South-Weston (5)","WARD_NUMBER":"5","COMM_COUNCIL_NAME":"ETOBICOKE YORK COMMUNITY COUNCIL","COMM_COUNCIL_CODE":"WE","NEIGHBOURHOOD_NAME":"Mount Dennis (115)"}},{"type":"Feature","geometry":{"type":"Polygon","coordinates":[[[-79.4515332827728,43.6908172610797],[-79.4515581247165,43.6908235005076],[-79.4515826312052,43.6908303968828],[-79.4516067650321,43.6908379411883],[-79.4516305138002,43.6908461244179],[-79.4516538279052,43.6908549285482],[-79.4516766701256,43.690864362565],[-79.451699028086,43.6908743904583],[-79.4517208521673,43.6908850122073],[-79.4517421299793,43.6908962098045],[-79.451762836727,43.6909079652371],[-79.4517829228055,43.690920260482],[-79.4518023634052,43.690933095529],[-79.4518211585549,43.6909464343733],[-79.4518392586497,43.6909602589916],[-79.4518566388795,43.6909745693739],[-79.4518732868683,43.6909893295101],[-79.4518891778203,43.6910045213874],[-79.4519042869399,43.6910201269932],[-79.4519072245668,43.6910230536507],[-79.4519107951681,43.6910255755161],[-79.45191491196,43.6910276295436],[-79.4519194385386,43.6910291526668],[-79.4519242508907,43.6910300998271],[-79.4519292125763,43.6910304529643],[-79.4519341871558,43.6910301940186],[-79.4519390381677,43.6910293319338],[-79.4519436167313,43.6910278936513],[-79.4519477863636,43.6910259151188],[-79.4519514477751,43.6910234593038],[-79.4519544892711,43.6910205891686],[-79.4519568239527,43.6910173856882],[-79.4519583897163,43.6910139478508],[-79.4519701688886,43.6909742030734],[-79.4520153574713,43.6908217400786],[-79.4515533587496,43.6907495438293],[-79.4515332827728,43.6908172610797]]]},"properties":{"_id":211,"ADDRESS_POINT_ID":59656,"ADDRESS_NUMBER":"119","LINEAR_NAME_FULL":"Ennerdale Rd","ADDRESS_FULL":"119 Ennerdale Rd","POSTAL_CODE":"M6E4C7","MUNICIPALITY":"YORK","CITY":"Toronto","PLACE_NAME":null,"GENERAL_USE_CODE":109001,"CENTRELINE_ID":8168,"LO_NUM":119,"LO_NUM_SUF":null,"HI_NUM":null,"HI_NUM_SUF":null,"LINEAR_NAME_ID":581,"X":null,"Y":null,"LONGITUDE":null,"LATITUDE":null,"OBJECTID":211,"FTH_PRIORITY":null,"FTH_ORGANIZATION":"Fairbank Gospel Hall","FTH_FAITH":"Christian","FTH_DENOMINATION":null,"FTH_GROUPING":null,"FTH_PHONE":"4167823179","FTH_EXTENSION":null,"FTH_FAX":null,"FTH_CELL":null,"FTH_HOME":null,"FTH_SALUTATION":null,"FTH_FIRST_NAME":null,"FTH_LAST_NAME":null,"FTH_POSITION":null,"FTH_EMAIL":null,"FTH_CONTACT":null,"FTH_WEBSITE":null,"FTH_FORUM":null,"WARD_NAME":"Davenport (9)","WARD_NUMBER":"9","COMM_COUNCIL_NAME":"ETOBICOKE YORK COMMUNITY COUNCIL","COMM_COUNCIL_CODE":"WE","NEIGHBOURHOOD_NAME":"Caledonia-Fairbanks (109)"}},{"type":"Feature","geometry":{"type":"Polygon","coordinates":[[[-79.4529815034879,43.703295405509],[-79.4529336438581,43.7030944772948],[-79.452879069382,43.7028654172913],[-79.4524030862007,43.7029747566375],[-79.45244879292,43.703165755773],[-79.45248919491688,43.70333458645549],[-79.45267047733061,43.70333458645549],[-79.4529815034879,43.703295405509]]]},"properties":{"_id":214,"ADDRESS_POINT_ID":14120486,"ADDRESS_NUMBER":"2746","LINEAR_NAME_FULL":"Dufferin St","ADDRESS_FULL":"2746 Dufferin St","POSTAL_CODE":"M6B3R4","MUNICIPALITY":"NORTH YORK","CITY":"Toronto","PLACE_NAME":"Fairbank United Church","GENERAL_USE_CODE":109001,"CENTRELINE_ID":446490,"LO_NUM":2746,"LO_NUM_SUF":null,"HI_NUM":null,"HI_NUM_SUF":null,"LINEAR_NAME_ID":557,"X":null,"Y":null,"LONGITUDE":null,"LATITUDE":null,"OBJECTID":204,"FTH_PRIORITY":"5","FTH_ORGANIZATION":"Fairbank United Church","FTH_FAITH":"Christian","FTH_DENOMINATION":"United Church","FTH_GROUPING":"Mainstream","FTH_PHONE":null,"FTH_EXTENSION":null,"FTH_FAX":null,"FTH_CELL":null,"FTH_HOME":null,"FTH_SALUTATION":null,"FTH_FIRST_NAME":null,"FTH_LAST_NAME":null,"FTH_POSITION":null,"FTH_EMAIL":null,"FTH_CONTACT":null,"FTH_WEBSITE":null,"FTH_FORUM":null,"WARD_NAME":"Eglinton-Lawrence (8)","WARD_NUMBER":"8","COMM_COUNCIL_NAME":"NORTH YORK COMMUNITY COUNCIL","COMM_COUNCIL_CODE":"NO","NEIGHBOURHOOD_NAME":"Yorkdale-Glen Park (31)"}},{"type":"Feature","geometry":{"type":"Polygon","coordinates":[[[-79.4463721261695,43.6996532150862],[-79.4462697223344,43.6994019681803],[-79.4461790743901,43.6994214223154],[-79.4462763774684,43.6996601821246],[-79.4463721261695,43.6996532150862]]]},"properties":{"_id":215,"ADDRESS_POINT_ID":8708590,"ADDRESS_NUMBER":"435","LINEAR_NAME_FULL":"Hopewell Ave","ADDRESS_FULL":"435 Hopewell Ave","POSTAL_CODE":"M6E2S4","MUNICIPALITY":"YORK","CITY":"Toronto","PLACE_NAME":null,"GENERAL_USE_CODE":115001,"CENTRELINE_ID":8708581,"LO_NUM":435,"LO_NUM_SUF":null,"HI_NUM":null,"HI_NUM_SUF":null,"LINEAR_NAME_ID":672,"X":null,"Y":null,"LONGITUDE":null,"LATITUDE":null,"OBJECTID":205,"FTH_PRIORITY":"5","FTH_ORGANIZATION":"Burma Buddhist Association","FTH_FAITH":"Buddhist","FTH_DENOMINATION":"Theravada","FTH_GROUPING":"Theravada","FTH_PHONE":null,"FTH_EXTENSION":null,"FTH_FAX":null,"FTH_CELL":null,"FTH_HOME":null,"FTH_SALUTATION":null,"FTH_FIRST_NAME":null,"FTH_LAST_NAME":null,"FTH_POSITION":null,"FTH_EMAIL":null,"FTH_CONTACT":null,"FTH_WEBSITE":null,"FTH_FORUM":null,"WARD_NAME":"Eglinton-Lawrence (8)","WARD_NUMBER":"8","COMM_COUNCIL_NAME":"NORTH YORK COMMUNITY COUNCIL","COMM_COUNCIL_CODE":"NO","NEIGHBOURHOOD_NAME":"Briar Hill-Belgravia (108)"}},{"type":"Feature","geometry":{"type":"Polygon","coordinates":[[[-79.4675981612011,43.7021870342064],[-79.4674072905328,43.7022291509357],[-79.4673523232105,43.7020980496178],[-79.4667915239348,43.7022216466597],[-79.4668851253337,43.7024447345122],[-79.4668908495026,43.7024592552332],[-79.4668959036119,43.7024739017778],[-79.4669003000735,43.7024886651484],[-79.4669040016799,43.7025035183303],[-79.4676411686278,43.7023410672782],[-79.4675981612011,43.7021870342064]]]},"properties":{"_id":216,"ADDRESS_POINT_ID":9086078,"ADDRESS_NUMBER":"39","LINEAR_NAME_FULL":"Gurney Cres","ADDRESS_FULL":"39 Gurney Cres","POSTAL_CODE":"M6B1S9","MUNICIPALITY":"NORTH YORK","CITY":"Toronto","PLACE_NAME":null,"GENERAL_USE_CODE":115001,"CENTRELINE_ID":9086071,"LO_NUM":39,"LO_NUM_SUF":null,"HI_NUM":null,"HI_NUM_SUF":null,"LINEAR_NAME_ID":5768,"X":null,"Y":null,"LONGITUDE":null,"LATITUDE":null,"OBJECTID":206,"FTH_PRIORITY":"5","FTH_ORGANIZATION":"Church Of God","FTH_FAITH":"Christian","FTH_DENOMINATION":null,"FTH_GROUPING":"Evangelical","FTH_PHONE":"(416) 256-9058","FTH_EXTENSION":null,"FTH_FAX":null,"FTH_CELL":null,"FTH_HOME":null,"FTH_SALUTATION":null,"FTH_FIRST_NAME":null,"FTH_LAST_NAME":null,"FTH_POSITION":null,"FTH_EMAIL":null,"FTH_CONTACT":null,"FTH_WEBSITE":null,"FTH_FORUM":null,"WARD_NAME":"Eglinton-Lawrence (8)","WARD_NUMBER":"8","COMM_COUNCIL_NAME":"NORTH YORK COMMUNITY COUNCIL","COMM_COUNCIL_CODE":"NO","NEIGHBOURHOOD_NAME":"Yorkdale-Glen Park (31)"}},{"type":"Feature","geometry":{"type":"Polygon","coordinates":[[[-79.4614827427568,43.6935222543029],[-79.4614024021374,43.6933335600984],[-79.4613404654722,43.6933474731699],[-79.4614207562884,43.693536176402],[-79.4614827427568,43.6935222543029]]]},"properties":{"_id":218,"ADDRESS_POINT_ID":10635959,"ADDRESS_NUMBER":"2186A","LINEAR_NAME_FULL":"Eglinton Ave W","ADDRESS_FULL":"2186A Eglinton Ave W","POSTAL_CODE":"M6E2L1","MUNICIPALITY":"YORK","CITY":"Toronto","PLACE_NAME":null,"GENERAL_USE_CODE":115001,"CENTRELINE_ID":10635937,"LO_NUM":2186,"LO_NUM_SUF":"A","HI_NUM":null,"HI_NUM_SUF":null,"LINEAR_NAME_ID":571,"X":null,"Y":null,"LONGITUDE":null,"LATITUDE":null,"OBJECTID":208,"FTH_PRIORITY":null,"FTH_ORGANIZATION":"Cecc Church","FTH_FAITH":"Christian","FTH_DENOMINATION":null,"FTH_GROUPING":null,"FTH_PHONE":null,"FTH_EXTENSION":null,"FTH_FAX":null,"FTH_CELL":null,"FTH_HOME":null,"FTH_SALUTATION":null,"FTH_FIRST_NAME":null,"FTH_LAST_NAME":null,"FTH_POSITION":null,"FTH_EMAIL":null,"FTH_CONTACT":null,"FTH_WEBSITE":null,"FTH_FORUM":null,"WARD_NAME":"Eglinton-Lawrence (8)","WARD_NUMBER":"8","COMM_COUNCIL_NAME":"NORTH YORK COMMUNITY COUNCIL","COMM_COUNCIL_CODE":"NO","NEIGHBOURHOOD_NAME":"Briar Hill-Belgravia (108)"}},{"type":"Feature","geometry":{"type":"Polygon","coordinates":[[[-79.4742105265508,43.6886111983398],[-79.4742466269168,43.6886030152951],[-79.4741826705307,43.6884565497014],[-79.473749714446,43.68855493433],[-79.4738136946918,43.6887014001689],[-79.4742105265508,43.6886111983398]]]},"properties":{"_id":219,"ADDRESS_POINT_ID":8236817,"ADDRESS_NUMBER":"1947","LINEAR_NAME_FULL":"Keele St","ADDRESS_FULL":"1947 Keele St","POSTAL_CODE":"M6M3X9","MUNICIPALITY":"YORK","CITY":"Toronto","PLACE_NAME":"First Church Of God","GENERAL_USE_CODE":109001,"CENTRELINE_ID":8152726,"LO_NUM":1947,"LO_NUM_SUF":null,"HI_NUM":null,"HI_NUM_SUF":null,"LINEAR_NAME_ID":703,"X":null,"Y":null,"LONGITUDE":null,"LATITUDE":null,"OBJECTID":209,"FTH_PRIORITY":null,"FTH_ORGANIZATION":"2Nd Iglesia Pentecostal Hisp","FTH_FAITH":"Christian","FTH_DENOMINATION":null,"FTH_GROUPING":null,"FTH_PHONE":"9058237776","FTH_EXTENSION":null,"FTH_FAX":null,"FTH_CELL":null,"FTH_HOME":null,"FTH_SALUTATION":null,"FTH_FIRST_NAME":null,"FTH_LAST_NAME":null,"FTH_POSITION":null,"FTH_EMAIL":null,"FTH_CONTACT":null,"FTH_WEBSITE":null,"FTH_FORUM":null,"WARD_NAME":"York South-Weston (5)","WARD_NUMBER":"5","COMM_COUNCIL_NAME":"ETOBICOKE YORK COMMUNITY COUNCIL","COMM_COUNCIL_CODE":"WE","NEIGHBOURHOOD_NAME":"Keelesdale-Eglinton West (110)"}},{"type":"Feature","geometry":{"type":"Polygon","coordinates":[[[-79.45254945664,43.6962879441494],[-79.4524101234287,43.6959602753165],[-79.4522294856801,43.6960007597771],[-79.4523689172706,43.6963284018649],[-79.45254945664,43.6962879441494]]]},"properties":{"_id":279,"ADDRESS_POINT_ID":9655495,"ADDRESS_NUMBER":"1","LINEAR_NAME_FULL":"Ramsden Rd","ADDRESS_FULL":"1 Ramsden Rd","POSTAL_CODE":"M6E2N1","MUNICIPALITY":"YORK","CITY":"Toronto","PLACE_NAME":"Fairbank Presbyterian Ch","GENERAL_USE_CODE":109001,"CENTRELINE_ID":9655455,"LO_NUM":1,"LO_NUM_SUF":null,"HI_NUM":null,"HI_NUM_SUF":null,"LINEAR_NAME_ID":830,"X":null,"Y":null,"LONGITUDE":null,"LATITUDE":null,"OBJECTID":271,"FTH_PRIORITY":null,"FTH_ORGANIZATION":"Fairbank Presbyterian Church","FTH_FAITH":"Christian","FTH_DENOMINATION":null,"FTH_GROUPING":null,"FTH_PHONE":"4167870513","FTH_EXTENSION":null,"FTH_FAX":null,"FTH_CELL":null,"FTH_HOME":null,"FTH_SALUTATION":null,"FTH_FIRST_NAME":null,"FTH_LAST_NAME":null,"FTH_POSITION":null,"FTH_EMAIL":null,"FTH_CONTACT":null,"FTH_WEBSITE":null,"FTH_FORUM":null,"WARD_NAME":"Eglinton-Lawrence (8)","WARD_NUMBER":"8","COMM_COUNCIL_NAME":"NORTH YORK COMMUNITY COUNCIL","COMM_COUNCIL_CODE":"NO","NEIGHBOURHOOD_NAME":"Briar Hill-Belgravia (108)"}},{"type":"Feature","geometry":{"type":"Polygon","coordinates":[[[-79.4386255729219,43.6916959228978],[-79.4385714990189,43.6917083336424],[-79.4385503992843,43.6917070891241],[-79.4383237800084,43.691759084576],[-79.4382643953816,43.6917726984832],[-79.4382733543355,43.6917944594529],[-79.4383057871858,43.6918733373122],[-79.4383490104831,43.6919784687587],[-79.4387192350385,43.6919235349019],[-79.4386759244174,43.6918182865307],[-79.4386326139384,43.6917130471426],[-79.4386255729219,43.6916959228978]]]},"properties":{"_id":298,"ADDRESS_POINT_ID":61165,"ADDRESS_NUMBER":"5","LINEAR_NAME_FULL":"Glenora Ave","ADDRESS_FULL":"5 Glenora Ave","POSTAL_CODE":"M6C3Y2","MUNICIPALITY":"YORK","CITY":"Toronto","PLACE_NAME":"New Dawn Moravian Church","GENERAL_USE_CODE":109001,"CENTRELINE_ID":20042497,"LO_NUM":5,"LO_NUM_SUF":null,"HI_NUM":null,"HI_NUM_SUF":null,"LINEAR_NAME_ID":617,"X":null,"Y":null,"LONGITUDE":null,"LATITUDE":null,"OBJECTID":290,"FTH_PRIORITY":null,"FTH_ORGANIZATION":"New Dawn Moravian Church","FTH_FAITH":"Christian","FTH_DENOMINATION":null,"FTH_GROUPING":null,"FTH_PHONE":"4166560473","FTH_EXTENSION":null,"FTH_FAX":null,"FTH_CELL":null,"FTH_HOME":null,"FTH_SALUTATION":null,"FTH_FIRST_NAME":null,"FTH_LAST_NAME":null,"FTH_POSITION":null,"FTH_EMAIL":null,"FTH_CONTACT":null,"FTH_WEBSITE":null,"FTH_FORUM":null,"WARD_NAME":"Toronto-St. Paul's (12)","WARD_NUMBER":"12","COMM_COUNCIL_NAME":"NORTH YORK COMMUNITY COUNCIL","COMM_COUNCIL_CODE":"NO","NEIGHBOURHOOD_NAME":"Oakwood-Vaughan (107)"}},{"type":"Feature","geometry":{"type":"Polygon","coordinates":[[[-79.4781724155853,43.6825115776448],[-79.47832434623713,43.68237198646844],[-79.47832434467777,43.68237198646844],[-79.47795329042293,43.68237198646844],[-79.4780576129742,43.6824405623293],[-79.4781508748155,43.6825018611155],[-79.4781724155853,43.6825115776448]]]},"properties":{"_id":349,"ADDRESS_POINT_ID":76453,"ADDRESS_NUMBER":"700","LINEAR_NAME_FULL":"Weston Rd","ADDRESS_FULL":"700 Weston Rd","POSTAL_CODE":"M6N3R2","MUNICIPALITY":"YORK","CITY":"Toronto","PLACE_NAME":"Prophetic Church Of God","GENERAL_USE_CODE":109001,"CENTRELINE_ID":8891,"LO_NUM":700,"LO_NUM_SUF":null,"HI_NUM":null,"HI_NUM_SUF":null,"LINEAR_NAME_ID":952,"X":null,"Y":null,"LONGITUDE":null,"LATITUDE":null,"OBJECTID":341,"FTH_PRIORITY":null,"FTH_ORGANIZATION":"Missionary Church Of Christ","FTH_FAITH":"Christian","FTH_DENOMINATION":null,"FTH_GROUPING":null,"FTH_PHONE":null,"FTH_EXTENSION":null,"FTH_FAX":null,"FTH_CELL":null,"FTH_HOME":null,"FTH_SALUTATION":null,"FTH_FIRST_NAME":null,"FTH_LAST_NAME":null,"FTH_POSITION":null,"FTH_EMAIL":null,"FTH_CONTACT":null,"FTH_WEBSITE":null,"FTH_FORUM":null,"WARD_NAME":"York South-Weston (5)","WARD_NUMBER":"5","COMM_COUNCIL_NAME":"ETOBICOKE YORK COMMUNITY COUNCIL","COMM_COUNCIL_CODE":"WE","NEIGHBOURHOOD_NAME":"Rockcliffe-Smythe (111)"}},{"type":"Feature","geometry":{"type":"Polygon","coordinates":[[[-79.4457398489328,43.6860943936503],[-79.4457308018254,43.6860720481173],[-79.4457137472272,43.6860299409169],[-79.4457132026658,43.6860285994639],[-79.4456950837301,43.6859838633741],[-79.4456865564571,43.6859628052706],[-79.4456774970016,43.6859404417244],[-79.4456599103065,43.6858970110704],[-79.4456066305837,43.685765422655],[-79.4451716916896,43.6858590444691],[-79.4452249829152,43.6859906690957],[-79.4452516286071,43.6860564903999],[-79.4452782743654,43.6861223026959],[-79.4452788189424,43.686123617147],[-79.4453049325939,43.6861881059896],[-79.4457398489328,43.6860943936503]]]},"properties":{"_id":648,"ADDRESS_POINT_ID":76289,"ADDRESS_NUMBER":"402","LINEAR_NAME_FULL":"Westmount Ave","ADDRESS_FULL":"402 Westmount Ave","POSTAL_CODE":"M6E3N5","MUNICIPALITY":"YORK","CITY":"Toronto","PLACE_NAME":"St John Bosco Church","GENERAL_USE_CODE":109001,"CENTRELINE_ID":8516,"LO_NUM":402,"LO_NUM_SUF":null,"HI_NUM":null,"HI_NUM_SUF":null,"LINEAR_NAME_ID":951,"X":null,"Y":null,"LONGITUDE":null,"LATITUDE":null,"OBJECTID":641,"FTH_PRIORITY":null,"FTH_ORGANIZATION":"St John Bosco Church","FTH_FAITH":"Christian","FTH_DENOMINATION":null,"FTH_GROUPING":null,"FTH_PHONE":"4166511491","FTH_EXTENSION":null,"FTH_FAX":null,"FTH_CELL":null,"FTH_HOME":null,"FTH_SALUTATION":null,"FTH_FIRST_NAME":null,"FTH_LAST_NAME":null,"FTH_POSITION":null,"FTH_EMAIL":null,"FTH_CONTACT":null,"FTH_WEBSITE":null,"FTH_FORUM":null,"WARD_NAME":"Toronto-St. Paul's (12)","WARD_NUMBER":"12","COMM_COUNCIL_NAME":"NORTH YORK COMMUNITY COUNCIL","COMM_COUNCIL_CODE":"NO","NEIGHBOURHOOD_NAME":"Oakwood-Vaughan (107)"}},{"type":"Feature","geometry":{"type":"Polygon","coordinates":[[[-79.4635456019041,43.6831021783294],[-79.4639660656574,43.6830113174072],[-79.4639449735225,43.6829601743161],[-79.4635245224979,43.6830510351656],[-79.4635456019041,43.6831021783294]]]},"properties":{"_id":649,"ADDRESS_POINT_ID":7219511,"ADDRESS_NUMBER":"332A","LINEAR_NAME_FULL":"Silverthorn Ave","ADDRESS_FULL":"332A Silverthorn Ave","POSTAL_CODE":"M6M3G6","MUNICIPALITY":"YORK","CITY":"Toronto","PLACE_NAME":null,"GENERAL_USE_CODE":115001,"CENTRELINE_ID":7219490,"LO_NUM":332,"LO_NUM_SUF":"A","HI_NUM":null,"HI_NUM_SUF":null,"LINEAR_NAME_ID":882,"X":null,"Y":null,"LONGITUDE":null,"LATITUDE":null,"OBJECTID":642,"FTH_PRIORITY":null,"FTH_ORGANIZATION":"Open Door Pentecostal Church","FTH_FAITH":"Christian","FTH_DENOMINATION":null,"FTH_GROUPING":null,"FTH_PHONE":"9058969222","FTH_EXTENSION":null,"FTH_FAX":null,"FTH_CELL":null,"FTH_HOME":null,"FTH_SALUTATION":null,"FTH_FIRST_NAME":null,"FTH_LAST_NAME":null,"FTH_POSITION":null,"FTH_EMAIL":null,"FTH_CONTACT":null,"FTH_WEBSITE":null,"FTH_FORUM":null,"WARD_NAME":"York South-Weston (5)","WARD_NUMBER":"5","COMM_COUNCIL_NAME":"ETOBICOKE YORK COMMUNITY COUNCIL","COMM_COUNCIL_CODE":"WE","NEIGHBOURHOOD_NAME":"Keelesdale-Eglinton West (110)"}},{"type":"Feature","geometry":{"type":"Polygon","coordinates":[[[-79.4729175833058,43.6856185961036],[-79.4728950319807,43.6855661851573],[-79.4728724806908,43.6855137832074],[-79.4728499170405,43.6854613722482],[-79.4728273658291,43.6854089702884],[-79.4728048146569,43.6853565683237],[-79.4727822511243,43.6853041573499],[-79.4727597000307,43.6852517553753],[-79.4727371489804,43.6851993443945],[-79.4727145979652,43.6851469424101],[-79.4726920345896,43.6850945314165],[-79.472669483653,43.6850421294223],[-79.4723087220289,43.6851239634873],[-79.47233128509,43.6851763565535],[-79.4723538357824,43.6852287586132],[-79.4723763865141,43.6852811606679],[-79.4723989496929,43.6853335537195],[-79.472421500499,43.6853859647656],[-79.4724440513526,43.6854383578043],[-79.472466614645,43.6854907598424],[-79.472489165573,43.6855431618725],[-79.4725117165401,43.6855955638977],[-79.4725342675506,43.6856479569167],[-79.4725568310001,43.6857003589351],[-79.4729175833058,43.6856185961036]]]},"properties":{"_id":653,"ADDRESS_POINT_ID":8232461,"ADDRESS_NUMBER":"1695","LINEAR_NAME_FULL":"Keele St","ADDRESS_FULL":"1695 Keele St","POSTAL_CODE":"M6M3W7","MUNICIPALITY":"YORK","CITY":"Toronto","PLACE_NAME":null,"GENERAL_USE_CODE":115001,"CENTRELINE_ID":14662403,"LO_NUM":1695,"LO_NUM_SUF":null,"HI_NUM":null,"HI_NUM_SUF":null,"LINEAR_NAME_ID":703,"X":null,"Y":null,"LONGITUDE":null,"LATITUDE":null,"OBJECTID":646,"FTH_PRIORITY":null,"FTH_ORGANIZATION":"Presbytherian Church","FTH_FAITH":"Christian","FTH_DENOMINATION":null,"FTH_GROUPING":null,"FTH_PHONE":"4166537756","FTH_EXTENSION":null,"FTH_FAX":null,"FTH_CELL":null,"FTH_HOME":null,"FTH_SALUTATION":null,"FTH_FIRST_NAME":null,"FTH_LAST_NAME":null,"FTH_POSITION":null,"FTH_EMAIL":null,"FTH_CONTACT":null,"FTH_WEBSITE":null,"FTH_FORUM":null,"WARD_NAME":"York South-Weston (5)","WARD_NUMBER":"5","COMM_COUNCIL_NAME":"ETOBICOKE YORK COMMUNITY COUNCIL","COMM_COUNCIL_CODE":"WE","NEIGHBOURHOOD_NAME":"Keelesdale-Eglinton West (110)"}},{"type":"Feature","geometry":{"type":"Polygon","coordinates":[[[-79.4501330690324,43.6964477235536],[-79.4501693259192,43.696439935248],[-79.4502055951952,43.6964321559376],[-79.4506153641838,43.6963442290948],[-79.4505734206252,43.6961615478158],[-79.4505468593828,43.6960861235297],[-79.4505256326757,43.6960258957214],[-79.4504455094,43.6958971785856],[-79.4503938791241,43.6958481801765],[-79.4502853305929,43.6958142701678],[-79.4502185253968,43.6958135389928],[-79.4502123224985,43.6958134732823],[-79.4501582953745,43.6958127566382],[-79.4501510242267,43.6958143106906],[-79.4501618700129,43.6958406171872],[-79.4501641852807,43.6958462169986],[-79.4502064793241,43.6959484000625],[-79.4502363673064,43.6960208824563],[-79.4501548455986,43.696038543471],[-79.4501795074434,43.696099916009],[-79.4501880869657,43.6961214328284],[-79.4502326188946,43.6962330862085],[-79.4501695356221,43.6962466236679],[-79.4501332788593,43.6962544029725],[-79.4500966374341,43.6962622631094],[-79.4500603558404,43.6962700423801],[-79.4501330690324,43.6964477235536]]]},"properties":{"_id":667,"ADDRESS_POINT_ID":8649732,"ADDRESS_NUMBER":"1828","LINEAR_NAME_FULL":"Eglinton Ave W","ADDRESS_FULL":"1828 Eglinton Ave W","POSTAL_CODE":"M6E2H6","MUNICIPALITY":"YORK","CITY":"Toronto","PLACE_NAME":"St Cuthberts United Church","GENERAL_USE_CODE":109001,"CENTRELINE_ID":20161258,"LO_NUM":1828,"LO_NUM_SUF":null,"HI_NUM":null,"HI_NUM_SUF":null,"LINEAR_NAME_ID":571,"X":null,"Y":null,"LONGITUDE":null,"LATITUDE":null,"OBJECTID":660,"FTH_PRIORITY":null,"FTH_ORGANIZATION":"The British Methodist Episco","FTH_FAITH":"Christian","FTH_DENOMINATION":null,"FTH_GROUPING":null,"FTH_PHONE":"4165347831","FTH_EXTENSION":null,"FTH_FAX":null,"FTH_CELL":null,"FTH_HOME":null,"FTH_SALUTATION":null,"FTH_FIRST_NAME":null,"FTH_LAST_NAME":null,"FTH_POSITION":null,"FTH_EMAIL":null,"FTH_CONTACT":null,"FTH_WEBSITE":null,"FTH_FORUM":null,"WARD_NAME":"Eglinton-Lawrence (8)","WARD_NUMBER":"8","COMM_COUNCIL_NAME":"NORTH YORK COMMUNITY COUNCIL","COMM_COUNCIL_CODE":"NO","NEIGHBOURHOOD_NAME":"Briar Hill-Belgravia (108)"}},{"type":"Feature","geometry":{"type":"Polygon","coordinates":[[[-79.4760904781608,43.6971992195973],[-79.4758198251649,43.6972597953355],[-79.4756351669044,43.6973011170388],[-79.4757139706569,43.6976405003248],[-79.4757394802681,43.6976348079274],[-79.4759600091549,43.6975856264831],[-79.4762310604295,43.6975251675161],[-79.4760904781608,43.6971992195973]]]},"properties":{"_id":668,"ADDRESS_POINT_ID":9066246,"ADDRESS_NUMBER":"2000","LINEAR_NAME_FULL":"Keele St","ADDRESS_FULL":"2000 Keele St","POSTAL_CODE":"M6M3Y4","MUNICIPALITY":"YORK","CITY":"Toronto","PLACE_NAME":"Greenborough Community Church","GENERAL_USE_CODE":115001,"CENTRELINE_ID":9066247,"LO_NUM":2000,"LO_NUM_SUF":null,"HI_NUM":null,"HI_NUM_SUF":null,"LINEAR_NAME_ID":703,"X":null,"Y":null,"LONGITUDE":null,"LATITUDE":null,"OBJECTID":661,"FTH_PRIORITY":null,"FTH_ORGANIZATION":"Green Borough Community Chur","FTH_FAITH":"Christian","FTH_DENOMINATION":null,"FTH_GROUPING":null,"FTH_PHONE":"4166517074","FTH_EXTENSION":null,"FTH_FAX":null,"FTH_CELL":null,"FTH_HOME":null,"FTH_SALUTATION":null,"FTH_FIRST_NAME":null,"FTH_LAST_NAME":null,"FTH_POSITION":null,"FTH_EMAIL":null,"FTH_CONTACT":null,"FTH_WEBSITE":null,"FTH_FORUM":null,"WARD_NAME":"York South-Weston (5)","WARD_NUMBER":"5","COMM_COUNCIL_NAME":"ETOBICOKE YORK COMMUNITY COUNCIL","COMM_COUNCIL_CODE":"WE","NEIGHBOURHOOD_NAME":"Beechborough-Greenbrook (112)"}},{"type":"Feature","geometry":{"type":"Polygon","coordinates":[[[-79.461395942153,43.696461425472],[-79.4613998317531,43.696470617101],[-79.4614231446188,43.6965256858516],[-79.4614553516333,43.6966017486005],[-79.4615474798281,43.6965811846817],[-79.4614919473658,43.696450044221],[-79.4614641874313,43.6963844694809],[-79.4614364275572,43.6963188947333],[-79.4614086677436,43.6962533199781],[-79.4614042207178,43.6962428319753],[-79.4613121053693,43.6962634407906],[-79.4613443121148,43.6963394855716],[-79.4613719108739,43.6964046642302],[-79.461395942153,43.696461425472]]]},"properties":{"_id":669,"ADDRESS_POINT_ID":73225,"ADDRESS_NUMBER":"191","LINEAR_NAME_FULL":"Schell Ave","ADDRESS_FULL":"191 Schell Ave","POSTAL_CODE":"M6E2T3","MUNICIPALITY":"YORK","CITY":"Toronto","PLACE_NAME":"Jesus Christ Church","GENERAL_USE_CODE":109001,"CENTRELINE_ID":7655,"LO_NUM":191,"LO_NUM_SUF":null,"HI_NUM":null,"HI_NUM_SUF":null,"LINEAR_NAME_ID":874,"X":null,"Y":null,"LONGITUDE":null,"LATITUDE":null,"OBJECTID":662,"FTH_PRIORITY":null,"FTH_ORGANIZATION":"Jesus Christ Church","FTH_FAITH":"Christian","FTH_DENOMINATION":null,"FTH_GROUPING":null,"FTH_PHONE":null,"FTH_EXTENSION":null,"FTH_FAX":null,"FTH_CELL":null,"FTH_HOME":null,"FTH_SALUTATION":null,"FTH_FIRST_NAME":null,"FTH_LAST_NAME":null,"FTH_POSITION":null,"FTH_EMAIL":null,"FTH_CONTACT":null,"FTH_WEBSITE":null,"FTH_FORUM":null,"WARD_NAME":"Eglinton-Lawrence (8)","WARD_NUMBER":"8","COMM_COUNCIL_NAME":"NORTH YORK COMMUNITY COUNCIL","COMM_COUNCIL_CODE":"NO","NEIGHBOURHOOD_NAME":"Briar Hill-Belgravia (108)"}},{"type":"Feature","geometry":{"type":"Polygon","coordinates":[[[-79.4707090823916,43.6915397643337],[-79.4706073165269,43.6913010058289],[-79.4705354709648,43.6913180627919],[-79.4706369888063,43.6915561371977],[-79.4707090823916,43.6915397643337]]]},"properties":{"_id":671,"ADDRESS_POINT_ID":8456834,"ADDRESS_NUMBER":"2514","LINEAR_NAME_FULL":"Eglinton Ave W","ADDRESS_FULL":"2514 Eglinton Ave W","POSTAL_CODE":"M6M1T1","MUNICIPALITY":"YORK","CITY":"Toronto","PLACE_NAME":"The Glorious Church","GENERAL_USE_CODE":109001,"CENTRELINE_ID":8432256,"LO_NUM":2514,"LO_NUM_SUF":null,"HI_NUM":null,"HI_NUM_SUF":null,"LINEAR_NAME_ID":571,"X":null,"Y":null,"LONGITUDE":null,"LATITUDE":null,"OBJECTID":663,"FTH_PRIORITY":null,"FTH_ORGANIZATION":"Miracle Temple Ministries","FTH_FAITH":"Christian","FTH_DENOMINATION":null,"FTH_GROUPING":null,"FTH_PHONE":"4166567354","FTH_EXTENSION":null,"FTH_FAX":null,"FTH_CELL":null,"FTH_HOME":null,"FTH_SALUTATION":null,"FTH_FIRST_NAME":null,"FTH_LAST_NAME":null,"FTH_POSITION":null,"FTH_EMAIL":null,"FTH_CONTACT":null,"FTH_WEBSITE":null,"FTH_FORUM":null,"WARD_NAME":"York South-Weston (5)","WARD_NUMBER":"5","COMM_COUNCIL_NAME":"ETOBICOKE YORK COMMUNITY COUNCIL","COMM_COUNCIL_CODE":"WE","NEIGHBOURHOOD_NAME":"Beechborough-Greenbrook (112)"}},{"type":"Feature","geometry":{"type":"Polygon","coordinates":[[[-79.4768906888592,43.6896099167578],[-79.4769846122768,43.6895890256891],[-79.4768806785187,43.6893510553636],[-79.4767867554365,43.6893719463478],[-79.4768906888592,43.6896099167578]]]},"properties":{"_id":672,"ADDRESS_POINT_ID":59117,"ADDRESS_NUMBER":"2687","LINEAR_NAME_FULL":"Eglinton Ave W","ADDRESS_FULL":"2687 Eglinton Ave W","POSTAL_CODE":"M6M1T8","MUNICIPALITY":"YORK","CITY":"Toronto","PLACE_NAME":null,"GENERAL_USE_CODE":107010,"CENTRELINE_ID":8187,"LO_NUM":2687,"LO_NUM_SUF":null,"HI_NUM":null,"HI_NUM_SUF":null,"LINEAR_NAME_ID":571,"X":null,"Y":null,"LONGITUDE":null,"LATITUDE":null,"OBJECTID":664,"FTH_PRIORITY":null,"FTH_ORGANIZATION":"Shechinah International","FTH_FAITH":"Christian","FTH_DENOMINATION":null,"FTH_GROUPING":null,"FTH_PHONE":"4166540114","FTH_EXTENSION":null,"FTH_FAX":null,"FTH_CELL":null,"FTH_HOME":null,"FTH_SALUTATION":null,"FTH_FIRST_NAME":null,"FTH_LAST_NAME":null,"FTH_POSITION":null,"FTH_EMAIL":null,"FTH_CONTACT":null,"FTH_WEBSITE":null,"FTH_FORUM":null,"WARD_NAME":"York South-Weston (5)","WARD_NUMBER":"5","COMM_COUNCIL_NAME":"ETOBICOKE YORK COMMUNITY COUNCIL","COMM_COUNCIL_CODE":"WE","NEIGHBOURHOOD_NAME":"Keelesdale-Eglinton West (110)"}},{"type":"Feature","geometry":{"type":"Polygon","coordinates":[[[-79.4501721330132,43.6952223320682],[-79.4501724920578,43.6952232053499],[-79.4501918058777,43.6952705695551],[-79.4505542675604,43.6951931087929],[-79.4505532028163,43.6951904889568],[-79.4505348542635,43.6951457086],[-79.4505345076198,43.6951448353248],[-79.4501721330132,43.6952223320682]]]},"properties":{"_id":673,"ADDRESS_POINT_ID":11714663,"ADDRESS_NUMBER":"2350","LINEAR_NAME_FULL":"Dufferin St","ADDRESS_FULL":"2350 Dufferin St","POSTAL_CODE":"M6E3S4","MUNICIPALITY":"YORK","CITY":"Toronto","PLACE_NAME":null,"GENERAL_USE_CODE":115001,"CENTRELINE_ID":20091987,"LO_NUM":2350,"LO_NUM_SUF":null,"HI_NUM":null,"HI_NUM_SUF":null,"LINEAR_NAME_ID":557,"X":null,"Y":null,"LONGITUDE":null,"LATITUDE":null,"OBJECTID":665,"FTH_PRIORITY":null,"FTH_ORGANIZATION":"Miracle Life Christian Fello","FTH_FAITH":"Christian","FTH_DENOMINATION":null,"FTH_GROUPING":null,"FTH_PHONE":"4167852940","FTH_EXTENSION":null,"FTH_FAX":null,"FTH_CELL":null,"FTH_HOME":null,"FTH_SALUTATION":null,"FTH_FIRST_NAME":null,"FTH_LAST_NAME":null,"FTH_POSITION":null,"FTH_EMAIL":null,"FTH_CONTACT":null,"FTH_WEBSITE":null,"FTH_FORUM":null,"WARD_NAME":"Davenport (9)","WARD_NUMBER":"9","COMM_COUNCIL_NAME":"ETOBICOKE YORK COMMUNITY COUNCIL","COMM_COUNCIL_CODE":"WE","NEIGHBOURHOOD_NAME":"Caledonia-Fairbanks (109)"}},{"type":"Feature","geometry":{"type":"Polygon","coordinates":[[[-79.4498935827594,43.695270871281],[-79.4498525934352,43.6952269090073],[-79.4498323639779,43.6951770149799],[-79.449794926039,43.6950845732931],[-79.4497967003767,43.6950841960182],[-79.4497815964739,43.6950469060384],[-79.4497607976971,43.6949955445363],[-79.4497590109486,43.6949959308064],[-79.4497354514241,43.6949377541088],[-79.449746032839,43.6949236987452],[-79.4496861330397,43.6948999719967],[-79.4496755640132,43.6949140363616],[-79.4496694965419,43.6949153208748],[-79.4496666986247,43.6949084156529],[-79.4496636623192,43.6949047147853],[-79.4496598317021,43.6949014276273],[-79.4496553183496,43.6948986442407],[-79.4496502338527,43.694896436685],[-79.4496447146216,43.6948948680292],[-79.4496389094944,43.694893974344],[-79.4496329797227,43.6948937827042],[-79.4496270989786,43.6948943021877],[-79.4496214037399,43.6948955148521],[-79.4496160677164,43.6948973847687],[-79.4496112274086,43.6948998669913],[-79.4496070193319,43.6949028985713],[-79.4496035428075,43.6949063895394],[-79.4496009095697,43.6949102409308],[-79.4495991817226,43.6949143627602],[-79.4495984089948,43.6949186290312],[-79.449598616296,43.6949229227383],[-79.449601414206,43.694929827962],[-79.449595346724,43.6949311214725],[-79.4495948143638,43.6949298250519],[-79.4494742215634,43.6949555245044],[-79.4492995182271,43.6949035907135],[-79.4492190501119,43.6948796745697],[-79.4492342896618,43.6949174687574],[-79.4492587522019,43.6949781483182],[-79.4492969316695,43.695072876839],[-79.4493349503385,43.6951671822136],[-79.4493492243683,43.6952026176181],[-79.4493586331231,43.6952259531313],[-79.4493620747418,43.6952344968804],[-79.4494082127307,43.6952482172737],[-79.4495075707103,43.6952777674349],[-79.4496886254871,43.6953316119736],[-79.4497669115726,43.695354806723],[-79.4498330338538,43.6953109904777],[-79.4498928504131,43.6952713570296],[-79.4498935827594,43.695270871281]]]},"properties":{"_id":674,"ADDRESS_POINT_ID":11714664,"ADDRESS_NUMBER":"2353","LINEAR_NAME_FULL":"Dufferin St","ADDRESS_FULL":"2353 Dufferin St","POSTAL_CODE":"M6E5A5","MUNICIPALITY":"YORK","CITY":"Toronto","PLACE_NAME":"St Hildas Anglican Church","GENERAL_USE_CODE":109001,"CENTRELINE_ID":20091987,"LO_NUM":2353,"LO_NUM_SUF":null,"HI_NUM":null,"HI_NUM_SUF":null,"LINEAR_NAME_ID":557,"X":null,"Y":null,"LONGITUDE":null,"LATITUDE":null,"OBJECTID":666,"FTH_PRIORITY":null,"FTH_ORGANIZATION":"St Hilda'S Anglican Church","FTH_FAITH":"Christian","FTH_DENOMINATION":null,"FTH_GROUPING":null,"FTH_PHONE":"4167877911","FTH_EXTENSION":null,"FTH_FAX":null,"FTH_CELL":null,"FTH_HOME":null,"FTH_SALUTATION":null,"FTH_FIRST_NAME":null,"FTH_LAST_NAME":null,"FTH_POSITION":null,"FTH_EMAIL":null,"FTH_CONTACT":null,"FTH_WEBSITE":null,"FTH_FORUM":null,"WARD_NAME":"Toronto-St. Paul's (12)","WARD_NUMBER":"12","COMM_COUNCIL_NAME":"NORTH YORK COMMUNITY COUNCIL","COMM_COUNCIL_CODE":"NO","NEIGHBOURHOOD_NAME":"Oakwood-Vaughan (107)"}},{"type":"Feature","geometry":{"type":"Polygon","coordinates":[[[-79.4500048497778,43.694569692448],[-79.4499952798482,43.6945460598723],[-79.4499633388898,43.6944671585773],[-79.4498733076127,43.6944864179008],[-79.4499052236444,43.694565328211],[-79.4499147315808,43.6945888797554],[-79.4500048497778,43.694569692448]]]},"properties":{"_id":675,"ADDRESS_POINT_ID":14646815,"ADDRESS_NUMBER":"2","LINEAR_NAME_FULL":"Hunter Ave","ADDRESS_FULL":"2 Hunter Ave","POSTAL_CODE":"M6E2C8","MUNICIPALITY":"YORK","CITY":"Toronto","PLACE_NAME":null,"GENERAL_USE_CODE":115001,"CENTRELINE_ID":7819,"LO_NUM":2,"LO_NUM_SUF":null,"HI_NUM":null,"HI_NUM_SUF":null,"LINEAR_NAME_ID":688,"X":null,"Y":null,"LONGITUDE":null,"LATITUDE":null,"OBJECTID":667,"FTH_PRIORITY":null,"FTH_ORGANIZATION":"Ihlesia Pentecostal","FTH_FAITH":"Christian","FTH_DENOMINATION":null,"FTH_GROUPING":null,"FTH_PHONE":"4167859965","FTH_EXTENSION":null,"FTH_FAX":null,"FTH_CELL":null,"FTH_HOME":null,"FTH_SALUTATION":null,"FTH_FIRST_NAME":null,"FTH_LAST_NAME":null,"FTH_POSITION":null,"FTH_EMAIL":null,"FTH_CONTACT":null,"FTH_WEBSITE":null,"FTH_FORUM":null,"WARD_NAME":"Davenport (9)","WARD_NUMBER":"9","COMM_COUNCIL_NAME":"ETOBICOKE YORK COMMUNITY COUNCIL","COMM_COUNCIL_CODE":"WE","NEIGHBOURHOOD_NAME":"Caledonia-Fairbanks (109)"}},{"type":"Feature","geometry":{"type":"Polygon","coordinates":[[[-79.4392135788928,43.6880908299498],[-79.439239958419,43.6881566794932],[-79.4392557960895,43.6881961856207],[-79.4396140016832,43.68811640785],[-79.4395981513942,43.6880769017649],[-79.4395717466752,43.6880110792939],[-79.4392135788928,43.6880908299498]]]},"properties":{"_id":676,"ADDRESS_POINT_ID":8593834,"ADDRESS_NUMBER":"402","LINEAR_NAME_FULL":"Oakwood Ave","ADDRESS_FULL":"402 Oakwood Ave","POSTAL_CODE":"M6E2W3","MUNICIPALITY":"YORK","CITY":"Toronto","PLACE_NAME":"Kingdom Hall","GENERAL_USE_CODE":109001,"CENTRELINE_ID":8593793,"LO_NUM":402,"LO_NUM_SUF":null,"HI_NUM":null,"HI_NUM_SUF":null,"LINEAR_NAME_ID":794,"X":null,"Y":null,"LONGITUDE":null,"LATITUDE":null,"OBJECTID":668,"FTH_PRIORITY":null,"FTH_ORGANIZATION":"Kingdom Hall Of Jehovah'S Wi","FTH_FAITH":"Christian","FTH_DENOMINATION":null,"FTH_GROUPING":null,"FTH_PHONE":"4166545503","FTH_EXTENSION":null,"FTH_FAX":null,"FTH_CELL":null,"FTH_HOME":null,"FTH_SALUTATION":null,"FTH_FIRST_NAME":null,"FTH_LAST_NAME":null,"FTH_POSITION":null,"FTH_EMAIL":null,"FTH_CONTACT":null,"FTH_WEBSITE":null,"FTH_FORUM":null,"WARD_NAME":"Toronto-St. Paul's (12)","WARD_NUMBER":"12","COMM_COUNCIL_NAME":"NORTH YORK COMMUNITY COUNCIL","COMM_COUNCIL_CODE":"NO","NEIGHBOURHOOD_NAME":"Oakwood-Vaughan (107)"}},{"type":"Feature","geometry":{"type":"Polygon","coordinates":[[[-79.4389561752251,43.6893401542962],[-79.4389665323708,43.6893652824535],[-79.4389713211565,43.6893769056879],[-79.4389936936997,43.6894311054525],[-79.4390208302879,43.6894969194298],[-79.4390479917356,43.6895627424144],[-79.4393840812502,43.6894900016062],[-79.4393637435744,43.6894226070931],[-79.4393433811532,43.6893551945599],[-79.4393230435956,43.6892877730342],[-79.4393026812654,43.6892203604921],[-79.4389393835056,43.6892994594539],[-79.4389561752251,43.6893401542962]]]},"properties":{"_id":677,"ADDRESS_POINT_ID":69685,"ADDRESS_NUMBER":"421","LINEAR_NAME_FULL":"Oakwood Ave","ADDRESS_FULL":"421 Oakwood Ave","POSTAL_CODE":"M6E2W1","MUNICIPALITY":"YORK","CITY":"Toronto","PLACE_NAME":"Oakwood Baptist Church","GENERAL_USE_CODE":109001,"CENTRELINE_ID":8203,"LO_NUM":421,"LO_NUM_SUF":null,"HI_NUM":null,"HI_NUM_SUF":null,"LINEAR_NAME_ID":794,"X":null,"Y":null,"LONGITUDE":null,"LATITUDE":null,"OBJECTID":669,"FTH_PRIORITY":null,"FTH_ORGANIZATION":"Oakwood Baptist Church","FTH_FAITH":"Christian","FTH_DENOMINATION":null,"FTH_GROUPING":null,"FTH_PHONE":"4166528020","FTH_EXTENSION":null,"FTH_FAX":null,"FTH_CELL":null,"FTH_HOME":null,"FTH_SALUTATION":null,"FTH_FIRST_NAME":null,"FTH_LAST_NAME":null,"FTH_POSITION":null,"FTH_EMAIL":null,"FTH_CONTACT":null,"FTH_WEBSITE":null,"FTH_FORUM":null,"WARD_NAME":"Toronto-St. Paul's (12)","WARD_NUMBER":"12","COMM_COUNCIL_NAME":"NORTH YORK COMMUNITY COUNCIL","COMM_COUNCIL_CODE":"NO","NEIGHBOURHOOD_NAME":"Oakwood-Vaughan (107)"}},{"type":"Feature","geometry":{"type":"Polygon","coordinates":[[[-79.4338290323392,43.6895647551151],[-79.433846437326,43.6896087095311],[-79.4340302042445,43.6895703891887],[-79.4338826080063,43.689237156823],[-79.4336773612759,43.6891818239498],[-79.4337609094192,43.689392736837],[-79.4337815305757,43.6894448032985],[-79.4337922184131,43.6894718313898],[-79.4338052814288,43.6895047837102],[-79.4338235523084,43.689550916946],[-79.4338290323392,43.6895647551151]]]},"properties":{"_id":678,"ADDRESS_POINT_ID":75447,"ADDRESS_NUMBER":"449","LINEAR_NAME_FULL":"Vaughan Rd","ADDRESS_FULL":"449 Vaughan Rd","POSTAL_CODE":"M6C2P4","MUNICIPALITY":"YORK","CITY":"Toronto","PLACE_NAME":"St Basils","GENERAL_USE_CODE":109001,"CENTRELINE_ID":8194,"LO_NUM":449,"LO_NUM_SUF":null,"HI_NUM":null,"HI_NUM_SUF":null,"LINEAR_NAME_ID":930,"X":null,"Y":null,"LONGITUDE":null,"LATITUDE":null,"OBJECTID":670,"FTH_PRIORITY":null,"FTH_ORGANIZATION":"St Basil'S Ukrainian Catholi","FTH_FAITH":"Christian","FTH_DENOMINATION":null,"FTH_GROUPING":null,"FTH_PHONE":"4166563772","FTH_EXTENSION":null,"FTH_FAX":null,"FTH_CELL":null,"FTH_HOME":null,"FTH_SALUTATION":null,"FTH_FIRST_NAME":null,"FTH_LAST_NAME":null,"FTH_POSITION":null,"FTH_EMAIL":null,"FTH_CONTACT":null,"FTH_WEBSITE":null,"FTH_FORUM":null,"WARD_NAME":"Toronto-St. Paul's (12)","WARD_NUMBER":"12","COMM_COUNCIL_NAME":"TORONTO AND EAST YORK COMMUNITY COUNCIL","COMM_COUNCIL_CODE":"SO","NEIGHBOURHOOD_NAME":"Oakwood-Vaughan (107)"}},{"type":"Feature","geometry":{"type":"Polygon","coordinates":[[[-79.4330590801643,43.6890606751056],[-79.4328298767887,43.689176477392],[-79.4327994436788,43.6891918697299],[-79.4327934012043,43.6891931803672],[-79.4328040392166,43.6892199564863],[-79.4328100816936,43.6892186458484],[-79.4328764619808,43.6892043277742],[-79.4328658239289,43.689177560663],[-79.4331433426821,43.6891177206504],[-79.4331353481323,43.6890784883097],[-79.4330590801643,43.6890606751056]]]},"properties":{"_id":679,"ADDRESS_POINT_ID":75443,"ADDRESS_NUMBER":"439","LINEAR_NAME_FULL":"Vaughan Rd","ADDRESS_FULL":"439 Vaughan Rd","POSTAL_CODE":"M6C2P1","MUNICIPALITY":"YORK","CITY":"Toronto","PLACE_NAME":null,"GENERAL_USE_CODE":109001,"CENTRELINE_ID":8198,"LO_NUM":439,"LO_NUM_SUF":null,"HI_NUM":null,"HI_NUM_SUF":null,"LINEAR_NAME_ID":930,"X":null,"Y":null,"LONGITUDE":null,"LATITUDE":null,"OBJECTID":671,"FTH_PRIORITY":null,"FTH_ORGANIZATION":"First Hungarian Presbyterian","FTH_FAITH":"Christian","FTH_DENOMINATION":null,"FTH_GROUPING":null,"FTH_PHONE":null,"FTH_EXTENSION":null,"FTH_FAX":null,"FTH_CELL":null,"FTH_HOME":null,"FTH_SALUTATION":null,"FTH_FIRST_NAME":null,"FTH_LAST_NAME":null,"FTH_POSITION":null,"FTH_EMAIL":null,"FTH_CONTACT":null,"FTH_WEBSITE":null,"FTH_FORUM":null,"WARD_NAME":"Toronto-St. Paul's (12)","WARD_NUMBER":"12","COMM_COUNCIL_NAME":"TORONTO AND EAST YORK COMMUNITY COUNCIL","COMM_COUNCIL_CODE":"SO","NEIGHBOURHOOD_NAME":"Humewood-Cedarvale (106)"}},{"type":"Feature","geometry":{"type":"Polygon","coordinates":[[[-79.4259376866217,43.7020939126292],[-79.4261237440598,43.7020744642484],[-79.4262173063091,43.7020646862811],[-79.4261937432824,43.7020054426514],[-79.4261349618945,43.7018608351325],[-79.4260718513619,43.7017055942685],[-79.4260155274323,43.701702020324],[-79.42595927865,43.7016978793197],[-79.4259031298529,43.7016931532695],[-79.4258470686133,43.7016878601678],[-79.4258716035261,43.7018340028566],[-79.4258953995159,43.7019757704355],[-79.425915623778,43.702096220662],[-79.4259376866217,43.7020939126292]]]},"properties":{"_id":680,"ADDRESS_POINT_ID":881213,"ADDRESS_NUMBER":"2","LINEAR_NAME_FULL":"Wembley Rd","ADDRESS_FULL":"2 Wembley Rd","POSTAL_CODE":"M6C2E9","MUNICIPALITY":"former TORONTO","CITY":"Toronto","PLACE_NAME":"Forest Hill United Church","GENERAL_USE_CODE":109001,"CENTRELINE_ID":1138717,"LO_NUM":2,"LO_NUM_SUF":null,"HI_NUM":null,"HI_NUM_SUF":null,"LINEAR_NAME_ID":4656,"X":null,"Y":null,"LONGITUDE":null,"LATITUDE":null,"OBJECTID":672,"FTH_PRIORITY":null,"FTH_ORGANIZATION":"Forest Hill United Church","FTH_FAITH":"Christian","FTH_DENOMINATION":null,"FTH_GROUPING":null,"FTH_PHONE":"4167830879","FTH_EXTENSION":null,"FTH_FAX":null,"FTH_CELL":null,"FTH_HOME":null,"FTH_SALUTATION":null,"FTH_FIRST_NAME":null,"FTH_LAST_NAME":null,"FTH_POSITION":null,"FTH_EMAIL":null,"FTH_CONTACT":null,"FTH_WEBSITE":null,"FTH_FORUM":null,"WARD_NAME":"Eglinton-Lawrence (8)","WARD_NUMBER":"8","COMM_COUNCIL_NAME":"TORONTO AND EAST YORK COMMUNITY COUNCIL","COMM_COUNCIL_CODE":"SO","NEIGHBOURHOOD_NAME":"Forest Hill North (102)"}},{"type":"Feature","geometry":{"type":"Polygon","coordinates":[[[-79.4421799891881,43.6961811217056],[-79.4417813021692,43.6962667556314],[-79.4418039398805,43.6963214139815],[-79.4419850928024,43.6962824314728],[-79.4422026272295,43.6962357799777],[-79.4422007335057,43.6962312063656],[-79.4421799891881,43.6961811217056]]]},"properties":{"_id":681,"ADDRESS_POINT_ID":69800,"ADDRESS_NUMBER":"587","LINEAR_NAME_FULL":"Oakwood Ave","ADDRESS_FULL":"587 Oakwood Ave","POSTAL_CODE":"M6E2X7","MUNICIPALITY":"YORK","CITY":"Toronto","PLACE_NAME":"The Open Bible Church","GENERAL_USE_CODE":109001,"CENTRELINE_ID":7695,"LO_NUM":587,"LO_NUM_SUF":null,"HI_NUM":null,"HI_NUM_SUF":null,"LINEAR_NAME_ID":794,"X":null,"Y":null,"LONGITUDE":null,"LATITUDE":null,"OBJECTID":673,"FTH_PRIORITY":null,"FTH_ORGANIZATION":"Prayer Outreach Ministries","FTH_FAITH":"Christian","FTH_DENOMINATION":null,"FTH_GROUPING":null,"FTH_PHONE":"4167841312","FTH_EXTENSION":null,"FTH_FAX":null,"FTH_CELL":null,"FTH_HOME":null,"FTH_SALUTATION":null,"FTH_FIRST_NAME":null,"FTH_LAST_NAME":null,"FTH_POSITION":null,"FTH_EMAIL":null,"FTH_CONTACT":null,"FTH_WEBSITE":null,"FTH_FORUM":null,"WARD_NAME":"Toronto-St. Paul's (12)","WARD_NUMBER":"12","COMM_COUNCIL_NAME":"NORTH YORK COMMUNITY COUNCIL","COMM_COUNCIL_CODE":"NO","NEIGHBOURHOOD_NAME":"Oakwood-Vaughan (107)"}},{"type":"Feature","geometry":{"type":"Polygon","coordinates":[[[-79.4424015672389,43.70186320421],[-79.4424733075593,43.7018479651653],[-79.4425639849808,43.7018287120205],[-79.4424716972211,43.7015987189136],[-79.442380054803,43.7016154241373],[-79.4423075350312,43.7016286374427],[-79.4424015672389,43.70186320421]]]},"properties":{"_id":682,"ADDRESS_POINT_ID":9666998,"ADDRESS_NUMBER":"915","LINEAR_NAME_FULL":"Roselawn Ave","ADDRESS_FULL":"915 Roselawn Ave","POSTAL_CODE":"M6B1B6","MUNICIPALITY":"YORK","CITY":"Toronto","PLACE_NAME":null,"GENERAL_USE_CODE":115001,"CENTRELINE_ID":9655864,"LO_NUM":915,"LO_NUM_SUF":null,"HI_NUM":null,"HI_NUM_SUF":null,"LINEAR_NAME_ID":854,"X":null,"Y":null,"LONGITUDE":null,"LATITUDE":null,"OBJECTID":674,"FTH_PRIORITY":null,"FTH_ORGANIZATION":"Pentecostal Church Of The Re","FTH_FAITH":"Christian","FTH_DENOMINATION":null,"FTH_GROUPING":null,"FTH_PHONE":"4167830608","FTH_EXTENSION":null,"FTH_FAX":null,"FTH_CELL":null,"FTH_HOME":null,"FTH_SALUTATION":null,"FTH_FIRST_NAME":null,"FTH_LAST_NAME":null,"FTH_POSITION":null,"FTH_EMAIL":null,"FTH_CONTACT":null,"FTH_WEBSITE":null,"FTH_FORUM":null,"WARD_NAME":"Eglinton-Lawrence (8)","WARD_NUMBER":"8","COMM_COUNCIL_NAME":"NORTH YORK COMMUNITY COUNCIL","COMM_COUNCIL_CODE":"NO","NEIGHBOURHOOD_NAME":"Briar Hill-Belgravia (108)"}},{"type":"Feature","geometry":{"type":"Polygon","coordinates":[[[-79.4393307210604,43.6865811937024],[-79.4393909803456,43.6865682367875],[-79.4393952730606,43.6865673119292],[-79.4392944714547,43.6863156629916],[-79.4392901539482,43.686316587833],[-79.4392298701491,43.6863294816732],[-79.4392466229004,43.6863712926349],[-79.4393082643208,43.686525130662],[-79.4393307210604,43.6865811937024]]]},"properties":{"_id":707,"ADDRESS_POINT_ID":8593921,"ADDRESS_NUMBER":"106","LINEAR_NAME_FULL":"Holland Park Ave","ADDRESS_FULL":"106 Holland Park Ave","POSTAL_CODE":"M6E 1L6","MUNICIPALITY":"YORK","CITY":"Toronto","PLACE_NAME":"Mount Zion Apostolic Church","GENERAL_USE_CODE":109001,"CENTRELINE_ID":30025326,"LO_NUM":106,"LO_NUM_SUF":null,"HI_NUM":null,"HI_NUM_SUF":null,"LINEAR_NAME_ID":664,"X":null,"Y":null,"LONGITUDE":null,"LATITUDE":null,"OBJECTID":698,"FTH_PRIORITY":null,"FTH_ORGANIZATION":"Mount Zion Apostolic Church","FTH_FAITH":"Christian","FTH_DENOMINATION":null,"FTH_GROUPING":null,"FTH_PHONE":"4166528044","FTH_EXTENSION":null,"FTH_FAX":null,"FTH_CELL":null,"FTH_HOME":null,"FTH_SALUTATION":null,"FTH_FIRST_NAME":null,"FTH_LAST_NAME":null,"FTH_POSITION":null,"FTH_EMAIL":null,"FTH_CONTACT":null,"FTH_WEBSITE":null,"FTH_FORUM":null,"WARD_NAME":"Davenport (9)","WARD_NUMBER":"9","COMM_COUNCIL_NAME":"ETOBICOKE YORK COMMUNITY COUNCIL","COMM_COUNCIL_CODE":"WE","NEIGHBOURHOOD_NAME":"Oakwood-Vaughan (107)"}},{"type":"Feature","geometry":{"type":"Polygon","coordinates":[[[-79.4240615978343,43.6826144832742],[-79.4240292888739,43.682534791211],[-79.423966301398,43.6825479272499],[-79.4239022097173,43.6825612965531],[-79.4238821922599,43.6825112449426],[-79.4238621748358,43.6824611933282],[-79.4238432207895,43.6824137708008],[-79.4238371623848,43.682398644563],[-79.4236631620021,43.6824351908338],[-79.42351799599568,43.68246568182318],[-79.42351799599568,43.68266179474467],[-79.4235426962224,43.6827234672893],[-79.4240615978343,43.6826144832742]]]},"properties":{"_id":867,"ADDRESS_POINT_ID":11129784,"ADDRESS_NUMBER":"156","LINEAR_NAME_FULL":"Wychwood Ave","ADDRESS_FULL":"156 Wychwood Ave","POSTAL_CODE":null,"MUNICIPALITY":"former TORONTO","CITY":"Toronto","PLACE_NAME":null,"GENERAL_USE_CODE":109001,"CENTRELINE_ID":14015912,"LO_NUM":156,"LO_NUM_SUF":null,"HI_NUM":null,"HI_NUM_SUF":null,"LINEAR_NAME_ID":973,"X":null,"Y":null,"LONGITUDE":null,"LATITUDE":null,"OBJECTID":860,"FTH_PRIORITY":null,"FTH_ORGANIZATION":"St Clair Avenue Baptist Chur","FTH_FAITH":"Christian","FTH_DENOMINATION":null,"FTH_GROUPING":null,"FTH_PHONE":"4166518741","FTH_EXTENSION":null,"FTH_FAX":null,"FTH_CELL":null,"FTH_HOME":null,"FTH_SALUTATION":null,"FTH_FIRST_NAME":null,"FTH_LAST_NAME":null,"FTH_POSITION":null,"FTH_EMAIL":null,"FTH_CONTACT":null,"FTH_WEBSITE":null,"FTH_FORUM":null,"WARD_NAME":"Toronto-St. Paul's (12)","WARD_NUMBER":"12","COMM_COUNCIL_NAME":"TORONTO AND EAST YORK COMMUNITY COUNCIL","COMM_COUNCIL_CODE":"SO","NEIGHBOURHOOD_NAME":"Wychwood (94)"}},{"type":"Feature","geometry":{"type":"Polygon","coordinates":[[[-79.4556535518778,43.6889287150829],[-79.4556803964797,43.6889943449726],[-79.4557072287357,43.6890599748504],[-79.4557339742052,43.6891256226902],[-79.4557603475439,43.6891913423894],[-79.4557867457427,43.6892570710926],[-79.4559421342854,43.6896344115537],[-79.4559760538323,43.6896271875777],[-79.4560102209898,43.6896206117805],[-79.4560446109366,43.6896147021548],[-79.4560792112758,43.6896094496945],[-79.4561139971795,43.6896048813937],[-79.4561489314547,43.6896009702341],[-79.4583441621169,43.6893728522403],[-79.4583813291231,43.6893686711729],[-79.4584183477231,43.6893638329445],[-79.4584551931191,43.6893583195438],[-79.4584918404884,43.6893521489643],[-79.4585282526224,43.6893453121916],[-79.4585644295074,43.6893378272285],[-79.4585103100509,43.6892094130589],[-79.4583508756914,43.6888311474522],[-79.4582577225383,43.6886101765504],[-79.4582300937693,43.6885446189853],[-79.4582024650605,43.6884790614128],[-79.4581914309236,43.6884528905956],[-79.4581637775152,43.6883872969985],[-79.4581338579384,43.6883162837806],[-79.4581071953677,43.6882530398707],[-79.458080532853,43.688189795954],[-79.4580507744337,43.6881192058322],[-79.4580397280621,43.6880929809864],[-79.4580320005561,43.6880746424982],[-79.4580120997612,43.6880274323641],[-79.4579866758327,43.687967114301],[-79.4579571653227,43.6878970913252],[-79.4579312895738,43.6878267186279],[-79.4579040089073,43.6877610620888],[-79.4578764925885,43.6876954504621],[-79.4578540031954,43.687643045592],[-79.4578314269741,43.6875906946928],[-79.4578088756068,43.6875383347965],[-79.4576913137063,43.6872663529894],[-79.4576233004189,43.6870920985745],[-79.4575699274222,43.6869662495573],[-79.4575310061284,43.6868744938191],[-79.4575032052832,43.6868089449957],[-79.4574898683358,43.6867774894818],[-79.4560297850135,43.6833348736203],[-79.4535384496525,43.6838836070784],[-79.4538705632822,43.6846943453365],[-79.4539402998354,43.6848681796901],[-79.4540583003776,43.6851546757506],[-79.4540667552671,43.6851767503511],[-79.4540678944098,43.685179370189],[-79.4541006448945,43.685254571254],[-79.4541291112498,43.6853199501649],[-79.4541575900568,43.6853853470754],[-79.4541860565356,43.6854507259707],[-79.4542145230694,43.6855161138594],[-79.4542430020687,43.6855815017452],[-79.4542714811231,43.6856468986245],[-79.454299947849,43.6857122774885],[-79.4543173077367,43.6857521692113],[-79.4543284146231,43.6857776743472],[-79.4543358192307,43.6857946627684],[-79.4543568814727,43.6858430531956],[-79.4543642984865,43.6858600596222],[-79.4543853607811,43.6859084410423],[-79.4544138277542,43.685973819875],[-79.4544423071794,43.6860392167074],[-79.4544707495023,43.6861045505081],[-79.454499216688,43.6861698933122],[-79.4545276591275,43.6862352360986],[-79.4545561016356,43.6863005698758],[-79.4546907246287,43.6866097190994],[-79.454776082912,43.6867829469872],[-79.4549372884622,43.6871771507195],[-79.4549652701047,43.6872462287445],[-79.455071625749,43.6875087125776],[-79.4550982953113,43.6875744955737],[-79.4551255977415,43.6876400177734],[-79.4551529126354,43.6877055399708],[-79.4551799050314,43.6877711250435],[-79.4552065997304,43.6878367820029],[-79.4552132486677,43.68785311297],[-79.4552332944876,43.6879024389554],[-79.4552456018394,43.6879326971501],[-79.4552600017073,43.6879680959057],[-79.4552783769162,43.6880121824708],[-79.4552873044918,43.6880336180625],[-79.4553140118284,43.6880992749987],[-79.4553409921652,43.6881648690255],[-79.4553670917058,43.6882306607299],[-79.4553934890546,43.6882963895346],[-79.4554182273694,43.6883579410818],[-79.4554199112764,43.6883621093409],[-79.4554430647166,43.688419834711],[-79.455446283925,43.6884278471237],[-79.4554738848858,43.6884932883351],[-79.455505176684,43.6885664900972],[-79.4555107737962,43.6885795891684],[-79.4555355131384,43.6886400695327],[-79.4555461988505,43.688666213466],[-79.4555677560301,43.6887189604677],[-79.455573030814,43.688731843379],[-79.4555998752472,43.6887974642885],[-79.4556267073277,43.6888630941874],[-79.4556535518778,43.6889287150829]]]},"properties":{"_id":1126,"ADDRESS_POINT_ID":71969,"ADDRESS_NUMBER":"250","LINEAR_NAME_FULL":"Rogers Rd","ADDRESS_FULL":"250 Rogers Rd","POSTAL_CODE":"M6E1R1","MUNICIPALITY":"YORK","CITY":"Toronto","PLACE_NAME":null,"GENERAL_USE_CODE":109002,"CENTRELINE_ID":14064680,"LO_NUM":250,"LO_NUM_SUF":null,"HI_NUM":null,"HI_NUM_SUF":null,"LINEAR_NAME_ID":849,"X":null,"Y":null,"LONGITUDE":null,"LATITUDE":null,"OBJECTID":1119,"FTH_PRIORITY":null,"FTH_ORGANIZATION":"Prospect Cemetery","FTH_FAITH":"Christian","FTH_DENOMINATION":null,"FTH_GROUPING":null,"FTH_PHONE":"4169366761","FTH_EXTENSION":null,"FTH_FAX":null,"FTH_CELL":null,"FTH_HOME":null,"FTH_SALUTATION":null,"FTH_FIRST_NAME":null,"FTH_LAST_NAME":null,"FTH_POSITION":null,"FTH_EMAIL":null,"FTH_CONTACT":null,"FTH_WEBSITE":null,"FTH_FORUM":null,"WARD_NAME":"Davenport (9)","WARD_NUMBER":"9","COMM_COUNCIL_NAME":"ETOBICOKE YORK COMMUNITY COUNCIL","COMM_COUNCIL_CODE":"WE","NEIGHBOURHOOD_NAME":"Caledonia-Fairbanks (109)"}},{"type":"Feature","geometry":{"type":"Polygon","coordinates":[[[-79.4643414325772,43.6839211434032],[-79.4643687925789,43.6839245544293],[-79.4643963018297,43.6839272813959],[-79.4644239231184,43.6839293242914],[-79.464451631637,43.6839306831078],[-79.464479377771,43.6839313578298],[-79.4645071367176,43.6839313394484],[-79.4645348836638,43.683930636957],[-79.4645625813982,43.6839292503442],[-79.4645902051183,43.6839271706011],[-79.4646177051987,43.6839244157149],[-79.4646450568369,43.6839209766768],[-79.4646722352252,43.6839168534791],[-79.4646992031363,43.6839120731144],[-79.4647259357733,43.6839066175727],[-79.4647266800699,43.6839064647802],[-79.4647272755146,43.6839063299442],[-79.4647344582717,43.6839043518726],[-79.4647412568746,43.6839017705944],[-79.4647475844833,43.6838986130867],[-79.4647533418384,43.6838949333271],[-79.4647584668911,43.6838907853041],[-79.4647628603822,43.6838862229953],[-79.4647664850645,43.6838813093983],[-79.4647692664754,43.6838761165006],[-79.4647711797608,43.6838707253066],[-79.4647721876736,43.683865198814],[-79.4647722901563,43.683859636037],[-79.4647714747739,43.6838540909798],[-79.4647697538724,43.6838486626605],[-79.4647451555416,43.6837890664153],[-79.46471803054,43.6837233664971],[-79.4642973644537,43.6838142931197],[-79.4643244642302,43.6838799931288],[-79.4643414325772,43.6839211434032]]]},"properties":{"_id":1167,"ADDRESS_POINT_ID":72587,"ADDRESS_NUMBER":"247","LINEAR_NAME_FULL":"Rosethorn Ave","ADDRESS_FULL":"247 Rosethorn Ave","POSTAL_CODE":"M6M3K9","MUNICIPALITY":"YORK","CITY":"Toronto","PLACE_NAME":null,"GENERAL_USE_CODE":109001,"CENTRELINE_ID":8799,"LO_NUM":247,"LO_NUM_SUF":null,"HI_NUM":null,"HI_NUM_SUF":null,"LINEAR_NAME_ID":857,"X":null,"Y":null,"LONGITUDE":null,"LATITUDE":null,"OBJECTID":1160,"FTH_PRIORITY":null,"FTH_ORGANIZATION":"Romanian Orthodox Church","FTH_FAITH":"Orthodox","FTH_DENOMINATION":null,"FTH_GROUPING":null,"FTH_PHONE":"4166511321","FTH_EXTENSION":null,"FTH_FAX":null,"FTH_CELL":null,"FTH_HOME":null,"FTH_SALUTATION":null,"FTH_FIRST_NAME":null,"FTH_LAST_NAME":null,"FTH_POSITION":null,"FTH_EMAIL":null,"FTH_CONTACT":null,"FTH_WEBSITE":null,"FTH_FORUM":null,"WARD_NAME":"York South-Weston (5)","WARD_NUMBER":"5","COMM_COUNCIL_NAME":"ETOBICOKE YORK COMMUNITY COUNCIL","COMM_COUNCIL_CODE":"WE","NEIGHBOURHOOD_NAME":"Keelesdale-Eglinton West (110)"}},{"type":"Feature","geometry":{"type":"Polygon","coordinates":[[[-79.4515472890313,43.6974259436012],[-79.4514741558894,43.6972700822991],[-79.4511373052076,43.6973432542851],[-79.451174217328,43.6975069854619],[-79.4515472890313,43.6974259436012]]]},"properties":{"_id":1178,"ADDRESS_POINT_ID":9655860,"ADDRESS_NUMBER":"2420","LINEAR_NAME_FULL":"Dufferin St","ADDRESS_FULL":"2420 Dufferin St","POSTAL_CODE":"M6E3S8","MUNICIPALITY":"YORK","CITY":"Toronto","PLACE_NAME":null,"GENERAL_USE_CODE":115001,"CENTRELINE_ID":9655858,"LO_NUM":2420,"LO_NUM_SUF":null,"HI_NUM":null,"HI_NUM_SUF":null,"LINEAR_NAME_ID":557,"X":null,"Y":null,"LONGITUDE":null,"LATITUDE":null,"OBJECTID":1171,"FTH_PRIORITY":null,"FTH_ORGANIZATION":"The Universal Church","FTH_FAITH":"Other","FTH_DENOMINATION":null,"FTH_GROUPING":null,"FTH_PHONE":"4167858700","FTH_EXTENSION":null,"FTH_FAX":null,"FTH_CELL":null,"FTH_HOME":null,"FTH_SALUTATION":null,"FTH_FIRST_NAME":null,"FTH_LAST_NAME":null,"FTH_POSITION":null,"FTH_EMAIL":null,"FTH_CONTACT":null,"FTH_WEBSITE":null,"FTH_FORUM":null,"WARD_NAME":"Eglinton-Lawrence (8)","WARD_NUMBER":"8","COMM_COUNCIL_NAME":"NORTH YORK COMMUNITY COUNCIL","COMM_COUNCIL_CODE":"NO","NEIGHBOURHOOD_NAME":"Briar Hill-Belgravia (108)"}},{"type":"Feature","geometry":{"type":"Polygon","coordinates":[[[-79.4717097401515,43.6897841962571],[-79.4721318035386,43.689688391093],[-79.4720743686893,43.6895576242036],[-79.4716522813315,43.689653402148],[-79.4717097401515,43.6897841962571]]]},"properties":{"_id":1179,"ADDRESS_POINT_ID":73366,"ADDRESS_NUMBER":"277","LINEAR_NAME_FULL":"Scott Rd","ADDRESS_FULL":"277 Scott Rd","POSTAL_CODE":"M6M3V3","MUNICIPALITY":"YORK","CITY":"Toronto","PLACE_NAME":"Masjide Noor","GENERAL_USE_CODE":109001,"CENTRELINE_ID":8258,"LO_NUM":277,"LO_NUM_SUF":null,"HI_NUM":null,"HI_NUM_SUF":null,"LINEAR_NAME_ID":875,"X":null,"Y":null,"LONGITUDE":null,"LATITUDE":null,"OBJECTID":1172,"FTH_PRIORITY":"9","FTH_ORGANIZATION":"Masjid Al Noor","FTH_FAITH":"Muslim","FTH_DENOMINATION":"Sunni","FTH_GROUPING":null,"FTH_PHONE":"(416) 658-6667","FTH_EXTENSION":null,"FTH_FAX":"416-658-0707","FTH_CELL":null,"FTH_HOME":null,"FTH_SALUTATION":null,"FTH_FIRST_NAME":null,"FTH_LAST_NAME":null,"FTH_POSITION":null,"FTH_EMAIL":null,"FTH_CONTACT":null,"FTH_WEBSITE":null,"FTH_FORUM":"message","WARD_NAME":"York South-Weston (5)","WARD_NUMBER":"5","COMM_COUNCIL_NAME":"ETOBICOKE YORK COMMUNITY COUNCIL","COMM_COUNCIL_CODE":"WE","NEIGHBOURHOOD_NAME":"Keelesdale-Eglinton West (110)"}},{"type":"Feature","geometry":{"type":"Polygon","coordinates":[[[-79.4717097401515,43.6897841962571],[-79.4721318035386,43.689688391093],[-79.4720743686893,43.6895576242036],[-79.4716522813315,43.689653402148],[-79.4717097401515,43.6897841962571]]]},"properties":{"_id":1180,"ADDRESS_POINT_ID":73366,"ADDRESS_NUMBER":"277","LINEAR_NAME_FULL":"Scott Rd","ADDRESS_FULL":"277 Scott Rd","POSTAL_CODE":"M6M3V3","MUNICIPALITY":"YORK","CITY":"Toronto","PLACE_NAME":"Masjide Noor","GENERAL_USE_CODE":109001,"CENTRELINE_ID":8258,"LO_NUM":277,"LO_NUM_SUF":null,"HI_NUM":null,"HI_NUM_SUF":null,"LINEAR_NAME_ID":875,"X":null,"Y":null,"LONGITUDE":null,"LATITUDE":null,"OBJECTID":1173,"FTH_PRIORITY":null,"FTH_ORGANIZATION":"Anjuman-E-Islahul-Muslemin","FTH_FAITH":"Muslim","FTH_DENOMINATION":null,"FTH_GROUPING":null,"FTH_PHONE":null,"FTH_EXTENSION":null,"FTH_FAX":null,"FTH_CELL":null,"FTH_HOME":null,"FTH_SALUTATION":null,"FTH_FIRST_NAME":null,"FTH_LAST_NAME":null,"FTH_POSITION":null,"FTH_EMAIL":null,"FTH_CONTACT":null,"FTH_WEBSITE":null,"FTH_FORUM":null,"WARD_NAME":"York South-Weston (5)","WARD_NUMBER":"5","COMM_COUNCIL_NAME":"ETOBICOKE YORK COMMUNITY COUNCIL","COMM_COUNCIL_CODE":"WE","NEIGHBOURHOOD_NAME":"Keelesdale-Eglinton West (110)"}},{"type":"Feature","geometry":{"type":"Polygon","coordinates":[[[-79.4710850356337,43.6914744476316],[-79.4709721266087,43.6912143715591],[-79.4708946983816,43.6912327505209],[-79.470997505969,43.6914742544324],[-79.4710063544342,43.6914923402813],[-79.4710850356337,43.6914744476316]]]},"properties":{"_id":1181,"ADDRESS_POINT_ID":8432263,"ADDRESS_NUMBER":"2528","LINEAR_NAME_FULL":"Eglinton Ave W","ADDRESS_FULL":"2528 Eglinton Ave W","POSTAL_CODE":"M6M1T1","MUNICIPALITY":"YORK","CITY":"Toronto","PLACE_NAME":null,"GENERAL_USE_CODE":115001,"CENTRELINE_ID":8432256,"LO_NUM":2528,"LO_NUM_SUF":null,"HI_NUM":null,"HI_NUM_SUF":null,"LINEAR_NAME_ID":571,"X":null,"Y":null,"LONGITUDE":null,"LATITUDE":null,"OBJECTID":1174,"FTH_PRIORITY":null,"FTH_ORGANIZATION":"The Eglinton Calvary Cross","FTH_FAITH":"Christian","FTH_DENOMINATION":null,"FTH_GROUPING":null,"FTH_PHONE":"4166540131","FTH_EXTENSION":null,"FTH_FAX":null,"FTH_CELL":null,"FTH_HOME":null,"FTH_SALUTATION":null,"FTH_FIRST_NAME":null,"FTH_LAST_NAME":null,"FTH_POSITION":null,"FTH_EMAIL":null,"FTH_CONTACT":null,"FTH_WEBSITE":null,"FTH_FORUM":null,"WARD_NAME":"York South-Weston (5)","WARD_NUMBER":"5","COMM_COUNCIL_NAME":"ETOBICOKE YORK COMMUNITY COUNCIL","COMM_COUNCIL_CODE":"WE","NEIGHBOURHOOD_NAME":"Beechborough-Greenbrook (112)"}},{"type":"Feature","geometry":{"type":"Polygon","coordinates":[[[-79.4400513294384,43.6911791139947],[-79.4400242901074,43.6911133993467],[-79.4400026834573,43.6910608654416],[-79.43999398379,43.6910398068419],[-79.4399701124101,43.6909819429733],[-79.4399676745519,43.6909760188397],[-79.4396239840878,43.6910502965516],[-79.4396264095283,43.6910562026834],[-79.4396448729217,43.6911008318615],[-79.4393036496042,43.691175433958],[-79.4393030179827,43.6911867122472],[-79.4393016545055,43.6911979541426],[-79.4392995591993,43.6912091326403],[-79.4392967196769,43.691220229731],[-79.4392931607751,43.691231218424],[-79.4392888825297,43.6912420627141],[-79.4392853013124,43.6912505760385],[-79.4392812364186,43.6912589720889],[-79.4393849138257,43.6913238364477],[-79.4394115655435,43.6913180537426],[-79.4400513294384,43.6911791139947]]]},"properties":{"_id":1182,"ADDRESS_POINT_ID":13972658,"ADDRESS_NUMBER":"473","LINEAR_NAME_FULL":"Oakwood Ave","ADDRESS_FULL":"473 Oakwood Ave","POSTAL_CODE":"M6E2W4","MUNICIPALITY":"YORK","CITY":"Toronto","PLACE_NAME":null,"GENERAL_USE_CODE":107010,"CENTRELINE_ID":8083,"LO_NUM":473,"LO_NUM_SUF":null,"HI_NUM":null,"HI_NUM_SUF":null,"LINEAR_NAME_ID":794,"X":null,"Y":null,"LONGITUDE":null,"LATITUDE":null,"OBJECTID":1175,"FTH_PRIORITY":null,"FTH_ORGANIZATION":"Toronto Breakthrough Taberna","FTH_FAITH":"Christian","FTH_DENOMINATION":null,"FTH_GROUPING":null,"FTH_PHONE":"4166528520","FTH_EXTENSION":null,"FTH_FAX":null,"FTH_CELL":null,"FTH_HOME":null,"FTH_SALUTATION":null,"FTH_FIRST_NAME":null,"FTH_LAST_NAME":null,"FTH_POSITION":null,"FTH_EMAIL":null,"FTH_CONTACT":null,"FTH_WEBSITE":null,"FTH_FORUM":null,"WARD_NAME":"Toronto-St. Paul's (12)","WARD_NUMBER":"12","COMM_COUNCIL_NAME":"NORTH YORK COMMUNITY COUNCIL","COMM_COUNCIL_CODE":"NO","NEIGHBOURHOOD_NAME":"Oakwood-Vaughan (107)"}},{"type":"Feature","geometry":{"type":"Polygon","coordinates":[[[-79.4396362052377,43.6924951009691],[-79.4397178865991,43.6924773395136],[-79.4401899947368,43.6923746847118],[-79.440095493619,43.692323156822],[-79.4400063902573,43.6922702814924],[-79.439885536235,43.6921985766932],[-79.4398499033084,43.692203886715],[-79.4395087598,43.6922548250468],[-79.4395506455267,43.6922983864679],[-79.4395563387714,43.6923114683598],[-79.4395790869557,43.6923638049127],[-79.4396076027694,43.6924293314045],[-79.4396362052377,43.6924951009691]]]},"properties":{"_id":1183,"ADDRESS_POINT_ID":75512,"ADDRESS_NUMBER":"611","LINEAR_NAME_FULL":"Vaughan Rd","ADDRESS_FULL":"611 Vaughan Rd","POSTAL_CODE":"M6C2R4","MUNICIPALITY":"YORK","CITY":"Toronto","PLACE_NAME":null,"GENERAL_USE_CODE":112001,"CENTRELINE_ID":14068268,"LO_NUM":611,"LO_NUM_SUF":null,"HI_NUM":null,"HI_NUM_SUF":null,"LINEAR_NAME_ID":930,"X":null,"Y":null,"LONGITUDE":null,"LATITUDE":null,"OBJECTID":1176,"FTH_PRIORITY":null,"FTH_ORGANIZATION":"Bethel Worship Centre","FTH_FAITH":"Jewish","FTH_DENOMINATION":null,"FTH_GROUPING":null,"FTH_PHONE":"4166547181","FTH_EXTENSION":null,"FTH_FAX":null,"FTH_CELL":null,"FTH_HOME":null,"FTH_SALUTATION":null,"FTH_FIRST_NAME":null,"FTH_LAST_NAME":null,"FTH_POSITION":null,"FTH_EMAIL":null,"FTH_CONTACT":null,"FTH_WEBSITE":null,"FTH_FORUM":null,"WARD_NAME":"Toronto-St. Paul's (12)","WARD_NUMBER":"12","COMM_COUNCIL_NAME":"NORTH YORK COMMUNITY COUNCIL","COMM_COUNCIL_CODE":"NO","NEIGHBOURHOOD_NAME":"Oakwood-Vaughan (107)"}},{"type":"Feature","geometry":{"type":"Polygon","coordinates":[[[-79.4402832066079,43.6924254737435],[-79.4401899947368,43.6923746847118],[-79.4397178865991,43.6924773395136],[-79.4397732537656,43.692536642223],[-79.4402832066079,43.6924254737435]]]},"properties":{"_id":1184,"ADDRESS_POINT_ID":75513,"ADDRESS_NUMBER":"615","LINEAR_NAME_FULL":"Vaughan Rd","ADDRESS_FULL":"615 Vaughan Rd","POSTAL_CODE":"M6C2R4","MUNICIPALITY":"YORK","CITY":"Toronto","PLACE_NAME":"The House Of God","GENERAL_USE_CODE":109001,"CENTRELINE_ID":7968,"LO_NUM":615,"LO_NUM_SUF":null,"HI_NUM":null,"HI_NUM_SUF":null,"LINEAR_NAME_ID":930,"X":null,"Y":null,"LONGITUDE":null,"LATITUDE":null,"OBJECTID":1177,"FTH_PRIORITY":null,"FTH_ORGANIZATION":"The House Of God","FTH_FAITH":"Christian","FTH_DENOMINATION":null,"FTH_GROUPING":null,"FTH_PHONE":"4166526544","FTH_EXTENSION":null,"FTH_FAX":null,"FTH_CELL":null,"FTH_HOME":null,"FTH_SALUTATION":null,"FTH_FIRST_NAME":null,"FTH_LAST_NAME":null,"FTH_POSITION":null,"FTH_EMAIL":null,"FTH_CONTACT":null,"FTH_WEBSITE":null,"FTH_FORUM":null,"WARD_NAME":"Toronto-St. Paul's (12)","WARD_NUMBER":"12","COMM_COUNCIL_NAME":"NORTH YORK COMMUNITY COUNCIL","COMM_COUNCIL_CODE":"NO","NEIGHBOURHOOD_NAME":"Oakwood-Vaughan (107)"}},{"type":"Feature","geometry":{"type":"Polygon","coordinates":[[[-79.4252177946956,43.6952371024229],[-79.4245896504499,43.6951595576988],[-79.4245609847106,43.6951563703298],[-79.4245321940815,43.6951538489668],[-79.4245033033504,43.6951520116284],[-79.4244743497451,43.6951508493379],[-79.4244453456477,43.6951503801061],[-79.4244163531199,43.69515057697],[-79.4243873721268,43.6951514669335],[-79.4243584523131,43.695153032027],[-79.424329618478,43.6951552812681],[-79.4243008954433,43.6951582056721],[-79.4242723204368,43.6951617962623],[-79.4242439182576,43.6951660620568],[-79.4242157261336,43.6951709940788],[-79.4241877564809,43.6951765833357],[-79.42351799599568,43.69531913521262],[-79.42351799599568,43.69555368541205],[-79.4235430048602,43.6956149937793],[-79.4236980306167,43.6959949337647],[-79.4242426608854,43.6958790713733],[-79.4242708790344,43.6958734372619],[-79.4242993444696,43.6958684604014],[-79.4243279951398,43.695864158753],[-79.4243568434631,43.6958605233237],[-79.4243858273769,43.6958575810761],[-79.424414934499,43.6958553139993],[-79.4244441151953,43.6958537310616],[-79.424473369467,43.6958528322631],[-79.4245026352741,43.6958526265639],[-79.4245319002119,43.695853113956],[-79.4245611146802,43.6958542764039],[-79.4245902786574,43.6958561319103],[-79.4246193425323,43.6958586714413],[-79.4246482690881,43.6958618949723],[-79.4251034962473,43.6959180741543],[-79.4251606395876,43.6955775928098],[-79.4252177946956,43.6952371024229]]]},"properties":{"_id":1185,"ADDRESS_POINT_ID":8855298,"ADDRESS_NUMBER":"1700","LINEAR_NAME_FULL":"Bathurst St","ADDRESS_FULL":"1700 Bathurst St","POSTAL_CODE":"M5P3K3","MUNICIPALITY":"YORK","CITY":"Toronto","PLACE_NAME":"Beth Tzedec Synagogue","GENERAL_USE_CODE":109001,"CENTRELINE_ID":8855299,"LO_NUM":1700,"LO_NUM_SUF":null,"HI_NUM":null,"HI_NUM_SUF":null,"LINEAR_NAME_ID":436,"X":null,"Y":null,"LONGITUDE":null,"LATITUDE":null,"OBJECTID":1178,"FTH_PRIORITY":null,"FTH_ORGANIZATION":"Beth Tzedec Synagogue","FTH_FAITH":"Jewish","FTH_DENOMINATION":null,"FTH_GROUPING":null,"FTH_PHONE":"4167813511","FTH_EXTENSION":null,"FTH_FAX":null,"FTH_CELL":null,"FTH_HOME":null,"FTH_SALUTATION":null,"FTH_FIRST_NAME":null,"FTH_LAST_NAME":null,"FTH_POSITION":null,"FTH_EMAIL":null,"FTH_CONTACT":null,"FTH_WEBSITE":null,"FTH_FORUM":null,"WARD_NAME":"Toronto-St. Paul's (12)","WARD_NUMBER":"12","COMM_COUNCIL_NAME":"TORONTO AND EAST YORK COMMUNITY COUNCIL","COMM_COUNCIL_CODE":"SO","NEIGHBOURHOOD_NAME":"Humewood-Cedarvale (106)"}},{"type":"Feature","geometry":{"type":"Polygon","coordinates":[[[-79.425646881037,43.6977713259278],[-79.4254945780088,43.6978039554342],[-79.4253495220338,43.697835032248],[-79.4252044659204,43.6978660998762],[-79.4250594096463,43.6978971763213],[-79.4249143532225,43.6979282525821],[-79.4245154441984,43.698013700095],[-79.4245687506334,43.6981452980737],[-79.4246220449061,43.6982768870152],[-79.4246753394002,43.6984084849302],[-79.4247286465449,43.6985400738245],[-79.4247819538998,43.6986716806936],[-79.4248483224705,43.6988355567258],[-79.4252142870848,43.6986683998574],[-79.4253473725337,43.6986076021619],[-79.4254804577138,43.6985468043107],[-79.4255826206788,43.6985001271953],[-79.4256160401034,43.6984929839247],[-79.4257610975277,43.6984619067773],[-79.4259134144842,43.6984292769287],[-79.4257801284902,43.6981002474952],[-79.425646881037,43.6977713259278]]]},"properties":{"_id":1186,"ADDRESS_POINT_ID":8855434,"ADDRESS_NUMBER":"1950","LINEAR_NAME_FULL":"Bathurst St","ADDRESS_FULL":"1950 Bathurst St","POSTAL_CODE":"M5P3K9","MUNICIPALITY":"YORK","CITY":"Toronto","PLACE_NAME":"Holy Blossom Temple","GENERAL_USE_CODE":109001,"CENTRELINE_ID":8855433,"LO_NUM":1950,"LO_NUM_SUF":null,"HI_NUM":null,"HI_NUM_SUF":null,"LINEAR_NAME_ID":436,"X":null,"Y":null,"LONGITUDE":null,"LATITUDE":null,"OBJECTID":1179,"FTH_PRIORITY":"5","FTH_ORGANIZATION":"Holy Blossom Temple","FTH_FAITH":"Jewish","FTH_DENOMINATION":"Reformed","FTH_GROUPING":null,"FTH_PHONE":"(416) 789-3291","FTH_EXTENSION":null,"FTH_FAX":null,"FTH_CELL":null,"FTH_HOME":null,"FTH_SALUTATION":"Mr.","FTH_FIRST_NAME":"Jeff","FTH_LAST_NAME":"Baker","FTH_POSITION":"Chair, Social Action Committee","FTH_EMAIL":"JeffBaker1969@hotmail.com","FTH_CONTACT":"Local","FTH_WEBSITE":null,"FTH_FORUM":null,"WARD_NAME":"Toronto-St. Paul's (12)","WARD_NUMBER":"12","COMM_COUNCIL_NAME":"TORONTO AND EAST YORK COMMUNITY COUNCIL","COMM_COUNCIL_CODE":"SO","NEIGHBOURHOOD_NAME":"Humewood-Cedarvale (106)"}},{"type":"Feature","geometry":{"type":"Polygon","coordinates":[[[-79.4283112290393,43.6999735629228],[-79.4283020705062,43.6999755284595],[-79.4282334435492,43.6999902474967],[-79.4281660203261,43.7000047062119],[-79.4279847977616,43.7000435677356],[-79.4279399729703,43.70005317986],[-79.4278763842918,43.7000668127035],[-79.4278830022793,43.7000831992131],[-79.4278965415561,43.70008030034],[-79.427912462131,43.7001194929636],[-79.4279232367052,43.700145990532],[-79.4279494093493,43.7001403902321],[-79.427953579097,43.7001395017334],[-79.4279626589198,43.7001618576399],[-79.427977045663,43.7001972507462],[-79.4279733598953,43.7001980405366],[-79.4279813882588,43.7002178034096],[-79.4279500157314,43.7002245706059],[-79.4279495827329,43.7002235351855],[-79.4279404862162,43.7002254737283],[-79.4279880990202,43.7003433035124],[-79.4280967363004,43.7003200315766],[-79.4282779471546,43.7002812238777],[-79.4283310495092,43.7002698525601],[-79.4283143491809,43.7002288232453],[-79.4283404101313,43.7002232497897],[-79.4283361670338,43.7002128056423],[-79.4283292518852,43.7001957978846],[-79.4283449629025,43.7001924412548],[-79.4283476930949,43.7001918578829],[-79.4283595942586,43.7001893089783],[-79.4283601899349,43.7001891833336],[-79.4283648037707,43.7002008608882],[-79.4283663872116,43.7002047504345],[-79.4283512718689,43.7002079814226],[-79.4283622940703,43.7002350821903],[-79.4283709810538,43.7002332243688],[-79.4283700285051,43.7002308924398],[-79.4283764568704,43.7002295192718],[-79.4283973924979,43.7002250407481],[-79.4284077095807,43.7002504218248],[-79.428381772725,43.7002559683695],[-79.4283814139561,43.7002551040216],[-79.4283675023624,43.7002580837302],[-79.4283644468177,43.700250574746],[-79.4283507586112,43.7002535005849],[-79.4283553234552,43.7002646470334],[-79.4283636505491,43.7002628699984],[-79.4283684035802,43.7002618468309],[-79.4284119502146,43.7002525217794],[-79.4284230571482,43.7002501433951],[-79.4283112290393,43.6999735629228]]]},"properties":{"_id":1188,"ADDRESS_POINT_ID":14174182,"ADDRESS_NUMBER":"935","LINEAR_NAME_FULL":"Eglinton Ave W","ADDRESS_FULL":"935 Eglinton Ave W","POSTAL_CODE":"M6C2C3","MUNICIPALITY":"YORK","CITY":"Toronto","PLACE_NAME":null,"GENERAL_USE_CODE":108006,"CENTRELINE_ID":11130066,"LO_NUM":935,"LO_NUM_SUF":null,"HI_NUM":null,"HI_NUM_SUF":null,"LINEAR_NAME_ID":571,"X":null,"Y":null,"LONGITUDE":null,"LATITUDE":null,"OBJECTID":1181,"FTH_PRIORITY":"5","FTH_ORGANIZATION":"Masjid Al-Farooq","FTH_FAITH":"Muslim","FTH_DENOMINATION":null,"FTH_GROUPING":null,"FTH_PHONE":"(905) 858-7586","FTH_EXTENSION":null,"FTH_FAX":null,"FTH_CELL":null,"FTH_HOME":null,"FTH_SALUTATION":null,"FTH_FIRST_NAME":null,"FTH_LAST_NAME":null,"FTH_POSITION":null,"FTH_EMAIL":null,"FTH_CONTACT":null,"FTH_WEBSITE":null,"FTH_FORUM":null,"WARD_NAME":"Toronto-St. Paul's (12)","WARD_NUMBER":"12","COMM_COUNCIL_NAME":"TORONTO AND EAST YORK COMMUNITY COUNCIL","COMM_COUNCIL_CODE":"SO","NEIGHBOURHOOD_NAME":"Humewood-Cedarvale (106)"}},{"type":"Feature","geometry":{"type":"Polygon","coordinates":[[[-79.4314694770708,43.6998473307557],[-79.4313244192858,43.6998783791342],[-79.431179348924,43.6999094453235],[-79.4312818629277,43.7001618939582],[-79.431427057934,43.7001308097125],[-79.4315722651871,43.7000997342908],[-79.4314694770708,43.6998473307557]]]},"properties":{"_id":1189,"ADDRESS_POINT_ID":8608458,"ADDRESS_NUMBER":"1072","LINEAR_NAME_FULL":"Eglinton Ave W","ADDRESS_FULL":"1072 Eglinton Ave W","POSTAL_CODE":"M6C2E2","MUNICIPALITY":"former TORONTO","CITY":"Toronto","PLACE_NAME":null,"GENERAL_USE_CODE":115001,"CENTRELINE_ID":8608450,"LO_NUM":1072,"LO_NUM_SUF":null,"HI_NUM":null,"HI_NUM_SUF":null,"LINEAR_NAME_ID":571,"X":null,"Y":null,"LONGITUDE":null,"LATITUDE":null,"OBJECTID":1182,"FTH_PRIORITY":null,"FTH_ORGANIZATION":"The Village Shul","FTH_FAITH":"Jewish","FTH_DENOMINATION":null,"FTH_GROUPING":null,"FTH_PHONE":"4167851107","FTH_EXTENSION":null,"FTH_FAX":null,"FTH_CELL":null,"FTH_HOME":null,"FTH_SALUTATION":null,"FTH_FIRST_NAME":null,"FTH_LAST_NAME":null,"FTH_POSITION":null,"FTH_EMAIL":null,"FTH_CONTACT":null,"FTH_WEBSITE":null,"FTH_FORUM":null,"WARD_NAME":"Eglinton-Lawrence (8)","WARD_NUMBER":"8","COMM_COUNCIL_NAME":"TORONTO AND EAST YORK COMMUNITY COUNCIL","COMM_COUNCIL_CODE":"SO","NEIGHBOURHOOD_NAME":"Forest Hill North (102)"}},{"type":"Feature","geometry":{"type":"Polygon","coordinates":[[[-79.4380961107855,43.6978242653196],[-79.437933068152,43.6978591649053],[-79.4377736487683,43.6978933011214],[-79.4376142292133,43.6979274281135],[-79.4374548094683,43.6979615638843],[-79.4372953895427,43.6979956994324],[-79.437132345972,43.6980306068757],[-79.4372658429123,43.6983594971776],[-79.4374287880646,43.6983245714896],[-79.4375881343571,43.6982904267159],[-79.4377474680626,43.698256281713],[-79.4379067891719,43.6982221454823],[-79.4380661225256,43.6981879910334],[-79.4380767773766,43.6982142805595],[-79.4382397092597,43.6981793537073],[-79.4382290791657,43.6981530552084],[-79.4380961107855,43.6978242653196]]]},"properties":{"_id":1190,"ADDRESS_POINT_ID":8608492,"ADDRESS_NUMBER":"1445","LINEAR_NAME_FULL":"Eglinton Ave W","ADDRESS_FULL":"1445 Eglinton Ave W","POSTAL_CODE":"M6C2E6","MUNICIPALITY":"YORK","CITY":"Toronto","PLACE_NAME":"Beth Sholom Synagogue","GENERAL_USE_CODE":109001,"CENTRELINE_ID":8608491,"LO_NUM":1445,"LO_NUM_SUF":null,"HI_NUM":null,"HI_NUM_SUF":null,"LINEAR_NAME_ID":571,"X":null,"Y":null,"LONGITUDE":null,"LATITUDE":null,"OBJECTID":1183,"FTH_PRIORITY":null,"FTH_ORGANIZATION":"Beth Sholom Synagogue","FTH_FAITH":"Jewish","FTH_DENOMINATION":null,"FTH_GROUPING":null,"FTH_PHONE":"4167836103","FTH_EXTENSION":null,"FTH_FAX":null,"FTH_CELL":null,"FTH_HOME":null,"FTH_SALUTATION":null,"FTH_FIRST_NAME":null,"FTH_LAST_NAME":null,"FTH_POSITION":null,"FTH_EMAIL":null,"FTH_CONTACT":null,"FTH_WEBSITE":null,"FTH_FORUM":null,"WARD_NAME":"Toronto-St. Paul's (12)","WARD_NUMBER":"12","COMM_COUNCIL_NAME":"TORONTO AND EAST YORK COMMUNITY COUNCIL","COMM_COUNCIL_CODE":"SO","NEIGHBOURHOOD_NAME":"Oakwood-Vaughan (107)"}}]}