{"type":"FeatureCollection","features":[{"type":"Feature","geometry":{"type":"Polygon","coordinates":[[[-79.4893606572489,43.6876085630805],[-79.4889277790227,43.6874516922758],[-79.4890188791781,43.687430629014],[-79.4890554234218,43.6874221802955],[-79.4890390691096,43.6873848593272],[-79.4890337251335,43.6873726710506],[-79.4890720343246,43.6873444286311],[-79.4891013617169,43.6873225672663],[-79.4891664675233,43.6872736783776],[-79.4895259048486,43.6871885685522],[-79.4895970330269,43.6871717336094],[-79.4895867505187,43.6871687802457],[-79.4895762570651,43.6871662679257],[-79.4895655774709,43.6871642146542],[-79.4895547613541,43.6871626114344],[-79.4895438211168,43.6871614672687],[-79.4895302511404,43.6871607009159],[-79.489516631424,43.6871606456598],[-79.4895030612,43.6871613015096],[-79.4894895776805,43.6871626684687],[-79.489476267697,43.6871647285425],[-79.4894631932695,43.6871674817368],[-79.4892371805836,43.6872209284204],[-79.4890115271443,43.6872747707485],[-79.4880929424162,43.6874412928703],[-79.487805936367,43.6874933171473],[-79.4880158937652,43.6875974934237],[-79.4881074526795,43.6876429415607],[-79.4884461797123,43.6878109856063],[-79.4884943523027,43.6877750752695],[-79.4885039917756,43.6877678932003],[-79.4885425372416,43.6877391559122],[-79.4885618037578,43.6877247917634],[-79.488590709717,43.6877032455345],[-79.4886196156555,43.6876816992982],[-79.4886388945392,43.6876673351374],[-79.4886774274738,43.6876385888009],[-79.488687066903,43.6876314067159],[-79.4887352640144,43.687595496279],[-79.4892299930782,43.6878063544621],[-79.489262649897,43.6877569133815],[-79.489295319068,43.6877074632909],[-79.4893279881853,43.6876580131906],[-79.4893606572489,43.6876085630805]]]},"properties":{"_id":162,"OBJECTID":162,"FLOC_ID":"007991-B01","Building Description":"EGLINTON LRT - MOUNT DENNIS STATION - BIKE PARKING FACILITY","Address":"3520 EGLINTON AVE W","City":"YORK","Ward Name":"York South-Weston","Former Municipality":"None","District":"West","City Cluster":"None","Building Type":"Subway/LRT Station","Building Status":"City Use","Jurisdiction":"Metrolinx","Management":"Transportation Services","Owner":"THIRD PARTY","Gross Floor Area (M2)":180,"Gross Floor Area (FT2)":1938,"Year Built":2024,"WARD":5}},{"type":"Feature","geometry":{"type":"MultiPoint","coordinates":[[-79.4360767705504,43.6992497495398]]},"properties":{"_id":2652,"OBJECTID":2652,"FLOC_ID":"005072-B01","Building Description":"PARK HILL SUBSTATION","Address":"1300 EGLINTON AVE W","City":"TORONTO","Ward Name":"Eglinton-Lawrence","Former Municipality":"Metro Toronto","District":"North","City Cluster":"Agencies, Boards, and Commissions","Building Type":"Subway/LRT Station","Building Status":"City Use","Jurisdiction":"Toronto Transit Commission","Management":"Toronto Transit Commission","Owner":"City of Toronto","Gross Floor Area (M2)":null,"Gross Floor Area (FT2)":null,"Year Built":null,"WARD":8}},{"type":"Feature","geometry":{"type":"Polygon","coordinates":[[[-79.4368246582452,43.6989853925607],[-79.4368696793965,43.6989757140497],[-79.4369601435913,43.6989562491919],[-79.4370506077277,43.6989367842623],[-79.4371410718057,43.6989173192611],[-79.4372315358251,43.6988978541882],[-79.4373292344151,43.698876835788],[-79.4372402343193,43.6986585148083],[-79.43714254845,43.6986795421414],[-79.4370520971366,43.6986990071517],[-79.4369616457648,43.6987184720903],[-79.4369139940296,43.6987287342696],[-79.4369032969279,43.6987313027328],[-79.4368928226513,43.6987343393848],[-79.4368826208541,43.6987378172492],[-79.4368727287554,43.6987417363467],[-79.4368622153859,43.6987465552287],[-79.4368521729327,43.6987518784417],[-79.4368426510503,43.6987576790096],[-79.4368336745798,43.6987639299423],[-79.4368252931851,43.6987705952623],[-79.4368175565111,43.6987776569946],[-79.4368104770117,43.6987850701397],[-79.4368040919254,43.6987928167158],[-79.4367984385098,43.6988008607384],[-79.4367931562764,43.6988098681035],[-79.4367887794525,43.6988191280049],[-79.4367853452957,43.6988286044584],[-79.4367828662887,43.6988382254605],[-79.4367813548762,43.6988479550131],[-79.436780823522,43.6988577391154],[-79.4367812722833,43.6988675237597],[-79.4367826888014,43.6988772639328],[-79.4367850731334,43.698886905627],[-79.4367884253461,43.6988963858333],[-79.4368246582452,43.6989853925607]]]},"properties":{"_id":2653,"OBJECTID":2653,"FLOC_ID":"007992-B01","Building Description":"EGLINTON LRT - CEDARVALE STATION - BIKE PARKING FACILITY","Address":"1350 EGLINTON AVE W","City":"TORONTO","Ward Name":"Eglinton-Lawrence","Former Municipality":"None","District":"North","City Cluster":"None","Building Type":"Subway/LRT Station","Building Status":"City Use","Jurisdiction":"Metrolinx","Management":"Transportation Services","Owner":"THIRD PARTY","Gross Floor Area (M2)":120,"Gross Floor Area (FT2)":1292,"Year Built":2024,"WARD":8}}]}