{"type":"FeatureCollection","features":[{"type":"Feature","geometry":{"type":"Polygon","coordinates":[[[-79.4410109744258,43.6918265814045],[-79.4406129811106,43.6919156231712],[-79.4406177827597,43.6919273093472],[-79.4406393902128,43.691979888135],[-79.4406609852984,43.6920324669117],[-79.4406826052231,43.6920850546981],[-79.4410827958515,43.6919954107375],[-79.4410605055486,43.6919430117075],[-79.4410382152845,43.6918906126726],[-79.4410159250679,43.6918382046318],[-79.4410109744258,43.6918265814045]]]},"properties":{"_id":2677,"OBJECTID":2677,"FLOC_ID":"003249-B01","Building Description":"NIA CENTRE FOR THE ARTS","Address":"524 OAKWOOD AVE","City":"YORK","Ward Name":"Toronto-St. Paul's","Former Municipality":"York","District":"South","City Cluster":"Internal Services Group","Building Type":"Office Building - Large","Building Status":"City Use","Jurisdiction":"Facilities Management & Real Estate Services","Management":"Facilities Management & Real Estate Services","Owner":"City of Toronto","Gross Floor Area (M2)":1314,"Gross Floor Area (FT2)":14139,"Year Built":1925,"WARD":12}}]}