{"type":"FeatureCollection","features":[{"type":"Feature","geometry":{"type":"Polygon","coordinates":[[[-79.4650374937749,43.6980080912966],[-79.4663443201649,43.6977149425942],[-79.4659130062877,43.6961757836315],[-79.4655145594833,43.694753874364],[-79.465508629459,43.6947973488106],[-79.4655020667611,43.6948407780591],[-79.4654948962048,43.6948841531157],[-79.4654853879213,43.6949370148263],[-79.4654749368422,43.6949897772365],[-79.4654635305643,43.6950424313413],[-79.4654511814911,43.695094977144],[-79.4654378896253,43.695147405643],[-79.465423642569,43.6951996988317],[-79.4654084527309,43.6952518477123],[-79.4653923325144,43.695303852288],[-79.4653752819224,43.6953557035572],[-79.4653572885572,43.6954073835132],[-79.4653383648223,43.6954588921592],[-79.4653185107258,43.6955102114923],[-79.4652977386714,43.6955613415157],[-79.4652760486622,43.6956122732277],[-79.4652534407065,43.695662988625],[-79.4652299148022,43.6957134877074],[-79.4652054833582,43.6957637614765],[-79.4651801463832,43.6958137919293],[-79.4651539162756,43.6958635880703],[-79.4651267806435,43.6959131228912],[-79.4650987642968,43.6959623963989],[-79.465069854833,43.6960113995877],[-79.4650400770621,43.6960601324646],[-79.4650094061863,43.6961085680174],[-79.4649778794165,43.6961567152581],[-79.4649454719497,43.6962045561757],[-79.4649166412725,43.6962456832202],[-79.4648871903923,43.6962865760332],[-79.4648571441151,43.696327243623],[-79.4648264900392,43.6963676769841],[-79.4647952529811,43.6964078671223],[-79.4647595595689,43.6964524035002],[-79.4647230971244,43.6964966065817],[-79.4646858780525,43.6965404763697],[-79.4650374937749,43.6980080912966]]]},"properties":{"_id":512,"OBJECTID":512,"FLOC_ID":"005495-B03","Building Description":"CASTLEFIELD YARD - TOOL SHED & GARAGE","Address":"1401 CASTLEFIELD AVE","City":"YORK","Ward Name":"Eglinton-Lawrence","Former Municipality":"York","District":"North","City Cluster":"Citizen-Focused Services Group B","Building Type":"Yard Service Building","Building Status":"City Use","Jurisdiction":"Transportation Services","Management":"Transportation Services","Owner":"City of Toronto","Gross Floor Area (M2)":307,"Gross Floor Area (FT2)":3300,"Year Built":2014,"WARD":8}},{"type":"Feature","geometry":{"type":"Polygon","coordinates":[[[-79.4650374937749,43.6980080912966],[-79.4663443201649,43.6977149425942],[-79.4659130062877,43.6961757836315],[-79.4655145594833,43.694753874364],[-79.465508629459,43.6947973488106],[-79.4655020667611,43.6948407780591],[-79.4654948962048,43.6948841531157],[-79.4654853879213,43.6949370148263],[-79.4654749368422,43.6949897772365],[-79.4654635305643,43.6950424313413],[-79.4654511814911,43.695094977144],[-79.4654378896253,43.695147405643],[-79.465423642569,43.6951996988317],[-79.4654084527309,43.6952518477123],[-79.4653923325144,43.695303852288],[-79.4653752819224,43.6953557035572],[-79.4653572885572,43.6954073835132],[-79.4653383648223,43.6954588921592],[-79.4653185107258,43.6955102114923],[-79.4652977386714,43.6955613415157],[-79.4652760486622,43.6956122732277],[-79.4652534407065,43.695662988625],[-79.4652299148022,43.6957134877074],[-79.4652054833582,43.6957637614765],[-79.4651801463832,43.6958137919293],[-79.4651539162756,43.6958635880703],[-79.4651267806435,43.6959131228912],[-79.4650987642968,43.6959623963989],[-79.465069854833,43.6960113995877],[-79.4650400770621,43.6960601324646],[-79.4650094061863,43.6961085680174],[-79.4649778794165,43.6961567152581],[-79.4649454719497,43.6962045561757],[-79.4649166412725,43.6962456832202],[-79.4648871903923,43.6962865760332],[-79.4648571441151,43.696327243623],[-79.4648264900392,43.6963676769841],[-79.4647952529811,43.6964078671223],[-79.4647595595689,43.6964524035002],[-79.4647230971244,43.6964966065817],[-79.4646858780525,43.6965404763697],[-79.4650374937749,43.6980080912966]]]},"properties":{"_id":557,"OBJECTID":557,"FLOC_ID":"005495-B02","Building Description":"CASTLEFIELD YARD - OFFICE, STORAGE & GARAGE","Address":"1401 CASTLEFIELD AVE","City":"YORK","Ward Name":"Eglinton-Lawrence","Former Municipality":"York","District":"North","City Cluster":"Citizen-Focused Services Group B","Building Type":"Garage & Office & Warehouse","Building Status":"City Use","Jurisdiction":"Transportation Services","Management":"Transportation Services","Owner":"City of Toronto","Gross Floor Area (M2)":3386,"Gross Floor Area (FT2)":36447,"Year Built":1954,"WARD":8}},{"type":"Feature","geometry":{"type":"Polygon","coordinates":[[[-79.4755172782984,43.6831322652167],[-79.4754300325872,43.6829522563097],[-79.475215830678,43.6830069200286],[-79.4752107320428,43.6830090882387],[-79.4752061665253,43.6830117966427],[-79.4752022457733,43.6830150002585],[-79.4751990442472,43.6830186000878],[-79.4751966612067,43.6830225151405],[-79.475195146302,43.6830266554142],[-79.4751945367838,43.6830309219027],[-79.4751948575072,43.6830351975944],[-79.4751960837065,43.6830393834694],[-79.4751981906126,43.6830433895094],[-79.4752011410639,43.6830470986891],[-79.4752048358639,43.6830504389764],[-79.4752092130372,43.6830533113436],[-79.4752141485733,43.6830556617557],[-79.4752195308722,43.683057418178],[-79.4752464310452,43.6830635809021],[-79.4752730953507,43.6830702566435],[-79.475299511386,43.6830774453997],[-79.4753256419382,43.6830851561641],[-79.4753514870189,43.683093361933],[-79.4753743805373,43.6831005589135],[-79.4753975719607,43.683107215875],[-79.4754210488853,43.6831133328146],[-79.4754447741008,43.6831189097241],[-79.4754687476175,43.6831239195995],[-79.4754929198144,43.6831283804326],[-79.4755172782984,43.6831322652167]]]},"properties":{"_id":577,"OBJECTID":577,"FLOC_ID":"003194-B01","Building Description":"VACANT SERVICE GARAGE","Address":"14 NASHVILLE AVE","City":"YORK","Ward Name":"York South-Weston","Former Municipality":"None","District":"West","City Cluster":"Internal Services Group","Building Type":"Yard Garage","Building Status":"City Use","Jurisdiction":"Facilities Management & Real Estate Services","Management":"Facilities Management & Real Estate Services","Owner":"City of Toronto","Gross Floor Area (M2)":50,"Gross Floor Area (FT2)":540,"Year Built":1972,"WARD":5}},{"type":"Feature","geometry":{"type":"Polygon","coordinates":[[[-79.4650374937749,43.6980080912966],[-79.4663443201649,43.6977149425942],[-79.4659130062877,43.6961757836315],[-79.4655145594833,43.694753874364],[-79.465508629459,43.6947973488106],[-79.4655020667611,43.6948407780591],[-79.4654948962048,43.6948841531157],[-79.4654853879213,43.6949370148263],[-79.4654749368422,43.6949897772365],[-79.4654635305643,43.6950424313413],[-79.4654511814911,43.695094977144],[-79.4654378896253,43.695147405643],[-79.465423642569,43.6951996988317],[-79.4654084527309,43.6952518477123],[-79.4653923325144,43.695303852288],[-79.4653752819224,43.6953557035572],[-79.4653572885572,43.6954073835132],[-79.4653383648223,43.6954588921592],[-79.4653185107258,43.6955102114923],[-79.4652977386714,43.6955613415157],[-79.4652760486622,43.6956122732277],[-79.4652534407065,43.695662988625],[-79.4652299148022,43.6957134877074],[-79.4652054833582,43.6957637614765],[-79.4651801463832,43.6958137919293],[-79.4651539162756,43.6958635880703],[-79.4651267806435,43.6959131228912],[-79.4650987642968,43.6959623963989],[-79.465069854833,43.6960113995877],[-79.4650400770621,43.6960601324646],[-79.4650094061863,43.6961085680174],[-79.4649778794165,43.6961567152581],[-79.4649454719497,43.6962045561757],[-79.4649166412725,43.6962456832202],[-79.4648871903923,43.6962865760332],[-79.4648571441151,43.696327243623],[-79.4648264900392,43.6963676769841],[-79.4647952529811,43.6964078671223],[-79.4647595595689,43.6964524035002],[-79.4647230971244,43.6964966065817],[-79.4646858780525,43.6965404763697],[-79.4650374937749,43.6980080912966]]]},"properties":{"_id":624,"OBJECTID":624,"FLOC_ID":"005495-B09","Building Description":"CASTLEFIELD YARD - WORKSHOP","Address":"1401 CASTLEFIELD AVE","City":"YORK","Ward Name":"Eglinton-Lawrence","Former Municipality":"York","District":"North","City Cluster":"Citizen-Focused Services Group B","Building Type":"Yard Workshop","Building Status":"City Use","Jurisdiction":"Transportation Services","Management":"Transportation Services","Owner":"City of Toronto","Gross Floor Area (M2)":49,"Gross Floor Area (FT2)":530,"Year Built":1995,"WARD":8}},{"type":"Feature","geometry":{"type":"Polygon","coordinates":[[[-79.4650374937749,43.6980080912966],[-79.4663443201649,43.6977149425942],[-79.4659130062877,43.6961757836315],[-79.4655145594833,43.694753874364],[-79.465508629459,43.6947973488106],[-79.4655020667611,43.6948407780591],[-79.4654948962048,43.6948841531157],[-79.4654853879213,43.6949370148263],[-79.4654749368422,43.6949897772365],[-79.4654635305643,43.6950424313413],[-79.4654511814911,43.695094977144],[-79.4654378896253,43.695147405643],[-79.465423642569,43.6951996988317],[-79.4654084527309,43.6952518477123],[-79.4653923325144,43.695303852288],[-79.4653752819224,43.6953557035572],[-79.4653572885572,43.6954073835132],[-79.4653383648223,43.6954588921592],[-79.4653185107258,43.6955102114923],[-79.4652977386714,43.6955613415157],[-79.4652760486622,43.6956122732277],[-79.4652534407065,43.695662988625],[-79.4652299148022,43.6957134877074],[-79.4652054833582,43.6957637614765],[-79.4651801463832,43.6958137919293],[-79.4651539162756,43.6958635880703],[-79.4651267806435,43.6959131228912],[-79.4650987642968,43.6959623963989],[-79.465069854833,43.6960113995877],[-79.4650400770621,43.6960601324646],[-79.4650094061863,43.6961085680174],[-79.4649778794165,43.6961567152581],[-79.4649454719497,43.6962045561757],[-79.4649166412725,43.6962456832202],[-79.4648871903923,43.6962865760332],[-79.4648571441151,43.696327243623],[-79.4648264900392,43.6963676769841],[-79.4647952529811,43.6964078671223],[-79.4647595595689,43.6964524035002],[-79.4647230971244,43.6964966065817],[-79.4646858780525,43.6965404763697],[-79.4650374937749,43.6980080912966]]]},"properties":{"_id":625,"OBJECTID":625,"FLOC_ID":"005495-B10","Building Description":"CASTLEFIELD YARD - SALT STORAGE TENT","Address":"1401 CASTLEFIELD AVE","City":"TORONTO","Ward Name":"Eglinton-Lawrence","Former Municipality":"None","District":"North","City Cluster":"None","Building Type":"Portable Office/Storage","Building Status":"City Use","Jurisdiction":"Transportation Services","Management":"Transportation Services","Owner":"City of Toronto","Gross Floor Area (M2)":901,"Gross Floor Area (FT2)":9700,"Year Built":2024,"WARD":8}},{"type":"Feature","geometry":{"type":"Polygon","coordinates":[[[-79.4650374937749,43.6980080912966],[-79.4663443201649,43.6977149425942],[-79.4659130062877,43.6961757836315],[-79.4655145594833,43.694753874364],[-79.465508629459,43.6947973488106],[-79.4655020667611,43.6948407780591],[-79.4654948962048,43.6948841531157],[-79.4654853879213,43.6949370148263],[-79.4654749368422,43.6949897772365],[-79.4654635305643,43.6950424313413],[-79.4654511814911,43.695094977144],[-79.4654378896253,43.695147405643],[-79.465423642569,43.6951996988317],[-79.4654084527309,43.6952518477123],[-79.4653923325144,43.695303852288],[-79.4653752819224,43.6953557035572],[-79.4653572885572,43.6954073835132],[-79.4653383648223,43.6954588921592],[-79.4653185107258,43.6955102114923],[-79.4652977386714,43.6955613415157],[-79.4652760486622,43.6956122732277],[-79.4652534407065,43.695662988625],[-79.4652299148022,43.6957134877074],[-79.4652054833582,43.6957637614765],[-79.4651801463832,43.6958137919293],[-79.4651539162756,43.6958635880703],[-79.4651267806435,43.6959131228912],[-79.4650987642968,43.6959623963989],[-79.465069854833,43.6960113995877],[-79.4650400770621,43.6960601324646],[-79.4650094061863,43.6961085680174],[-79.4649778794165,43.6961567152581],[-79.4649454719497,43.6962045561757],[-79.4649166412725,43.6962456832202],[-79.4648871903923,43.6962865760332],[-79.4648571441151,43.696327243623],[-79.4648264900392,43.6963676769841],[-79.4647952529811,43.6964078671223],[-79.4647595595689,43.6964524035002],[-79.4647230971244,43.6964966065817],[-79.4646858780525,43.6965404763697],[-79.4650374937749,43.6980080912966]]]},"properties":{"_id":626,"OBJECTID":626,"FLOC_ID":"005495-B05","Building Description":"CASTLEFIELD YARD - STORAGE BUILDING # 1","Address":"1401 CASTLEFIELD AVE","City":"YORK","Ward Name":"Eglinton-Lawrence","Former Municipality":"York","District":"North","City Cluster":"Citizen-Focused Services Group B","Building Type":"Yard Storage Building","Building Status":"City Use","Jurisdiction":"Transportation Services","Management":"Transportation Services","Owner":"City of Toronto","Gross Floor Area (M2)":98,"Gross Floor Area (FT2)":1060,"Year Built":1995,"WARD":8}},{"type":"Feature","geometry":{"type":"Polygon","coordinates":[[[-79.4650374937749,43.6980080912966],[-79.4663443201649,43.6977149425942],[-79.4659130062877,43.6961757836315],[-79.4655145594833,43.694753874364],[-79.465508629459,43.6947973488106],[-79.4655020667611,43.6948407780591],[-79.4654948962048,43.6948841531157],[-79.4654853879213,43.6949370148263],[-79.4654749368422,43.6949897772365],[-79.4654635305643,43.6950424313413],[-79.4654511814911,43.695094977144],[-79.4654378896253,43.695147405643],[-79.465423642569,43.6951996988317],[-79.4654084527309,43.6952518477123],[-79.4653923325144,43.695303852288],[-79.4653752819224,43.6953557035572],[-79.4653572885572,43.6954073835132],[-79.4653383648223,43.6954588921592],[-79.4653185107258,43.6955102114923],[-79.4652977386714,43.6955613415157],[-79.4652760486622,43.6956122732277],[-79.4652534407065,43.695662988625],[-79.4652299148022,43.6957134877074],[-79.4652054833582,43.6957637614765],[-79.4651801463832,43.6958137919293],[-79.4651539162756,43.6958635880703],[-79.4651267806435,43.6959131228912],[-79.4650987642968,43.6959623963989],[-79.465069854833,43.6960113995877],[-79.4650400770621,43.6960601324646],[-79.4650094061863,43.6961085680174],[-79.4649778794165,43.6961567152581],[-79.4649454719497,43.6962045561757],[-79.4649166412725,43.6962456832202],[-79.4648871903923,43.6962865760332],[-79.4648571441151,43.696327243623],[-79.4648264900392,43.6963676769841],[-79.4647952529811,43.6964078671223],[-79.4647595595689,43.6964524035002],[-79.4647230971244,43.6964966065817],[-79.4646858780525,43.6965404763697],[-79.4650374937749,43.6980080912966]]]},"properties":{"_id":627,"OBJECTID":627,"FLOC_ID":"005495-B06","Building Description":"CASTLEFIELD YARD - STORAGE BUILDING # 2","Address":"1401 CASTLEFIELD AVE","City":"YORK","Ward Name":"Eglinton-Lawrence","Former Municipality":"York","District":"North","City Cluster":"Citizen-Focused Services Group B","Building Type":"Yard Storage Building","Building Status":"City Use","Jurisdiction":"Transportation Services","Management":"Transportation Services","Owner":"City of Toronto","Gross Floor Area (M2)":146,"Gross Floor Area (FT2)":1570,"Year Built":1995,"WARD":8}},{"type":"Feature","geometry":{"type":"Polygon","coordinates":[[[-79.4747166880274,43.6853943986111],[-79.4746881496188,43.6853291238257],[-79.474659611272,43.6852638490325],[-79.4746310605834,43.6851985742286],[-79.4746025223604,43.6851332994197],[-79.4745739966067,43.6850680156044],[-79.4744857977743,43.6850882848968],[-79.4743975988825,43.6851085541212],[-79.4743058521267,43.6851296325975],[-79.4743090245089,43.685136582319],[-79.4743209705597,43.6851626527863],[-79.4741240049699,43.6852079659515],[-79.4739270390876,43.6852532697756],[-79.4737300853127,43.6852985732626],[-79.47353310643,43.6853438854055],[-79.4731391725912,43.6854344906748],[-79.473206827174,43.6855917233584],[-79.4732654738362,43.6857279898509],[-79.4736619027996,43.6856368626502],[-79.4738600982219,43.6855913075307],[-79.4740583057481,43.6855457520699],[-79.474256525386,43.6855001782652],[-79.4744547199087,43.6854546221134],[-79.4745443458622,43.6854340201157],[-79.474630523175,43.6854142093973],[-79.4747166880274,43.6853943986111]]]},"properties":{"_id":1463,"OBJECTID":1463,"FLOC_ID":"005876-B01","Building Description":"FIRE WAREHOUSE &  MECHANICAL BUILDING","Address":"15 ROTHERHAM AVE","City":"TORONTO","Ward Name":"York South-Weston","Former Municipality":"York","District":"West","City Cluster":"Citizen-Focused Services Group B","Building Type":"Workshop & Office & Garage","Building Status":"City Use","Jurisdiction":"Fire Services","Management":"Fire Services","Owner":"City of Toronto","Gross Floor Area (M2)":2060,"Gross Floor Area (FT2)":22174,"Year Built":1973,"WARD":5}},{"type":"Feature","geometry":{"type":"Polygon","coordinates":[[[-79.4700618311948,43.7008043982412],[-79.4697002778406,43.7008840183235],[-79.46941151095,43.7009476074774],[-79.4693391454174,43.7009635383599],[-79.4693387359416,43.7009636282629],[-79.4689771682771,43.7010432280493],[-79.4689629730692,43.701046365643],[-79.4688873986882,43.7011489867058],[-79.4693014622068,43.7021370791737],[-79.469411628627,43.702399991067],[-79.469500258155,43.7026114907951],[-79.4695106435618,43.7026350049055],[-79.4695219472321,43.7026582942278],[-79.4695341691803,43.7026813317579],[-79.4695472970048,43.7027041084908],[-79.4695613183081,43.7027266064204],[-79.4695762331047,43.7027487985426],[-79.4695920289971,43.702770666851],[-79.4696086687685,43.7027922023343],[-79.4696261648406,43.7028133779915],[-79.4696444924037,43.7028341848143],[-79.4696636266573,43.702854595792],[-79.4696835800138,43.7028746019261],[-79.4697043028532,43.7028941852006],[-79.4697257951848,43.7029133276123],[-79.4697480446106,43.7029320111552],[-79.4697710263206,43.7029502268209],[-79.4697782073919,43.7029558005109],[-79.4698010526118,43.702974070142],[-79.4698232896851,43.7029927356642],[-79.4698449062133,43.703011779072],[-79.4698659022052,43.7030311823632],[-79.4698862528413,43.7030509545328],[-79.4700177484497,43.703022031988],[-79.4701849811016,43.7029852425005],[-79.4705461617276,43.7029058008442],[-79.470678574943,43.7028766797468],[-79.4707043510292,43.7028134073693],[-79.4708852694411,43.702773595933],[-79.4709181976772,43.7028523474985],[-79.4716900521948,43.7026829751841],[-79.4715239460316,43.7022833041455],[-79.4706660273526,43.702248198243],[-79.4705489656786,43.7019682463527],[-79.4702003394556,43.7011356095749],[-79.4700877432939,43.7008663518442],[-79.4700618311948,43.7008043982412]]]},"properties":{"_id":1772,"OBJECTID":1772,"FLOC_ID":"005178-B02","Building Description":"INGRAM YARD - OFFICE & STORAGE BUILDING","Address":"86 INGRAM DR","City":"NORTH YORK","Ward Name":"York South-Weston","Former Municipality":"North York","District":"West","City Cluster":"Citizen-Focused Services Group B","Building Type":"Garage & Office & Warehouse","Building Status":"City Use","Jurisdiction":"Solid Waste Management","Management":"Solid Waste Management","Owner":"City of Toronto","Gross Floor Area (M2)":1412,"Gross Floor Area (FT2)":15200,"Year Built":1965,"WARD":5}},{"type":"Feature","geometry":{"type":"Polygon","coordinates":[[[-79.4700618311948,43.7008043982412],[-79.4697002778406,43.7008840183235],[-79.46941151095,43.7009476074774],[-79.4693391454174,43.7009635383599],[-79.4693387359416,43.7009636282629],[-79.4689771682771,43.7010432280493],[-79.4689629730692,43.701046365643],[-79.4688873986882,43.7011489867058],[-79.4693014622068,43.7021370791737],[-79.469411628627,43.702399991067],[-79.469500258155,43.7026114907951],[-79.4695106435618,43.7026350049055],[-79.4695219472321,43.7026582942278],[-79.4695341691803,43.7026813317579],[-79.4695472970048,43.7027041084908],[-79.4695613183081,43.7027266064204],[-79.4695762331047,43.7027487985426],[-79.4695920289971,43.702770666851],[-79.4696086687685,43.7027922023343],[-79.4696261648406,43.7028133779915],[-79.4696444924037,43.7028341848143],[-79.4696636266573,43.702854595792],[-79.4696835800138,43.7028746019261],[-79.4697043028532,43.7028941852006],[-79.4697257951848,43.7029133276123],[-79.4697480446106,43.7029320111552],[-79.4697710263206,43.7029502268209],[-79.4697782073919,43.7029558005109],[-79.4698010526118,43.702974070142],[-79.4698232896851,43.7029927356642],[-79.4698449062133,43.703011779072],[-79.4698659022052,43.7030311823632],[-79.4698862528413,43.7030509545328],[-79.4700177484497,43.703022031988],[-79.4701849811016,43.7029852425005],[-79.4705461617276,43.7029058008442],[-79.470678574943,43.7028766797468],[-79.4707043510292,43.7028134073693],[-79.4708852694411,43.702773595933],[-79.4709181976772,43.7028523474985],[-79.4716900521948,43.7026829751841],[-79.4715239460316,43.7022833041455],[-79.4706660273526,43.702248198243],[-79.4705489656786,43.7019682463527],[-79.4702003394556,43.7011356095749],[-79.4700877432939,43.7008663518442],[-79.4700618311948,43.7008043982412]]]},"properties":{"_id":1773,"OBJECTID":1773,"FLOC_ID":"005178-B01","Building Description":"INGRAM YARD - GARAGE","Address":"86 INGRAM DR","City":"TORONTO","Ward Name":"York South-Weston","Former Municipality":"North York","District":"West","City Cluster":"Citizen-Focused Services Group B","Building Type":"Yard Garage","Building Status":"City Use","Jurisdiction":"Solid Waste Management","Management":"Solid Waste Management","Owner":"City of Toronto","Gross Floor Area (M2)":656,"Gross Floor Area (FT2)":7061,"Year Built":1989,"WARD":5}},{"type":"Feature","geometry":{"type":"Polygon","coordinates":[[[-79.4700618311948,43.7008043982412],[-79.4697002778406,43.7008840183235],[-79.46941151095,43.7009476074774],[-79.4693391454174,43.7009635383599],[-79.4693387359416,43.7009636282629],[-79.4689771682771,43.7010432280493],[-79.4689629730692,43.701046365643],[-79.4688873986882,43.7011489867058],[-79.4693014622068,43.7021370791737],[-79.469411628627,43.702399991067],[-79.469500258155,43.7026114907951],[-79.4695106435618,43.7026350049055],[-79.4695219472321,43.7026582942278],[-79.4695341691803,43.7026813317579],[-79.4695472970048,43.7027041084908],[-79.4695613183081,43.7027266064204],[-79.4695762331047,43.7027487985426],[-79.4695920289971,43.702770666851],[-79.4696086687685,43.7027922023343],[-79.4696261648406,43.7028133779915],[-79.4696444924037,43.7028341848143],[-79.4696636266573,43.702854595792],[-79.4696835800138,43.7028746019261],[-79.4697043028532,43.7028941852006],[-79.4697257951848,43.7029133276123],[-79.4697480446106,43.7029320111552],[-79.4697710263206,43.7029502268209],[-79.4697782073919,43.7029558005109],[-79.4698010526118,43.702974070142],[-79.4698232896851,43.7029927356642],[-79.4698449062133,43.703011779072],[-79.4698659022052,43.7030311823632],[-79.4698862528413,43.7030509545328],[-79.4700177484497,43.703022031988],[-79.4701849811016,43.7029852425005],[-79.4705461617276,43.7029058008442],[-79.470678574943,43.7028766797468],[-79.4707043510292,43.7028134073693],[-79.4708852694411,43.702773595933],[-79.4709181976772,43.7028523474985],[-79.4716900521948,43.7026829751841],[-79.4715239460316,43.7022833041455],[-79.4706660273526,43.702248198243],[-79.4705489656786,43.7019682463527],[-79.4702003394556,43.7011356095749],[-79.4700877432939,43.7008663518442],[-79.4700618311948,43.7008043982412]]]},"properties":{"_id":1774,"OBJECTID":1774,"FLOC_ID":"005178-B03","Building Description":"INGRAM YARD - SALT DOME","Address":"86 INGRAM DR","City":"TORONTO","Ward Name":"York South-Weston","Former Municipality":"North York","District":"West","City Cluster":"Citizen-Focused Services Group B","Building Type":"Salt Dome/Storage","Building Status":"City Use","Jurisdiction":"Transportation Services","Management":"Transportation Services","Owner":"City of Toronto","Gross Floor Area (M2)":1117,"Gross Floor Area (FT2)":12026,"Year Built":1989,"WARD":5}},{"type":"Feature","geometry":{"type":"Polygon","coordinates":[[[-79.4722585591275,43.7003883281476],[-79.4722326822232,43.7003263660388],[-79.4706178209027,43.7006819720566],[-79.4706437459287,43.7007439255381],[-79.4707894698446,43.7010921864408],[-79.4702003394556,43.7011356095749],[-79.4705489656786,43.7019682463527],[-79.4706660273526,43.702248198243],[-79.4715239460316,43.7022833041455],[-79.4716900521948,43.7026829751841],[-79.4722507709858,43.7025599841893],[-79.4723302973014,43.7025426940085],[-79.4725101712713,43.7025036268518],[-79.4727636273929,43.7024485816955],[-79.4727998353741,43.7024407141982],[-79.4730892881253,43.7023774047037],[-79.4731435876487,43.7023654007668],[-79.4735239070407,43.7022813635354],[-79.4738854762477,43.7022014973489],[-79.4742470444951,43.7021216300174],[-79.4748112648028,43.701996862988],[-79.4749515284829,43.7019658483969],[-79.475635224997,43.7018146666567],[-79.4758591067878,43.7017655401658],[-79.475808898642,43.7015407855866],[-79.4760506472875,43.701487071845],[-79.47574557072,43.7001303883708],[-79.4753278077845,43.7003756469188],[-79.4750901963058,43.7005147642083],[-79.4747616311997,43.7007071215387],[-79.4746932223949,43.7007296726271],[-79.4744143998328,43.7008215946543],[-79.4740858328132,43.7009806812958],[-79.4737277167118,43.7010688841134],[-79.4734013774625,43.7012332350418],[-79.4727399065248,43.7015408869993],[-79.4726575634591,43.701343694282],[-79.4722765416252,43.7004313856431],[-79.4722585591275,43.7003883281476]]]},"properties":{"_id":1821,"OBJECTID":1821,"FLOC_ID":"005449-B02","Building Description":"INGRAM TRANSFER STATION","Address":"50 INGRAM DR","City":"TORONTO","Ward Name":"York South-Weston","Former Municipality":"Metro Toronto","District":"West","City Cluster":"Citizen-Focused Services Group B","Building Type":"Transfer Station","Building Status":"City Use","Jurisdiction":"Solid Waste Management","Management":"Solid Waste Management","Owner":"City of Toronto","Gross Floor Area (M2)":10389,"Gross Floor Area (FT2)":111831,"Year Built":1987,"WARD":5}},{"type":"Feature","geometry":{"type":"Polygon","coordinates":[[[-79.4722585591275,43.7003883281476],[-79.4722326822232,43.7003263660388],[-79.4706178209027,43.7006819720566],[-79.4706437459287,43.7007439255381],[-79.4707894698446,43.7010921864408],[-79.4702003394556,43.7011356095749],[-79.4705489656786,43.7019682463527],[-79.4706660273526,43.702248198243],[-79.4715239460316,43.7022833041455],[-79.4716900521948,43.7026829751841],[-79.4722507709858,43.7025599841893],[-79.4723302973014,43.7025426940085],[-79.4725101712713,43.7025036268518],[-79.4727636273929,43.7024485816955],[-79.4727998353741,43.7024407141982],[-79.4730892881253,43.7023774047037],[-79.4731435876487,43.7023654007668],[-79.4735239070407,43.7022813635354],[-79.4738854762477,43.7022014973489],[-79.4742470444951,43.7021216300174],[-79.4748112648028,43.701996862988],[-79.4749515284829,43.7019658483969],[-79.475635224997,43.7018146666567],[-79.4758591067878,43.7017655401658],[-79.475808898642,43.7015407855866],[-79.4760506472875,43.701487071845],[-79.47574557072,43.7001303883708],[-79.4753278077845,43.7003756469188],[-79.4750901963058,43.7005147642083],[-79.4747616311997,43.7007071215387],[-79.4746932223949,43.7007296726271],[-79.4744143998328,43.7008215946543],[-79.4740858328132,43.7009806812958],[-79.4737277167118,43.7010688841134],[-79.4734013774625,43.7012332350418],[-79.4727399065248,43.7015408869993],[-79.4726575634591,43.701343694282],[-79.4722765416252,43.7004313856431],[-79.4722585591275,43.7003883281476]]]},"properties":{"_id":1822,"OBJECTID":1822,"FLOC_ID":"005449-B04","Building Description":"INGRAM YARD - STORAGE BLDG #2","Address":"50 INGRAM DR","City":"TORONTO","Ward Name":"York South-Weston","Former Municipality":"None","District":"West","City Cluster":"Citizen-Focused Services Group B","Building Type":"Yard Storage Building","Building Status":"City Use","Jurisdiction":"Solid Waste Management","Management":"Solid Waste Management","Owner":"City of Toronto","Gross Floor Area (M2)":20,"Gross Floor Area (FT2)":210,"Year Built":2015,"WARD":5}},{"type":"Feature","geometry":{"type":"Polygon","coordinates":[[[-79.4722585591275,43.7003883281476],[-79.4722326822232,43.7003263660388],[-79.4706178209027,43.7006819720566],[-79.4706437459287,43.7007439255381],[-79.4707894698446,43.7010921864408],[-79.4702003394556,43.7011356095749],[-79.4705489656786,43.7019682463527],[-79.4706660273526,43.702248198243],[-79.4715239460316,43.7022833041455],[-79.4716900521948,43.7026829751841],[-79.4722507709858,43.7025599841893],[-79.4723302973014,43.7025426940085],[-79.4725101712713,43.7025036268518],[-79.4727636273929,43.7024485816955],[-79.4727998353741,43.7024407141982],[-79.4730892881253,43.7023774047037],[-79.4731435876487,43.7023654007668],[-79.4735239070407,43.7022813635354],[-79.4738854762477,43.7022014973489],[-79.4742470444951,43.7021216300174],[-79.4748112648028,43.701996862988],[-79.4749515284829,43.7019658483969],[-79.475635224997,43.7018146666567],[-79.4758591067878,43.7017655401658],[-79.475808898642,43.7015407855866],[-79.4760506472875,43.701487071845],[-79.47574557072,43.7001303883708],[-79.4753278077845,43.7003756469188],[-79.4750901963058,43.7005147642083],[-79.4747616311997,43.7007071215387],[-79.4746932223949,43.7007296726271],[-79.4744143998328,43.7008215946543],[-79.4740858328132,43.7009806812958],[-79.4737277167118,43.7010688841134],[-79.4734013774625,43.7012332350418],[-79.4727399065248,43.7015408869993],[-79.4726575634591,43.701343694282],[-79.4722765416252,43.7004313856431],[-79.4722585591275,43.7003883281476]]]},"properties":{"_id":1823,"OBJECTID":1823,"FLOC_ID":"005449-B01","Building Description":"INGRAM TRANSFER STATION - WEIGH SCALE OFFICE","Address":"50 INGRAM DR","City":"TORONTO","Ward Name":"York South-Weston","Former Municipality":"Metro Toronto","District":"West","City Cluster":"Citizen-Focused Services Group B","Building Type":"Weigh Scale Building","Building Status":"City Use","Jurisdiction":"Solid Waste Management","Management":"Solid Waste Management","Owner":"City of Toronto","Gross Floor Area (M2)":59,"Gross Floor Area (FT2)":635,"Year Built":1987,"WARD":5}},{"type":"Feature","geometry":{"type":"Polygon","coordinates":[[[-79.4722585591275,43.7003883281476],[-79.4722326822232,43.7003263660388],[-79.4706178209027,43.7006819720566],[-79.4706437459287,43.7007439255381],[-79.4707894698446,43.7010921864408],[-79.4702003394556,43.7011356095749],[-79.4705489656786,43.7019682463527],[-79.4706660273526,43.702248198243],[-79.4715239460316,43.7022833041455],[-79.4716900521948,43.7026829751841],[-79.4722507709858,43.7025599841893],[-79.4723302973014,43.7025426940085],[-79.4725101712713,43.7025036268518],[-79.4727636273929,43.7024485816955],[-79.4727998353741,43.7024407141982],[-79.4730892881253,43.7023774047037],[-79.4731435876487,43.7023654007668],[-79.4735239070407,43.7022813635354],[-79.4738854762477,43.7022014973489],[-79.4742470444951,43.7021216300174],[-79.4748112648028,43.701996862988],[-79.4749515284829,43.7019658483969],[-79.475635224997,43.7018146666567],[-79.4758591067878,43.7017655401658],[-79.475808898642,43.7015407855866],[-79.4760506472875,43.701487071845],[-79.47574557072,43.7001303883708],[-79.4753278077845,43.7003756469188],[-79.4750901963058,43.7005147642083],[-79.4747616311997,43.7007071215387],[-79.4746932223949,43.7007296726271],[-79.4744143998328,43.7008215946543],[-79.4740858328132,43.7009806812958],[-79.4737277167118,43.7010688841134],[-79.4734013774625,43.7012332350418],[-79.4727399065248,43.7015408869993],[-79.4726575634591,43.701343694282],[-79.4722765416252,43.7004313856431],[-79.4722585591275,43.7003883281476]]]},"properties":{"_id":1824,"OBJECTID":1824,"FLOC_ID":"005449-B03","Building Description":"INGRAM YARD - STORAGE BLDG #1","Address":"50 INGRAM DR","City":"TORONTO","Ward Name":"York South-Weston","Former Municipality":"None","District":"West","City Cluster":"Citizen-Focused Services Group B","Building Type":"Yard Storage Building","Building Status":"City Use","Jurisdiction":"Solid Waste Management","Management":"Solid Waste Management","Owner":"City of Toronto","Gross Floor Area (M2)":20,"Gross Floor Area (FT2)":210,"Year Built":2015,"WARD":5}}]}