{"type":"FeatureCollection","features":[{"type":"Feature","geometry":{"type":"MultiPolygon","coordinates":[[[[-79.4694116335904,43.7023999901682],[-79.4693014646869,43.7021370818748],[-79.4688874011691,43.7011489876066],[-79.4689629693462,43.7010463674422],[-79.4689771744797,43.7010432298513],[-79.4693387371832,43.700963626463],[-79.4693391503802,43.7009635383612],[-79.4694115134319,43.7009476065779],[-79.4697002828052,43.7008840147243],[-79.4700618361558,43.700804401843],[-79.4700877445332,43.7008663545449],[-79.4702003431786,43.7011356077756],[-79.4705489718813,43.7019682481546],[-79.4706660261106,43.702248200943],[-79.4715239497525,43.7022833068468],[-79.4716900472328,43.7026829733826],[-79.4709181989192,43.7028523447984],[-79.4708852694415,43.7027735950329],[-79.4707043572333,43.7028134064708],[-79.4706785737018,43.7028766806466],[-79.4705461617272,43.7029058017444],[-79.4701849786183,43.7029852461003],[-79.4700177472107,43.7030220283872],[-79.4698862540843,43.7030509500325],[-79.4698659034446,43.7030311850639],[-79.4698449124183,43.7030117763733],[-79.4698232896856,43.7029927347641],[-79.4698010501295,43.7029740719416],[-79.4697782049118,43.7029557978099],[-79.4697710238413,43.7029502223196],[-79.469748047093,43.7029320093556],[-79.4697258013899,43.7029133249136],[-79.4697043053351,43.7028941843011],[-79.4696835775315,43.7028746037257],[-79.4696636328596,43.702854598494],[-79.4696444899222,43.7028341848137],[-79.4696261648392,43.7028133806918],[-79.4696086712495,43.7027922032351],[-79.4695920240328,43.7027706695501],[-79.4695762368273,43.7027487976434],[-79.4695613232719,43.7027266046215],[-79.4695472957632,43.7027041102907],[-79.4695341654572,43.7026813335571],[-79.469521942271,43.702658290626],[-79.4695106385993,43.7026350040041],[-79.4695002618777,43.7026114898959],[-79.4694116335904,43.7023999901682]]]]},"properties":{"_id":4042,"FLOC_ID":"005178-P01","Property Description":"INGRAM YARD","Address":"86 INGRAM DR","City":"TORONTO","Intersection":"None","Ward \\#":5,"Ward Name":"York South-Weston","Former Municipality":"North York","District":"West","City Cluster":"Citizen-Focused Services Group B","Property Type":"Service Yard","Property Status":"City Use","Jurisdiction":"Transportation Services","Management":"Transportation Services","Owner":"City of Toronto","Area (M2)":27195,"Frontage (M)":102,"Depth (M)":null,"Area (FT2)":292723,"Frontage (FT)":334,"Depth (FT)":null,"OBJECTID":4042}},{"type":"Feature","geometry":{"type":"MultiPolygon","coordinates":[[[[-79.4650374912926,43.6980080930961],[-79.4646858743302,43.6965404772687],[-79.4647230996051,43.6964966074826],[-79.4647595595705,43.6964524007998],[-79.4647952492608,43.6964078644208],[-79.4648264937621,43.696367675185],[-79.464857142874,43.6963272445227],[-79.4648871916318,43.6962865778338],[-79.4649166363122,43.6962456796182],[-79.464945474432,43.6962045543762],[-79.4649778744552,43.6961567134563],[-79.465009408667,43.6961085689183],[-79.4650400721018,43.6960601288626],[-79.4650698597938,43.6960114022896],[-79.4650987667775,43.6959623972998],[-79.4651267868475,43.6959131210928],[-79.4651539175183,43.6958635844701],[-79.4651801513445,43.6958137937311],[-79.465205485841,43.6957637587768],[-79.4652299160428,43.6957134877077],[-79.4652534382254,43.6956629886243],[-79.4652760474227,43.695612271427],[-79.4652977411516,43.6955613433167],[-79.4653185132059,43.6955102132933],[-79.4653383635822,43.6954588912587],[-79.4653572860755,43.6954073844125],[-79.4653752782007,43.6953557035561],[-79.4653923362341,43.6953038558896],[-79.4654084589323,43.6952518504145],[-79.4654236438111,43.6951996961317],[-79.4654378859051,43.6951474029415],[-79.4654511839717,43.6950949780449],[-79.4654635355261,43.6950424322429],[-79.4654749393253,43.6949897736368],[-79.4654853928857,43.6949370112272],[-79.4654948937231,43.6948841540151],[-79.4655020667616,43.694840777159],[-79.4655086244962,43.6947973497092],[-79.4655145656856,43.694753875266],[-79.4659130038086,43.6961757800303],[-79.4663443226456,43.6977149434951],[-79.4650374912926,43.6980080930961]]]]},"properties":{"_id":4414,"FLOC_ID":"005495-P01","Property Description":"CASTLEFIELD YARD","Address":"1401 CASTLEFIELD AVE","City":"TORONTO","Intersection":"SS CASTLEFIELD AVE, W CALEDONIA RR","Ward \\#":8,"Ward Name":"Eglinton-Lawrence","Former Municipality":"York","District":"North","City Cluster":"Citizen-Focused Services Group B","Property Type":"Service Yard","Property Status":"City Use","Jurisdiction":"Transportation Services","Management":"Transportation Services","Owner":"City of Toronto","Area (M2)":22055,"Frontage (M)":111,"Depth (M)":null,"Area (FT2)":237402,"Frontage (FT)":364,"Depth (FT)":null,"OBJECTID":4414}},{"type":"Feature","geometry":{"type":"MultiPolygon","coordinates":[[[[-79.472232688425,43.7003263696409],[-79.4722585578869,43.7003883281474],[-79.4722765441061,43.7004313865438],[-79.4726575584942,43.7013436987815],[-79.472739911486,43.701540890601],[-79.4734013762218,43.7012332350415],[-79.4737277216735,43.7010688868149],[-79.4740858377749,43.7009806839973],[-79.4744143985936,43.7008215910535],[-79.4746932186721,43.7007296744265],[-79.4747616324404,43.700707121539],[-79.4750901913431,43.7005147642072],[-79.4753278127465,43.7003756487201],[-79.4757455657562,43.7001303910701],[-79.4760506423257,43.7014870691435],[-79.4758088974009,43.7015407864865],[-79.4758591092677,43.7017655437668],[-79.4756352299603,43.7018146657576],[-79.4749515260019,43.7019658474963],[-79.474811266042,43.7019968665888],[-79.4742470494588,43.7021216282182],[-79.4738854799694,43.7022014982499],[-79.4735239107617,43.7022813662367],[-79.4731435876499,43.7023653980664],[-79.4730892943301,43.7023774020048],[-79.472799835375,43.7024407123979],[-79.4727636298751,43.7024485798958],[-79.472510168789,43.7025036286514],[-79.4723303022631,43.7025426967101],[-79.472250766022,43.7025599859884],[-79.4716900472328,43.7026829733826],[-79.4715239485114,43.7022833077466],[-79.4706660261106,43.702248200943],[-79.4705489706406,43.7019682481543],[-79.4702003419379,43.7011356077753],[-79.4707894748096,43.7010921819414],[-79.4706437409646,43.7007439282372],[-79.4706178233824,43.7006819756577],[-79.472232688425,43.7003263696409]]]]},"properties":{"_id":5648,"FLOC_ID":"005449-P01","Property Description":"INGRAM DRIVE TRANSFER STATION","Address":"50 INGRAM DR","City":"TORONTO","Intersection":"None","Ward \\#":5,"Ward Name":"York South-Weston","Former Municipality":"Metro Toronto","District":"West","City Cluster":"Citizen-Focused Services Group B","Property Type":"Waste Management","Property Status":"City Use","Jurisdiction":"Solid Waste Management","Management":"Solid Waste Management","Owner":"City of Toronto","Area (M2)":76364,"Frontage (M)":600,"Depth (M)":null,"Area (FT2)":821978,"Frontage (FT)":1969,"Depth (FT)":null,"OBJECTID":5648}},{"type":"Feature","geometry":{"type":"MultiPolygon","coordinates":[[[[-79.4519583884758,43.6910139478503],[-79.4519568276735,43.6910173865898],[-79.451954494236,43.6910205855702],[-79.4519514527399,43.6910234557054],[-79.4519477900865,43.6910259133201],[-79.4519436117714,43.6910278909488],[-79.4519390344469,43.6910293310321],[-79.451934188397,43.691030193119],[-79.4519292125771,43.6910304520642],[-79.4519242471677,43.6910301016258],[-79.4519194335774,43.6910291517646],[-79.45191490824,43.6910276277417],[-79.4519107988903,43.6910255746175],[-79.4519072233292,43.6910230500497],[-79.4519042832199,43.6910201251914],[-79.4518891753415,43.691004518686],[-79.4518732868719,43.6909893250095],[-79.4518566388817,43.6909745666735],[-79.4518392536856,43.69096026169],[-79.4518211560769,43.6909464307717],[-79.4518023696098,43.6909330928313],[-79.4517829190811,43.690920264081],[-79.4517628330069,43.6909079634353],[-79.4517421361839,43.6908962071067],[-79.4517208571299,43.6908850113092],[-79.451699025605,43.6908743904572],[-79.4516766701278,43.6908643598647],[-79.4516538229404,43.6908549321466],[-79.4516305113222,43.6908461208163],[-79.4516067699969,43.6908379375899],[-79.4515826299683,43.6908303923816],[-79.4515581247187,43.6908234978072],[-79.4515332852538,43.6908172610807],[-79.4515533599879,43.6907495465302],[-79.4520153599501,43.6908217427801],[-79.451970170132,43.6909741994734],[-79.4519583884758,43.6910139478503]]]]},"properties":{"_id":6129,"FLOC_ID":"007562-P02","Property Description":"TEMPORARY EASEMENT","Address":"119 ENNERDALE RD","City":"TORONTO","Intersection":"None","Ward \\#":9,"Ward Name":"Davenport","Former Municipality":"None","District":"South","City Cluster":"Citizen-Focused Services Group B","Property Type":"Waste Management","Property Status":"City Use","Jurisdiction":"Toronto Water","Management":"Toronto Water","Owner":"City of Toronto","Area (M2)":null,"Frontage (M)":null,"Depth (M)":null,"Area (FT2)":null,"Frontage (FT)":null,"Depth (FT)":null,"OBJECTID":6129}}]}