{"type":"FeatureCollection","features":[{"type":"Feature","geometry":{"type":"MultiPoint","coordinates":[[-79.4277594846636,43.7001622514913]]},"properties":{"_id":609,"OBJECTID":609,"FLOC_ID":"008086-B01","Building Description":"TPA CARPARK 655","Address":"168 CHILTERN HILL RD","City":"TORONTO","Ward Name":"Toronto-St. Paul's","Former Municipality":"None","District":"South","City Cluster":"None","Building Type":"Parking Garage - Below Grade","Building Status":"City Use","Jurisdiction":"Toronto Parking Authority","Management":"Toronto Parking Authority","Owner":"City of Toronto","Gross Floor Area (M2)":null,"Gross Floor Area (FT2)":null,"Year Built":null,"WARD":12}}]}