{"type":"FeatureCollection","features":[{"type":"Feature","geometry":{"type":"MultiPolygon","coordinates":[[[[-79.4369995491945,43.6928750081232],[-79.4369728971474,43.6928091525664],[-79.4369462327146,43.6927433339011],[-79.4369195683486,43.6926775071276],[-79.4368929027928,43.6926116875476],[-79.4369182635082,43.6926063115708],[-79.4368916079104,43.6925404910951],[-79.4368649436834,43.6924746742081],[-79.4368395693834,43.6924800402641],[-79.4368129052504,43.6924142134629],[-79.4367862399275,43.6923483938551],[-79.4367595759111,43.69228256704],[-79.4367957663411,43.6922747118236],[-79.4366827608813,43.6919957432568],[-79.4366550441932,43.6919273189565],[-79.4366539788903,43.6919246809866],[-79.4359333709951,43.6901455349216],[-79.4359691274854,43.6901270320851],[-79.4372683300075,43.6907968621242],[-79.4375778984753,43.6917298422437],[-79.4375790246271,43.6917324541345],[-79.4376083056924,43.6918005154147],[-79.4376432312415,43.691881649647],[-79.4376713850615,43.6919470891172],[-79.4376995401897,43.6920125222795],[-79.4377276966289,43.6920779464335],[-79.4377558258389,43.6921433696649],[-79.437783982404,43.6922087902032],[-79.437812137787,43.6922742134335],[-79.4378402944726,43.6923396357567],[-79.4378684636236,43.6924050589791],[-79.4378966204306,43.6924704821871],[-79.4379247760683,43.6925358954854],[-79.437952934239,43.6926013177786],[-79.4379808783721,43.6926662430766],[-79.437501917264,43.6927681297936],[-79.4370249497385,43.6928696033409],[-79.4369995491945,43.6928750081232]]]]},"properties":{"_id":10207,"FLOC_ID":"006252-P01","Property Description":"VAUGHAN ROAD C.I.","Address":"529 VAUGHAN RD","City":"TORONTO","Intersection":"None","Ward \\#":12,"Ward Name":"Toronto-St. Paul's","Former Municipality":"York","District":"South","City Cluster":"Other Organizations","Property Type":"School","Property Status":"City Use","Jurisdiction":"Toronto District School Board","Management":"Toronto District School Board","Owner":"Toronto District School Board","Area (M2)":21530,"Frontage (M)":null,"Depth (M)":null,"Area (FT2)":231748,"Frontage (FT)":null,"Depth (FT)":null,"OBJECTID":10207,"Community Use":"Vaughan Road Academy also operates as a City of Toronto community centre (Parks, Forestry & Recreation), including its on-site indoor pool (see the real-estate-public-facility-buildings layer) — listed separately in Toronto's Parks and Recreation Facilities dataset, merged into this record instead of showing a third marker for the same site."}}]}