{"type":"FeatureCollection","features":[{"type":"Feature","geometry":{"type":"Polygon","coordinates":[[[-79.478124288096,43.6911900313154],[-79.478258235209,43.6911600195435],[-79.4782598840327,43.6911628822695],[-79.478349391948,43.6911455807627],[-79.4782506456245,43.6909135175811],[-79.4781033889763,43.6905674165838],[-79.4778806296107,43.6906173308979],[-79.4778895533928,43.6906382876454],[-79.4780277859461,43.6909631981262],[-79.478124288096,43.6911900313154]]]},"properties":{"_id":2657,"OBJECTID":2657,"FLOC_ID":"004034-B02","Building Description":"FORMER ANIMAL SERVICES - SPAY/NEUTER CLINIC","Address":"2696 EGLINTON AVE W","City":"YORK","Ward Name":"York South-Weston","Former Municipality":"York","District":"West","City Cluster":"Internal Services Group","Building Type":"Animal Shelter","Building Status":"City Use","Jurisdiction":"Facilities Management & Real Estate Services","Management":"Facilities Management & Real Estate Services","Owner":"City of Toronto","Gross Floor Area (M2)":799,"Gross Floor Area (FT2)":8600,"Year Built":1952,"WARD":5}}]}