{"type":"FeatureCollection","features":[{"type":"Feature","geometry":{"type":"MultiPolygon","coordinates":[[[[-79.4340887964144,43.6986589049938],[-79.4340653607463,43.6986009853131],[-79.434083861903,43.6985970273169],[-79.4344464911737,43.6985193198328],[-79.4344699135299,43.6985772394286],[-79.4340887964144,43.6986589049938]]]]},"properties":{"_id":1458,"FLOC_ID":"005104-P01","Property Description":"RESIDENTIAL PROPERTY","Address":"222 STRATHEARN RD","City":"TORONTO","Intersection":"ADJ N 220 STRATHEARN RD","Ward \\#":12,"Ward Name":"Toronto-St. Paul's","Former Municipality":"Metro Toronto","District":"South","City Cluster":"Internal Services Group","Property Type":"Residential","Property Status":"Sell Abutting Owner","Jurisdiction":"Facilities Management & Real Estate Services","Management":"Facilities Management & Real Estate Services","Owner":"City of Toronto","Area (M2)":215,"Frontage (M)":7,"Depth (M)":32,"Area (FT2)":2312,"Frontage (FT)":22,"Depth (FT)":105,"OBJECTID":1458}},{"type":"Feature","geometry":{"type":"MultiPolygon","coordinates":[[[[-79.4345444975657,43.6947165469728],[-79.4346140109821,43.6947524623019],[-79.4346369387087,43.6947643103119],[-79.4344220760015,43.6949907641367],[-79.434412664129,43.695000679059],[-79.4343899634162,43.6949842476777],[-79.4343307950838,43.6949414359679],[-79.4343554251466,43.6949155209973],[-79.4345444975657,43.6947165469728]]]]},"properties":{"_id":1660,"FLOC_ID":"005930-P01","Property Description":"RESIDENTIAL PROPERTY","Address":"567 ARLINGTON AVE","City":"TORONTO","Intersection":"S AVA RD","Ward \\#":12,"Ward Name":"Toronto-St. Paul's","Former Municipality":"York","District":"South","City Cluster":"Internal Services Group","Property Type":"Residential","Property Status":"Declared Surplus","Jurisdiction":"Facilities Management & Real Estate Services","Management":"Facilities Management & Real Estate Services","Owner":"Province of Ontario","Area (M2)":277,"Frontage (M)":9,"Depth (M)":30,"Area (FT2)":2986,"Frontage (FT)":30,"Depth (FT)":100,"OBJECTID":1660}},{"type":"Feature","geometry":{"type":"MultiPolygon","coordinates":[[[[-79.4339651140443,43.6955711067773],[-79.4339989839345,43.6956078272966],[-79.4340408441996,43.6956742377691],[-79.4341096318769,43.6957833964713],[-79.43395347428,43.6958169279662],[-79.4338982848907,43.6957292694137],[-79.4338430844958,43.6956416117271],[-79.4337237067823,43.695556904348],[-79.4340991044068,43.6952428728585],[-79.4341284994529,43.6952614333593],[-79.4341573742479,43.695280420214],[-79.4341857151543,43.6952998253139],[-79.4342135110149,43.695319641452],[-79.4342407519159,43.6953398587216],[-79.4342674254582,43.695360470815],[-79.4342935204866,43.6953814687248],[-79.4341052238547,43.6954901535219],[-79.4339651140443,43.6955711067773]]]]},"properties":{"_id":1787,"FLOC_ID":"005822-P01","Property Description":"RESIDENTIAL PROPERTY","Address":"203 AVA RD","City":"TORONTO","Intersection":"E STRATHEARN RD","Ward \\#":12,"Ward Name":"Toronto-St. Paul's","Former Municipality":"Metro Toronto","District":"South","City Cluster":"Internal Services Group","Property Type":"Residential","Property Status":"Declared Surplus","Jurisdiction":"Facilities Management & Real Estate Services","Management":"Facilities Management & Real Estate Services","Owner":"Province of Ontario","Area (M2)":459,"Frontage (M)":13,"Depth (M)":35,"Area (FT2)":4945,"Frontage (FT)":43,"Depth (FT)":115,"OBJECTID":1787}},{"type":"Feature","geometry":{"type":"MultiPolygon","coordinates":[[[[-79.4811203540644,43.6828427971801],[-79.4811134659607,43.6828525813663],[-79.4807097157032,43.6827021479601],[-79.4807314559959,43.6826712771327],[-79.4807744476138,43.6826102086809],[-79.4808174540283,43.6825491402147],[-79.4808229250632,43.6825413658008],[-79.4812266360785,43.6826917898036],[-79.481221163844,43.6826995570354],[-79.4812162127704,43.6827065943464],[-79.4811781713727,43.6827606328552],[-79.4811682828529,43.682774691273],[-79.48113519246,43.6828217014594],[-79.4811203540644,43.6828427971801]]]]},"properties":{"_id":4106,"FLOC_ID":"006131-P11","Property Description":"BEECH HALL HOUSING CO-OP","Address":"4 HUMBER BLVD","City":"TORONTO","Intersection":"None","Ward \\#":5,"Ward Name":"York South-Weston","Former Municipality":"York","District":"West","City Cluster":"Internal Services Group","Property Type":"Shelter/Housing","Property Status":"Sale (Lease >20 Years)","Jurisdiction":"Facilities Management & Real Estate Services","Management":"Facilities Management & Real Estate Services","Owner":"City of Toronto","Area (M2)":736,"Frontage (M)":20,"Depth (M)":37,"Area (FT2)":7920,"Frontage (FT)":66,"Depth (FT)":120,"OBJECTID":4106}},{"type":"Feature","geometry":{"type":"MultiPolygon","coordinates":[[[[-79.4809361300946,43.6823805925254],[-79.4809464392587,43.6823659383101],[-79.4809894453242,43.6823048697766],[-79.4810324376579,43.6822438048244],[-79.4810496348161,43.6822193754184],[-79.4814331120902,43.6823622585468],[-79.481415927451,43.6823866844115],[-79.481372934163,43.6824477522065],[-79.4813299407855,43.6825088271858],[-79.4813196279694,43.6825234814347],[-79.4809361300946,43.6823805925254]]]]},"properties":{"_id":4198,"FLOC_ID":"006131-P01","Property Description":"BEECH HALL HOUSING CO-OP","Address":"8 HUMBER BLVD","City":"TORONTO","Intersection":"None","Ward \\#":5,"Ward Name":"York South-Weston","Former Municipality":"York","District":"West","City Cluster":"Internal Services Group","Property Type":"Shelter/Housing","Property Status":"Sale (Lease >20 Years)","Jurisdiction":"Facilities Management & Real Estate Services","Management":"Facilities Management & Real Estate Services","Owner":"City of Toronto","Area (M2)":699,"Frontage (M)":20,"Depth (M)":35,"Area (FT2)":7524,"Frontage (FT)":66,"Depth (FT)":114,"OBJECTID":4198}},{"type":"Feature","geometry":{"type":"MultiPolygon","coordinates":[[[[-79.4816674567947,43.6824033117426],[-79.4816244773903,43.6824643895358],[-79.4814361025583,43.682394202884],[-79.481415927451,43.6823866844115],[-79.4814331120902,43.6823622585468],[-79.4814589070114,43.6823256066959],[-79.4815019001244,43.6822645406674],[-79.48154487951,43.6822034638183],[-79.4815650669718,43.6822109930718],[-79.4817534227794,43.6822811696089],[-79.4817104423122,43.6823422375341],[-79.4816674567947,43.6824033117426]]]]},"properties":{"_id":4214,"FLOC_ID":"006131-P09","Property Description":"BEECH HALL HOUSING CO-OP","Address":"17A CORDELLA AVE","City":"TORONTO","Intersection":"None","Ward \\#":5,"Ward Name":"York South-Weston","Former Municipality":"York","District":"West","City Cluster":"Internal Services Group","Property Type":"Shelter/Housing","Property Status":"Sale (Lease >20 Years)","Jurisdiction":"Facilities Management & Real Estate Services","Management":"Facilities Management & Real Estate Services","Owner":"City of Toronto","Area (M2)":432,"Frontage (M)":19,"Depth (M)":23,"Area (FT2)":4650,"Frontage (FT)":62,"Depth (FT)":75,"OBJECTID":4214}},{"type":"Feature","geometry":{"type":"MultiPolygon","coordinates":[[[[-79.4812641574658,43.6826384893002],[-79.4812266360785,43.6826917898036],[-79.4808229250632,43.6825413658008],[-79.4808604454709,43.6824880744297],[-79.4809034467497,43.682427005929],[-79.4809361300946,43.6823805925254],[-79.4813196279694,43.6825234814347],[-79.4812869622069,43.6825698949497],[-79.4813071361188,43.6825774143446],[-79.4812641574658,43.6826384893002]]]]},"properties":{"_id":4223,"FLOC_ID":"006131-P10","Property Description":"BEECH HALL HOUSING CO-OP","Address":"6 HUMBER BLVD","City":"TORONTO","Intersection":"None","Ward \\#":5,"Ward Name":"York South-Weston","Former Municipality":"York","District":"West","City Cluster":"Internal Services Group","Property Type":"Shelter/Housing","Property Status":"Sale (Lease >20 Years)","Jurisdiction":"Facilities Management & Real Estate Services","Management":"Facilities Management & Real Estate Services","Owner":"City of Toronto","Area (M2)":699,"Frontage (M)":20,"Depth (M)":35,"Area (FT2)":7524,"Frontage (FT)":66,"Depth (FT)":114,"OBJECTID":4223}},{"type":"Feature","geometry":{"type":"MultiPolygon","coordinates":[[[[-79.4815385183239,43.6825865324698],[-79.4814955250144,43.6826476102103],[-79.4813071361188,43.6825774143446],[-79.4812869622069,43.6825698949497],[-79.4813196279694,43.6825234814347],[-79.4813299407855,43.6825088271858],[-79.481372934163,43.6824477522065],[-79.481415927451,43.6823866844115],[-79.4814361025583,43.682394202884],[-79.4816244773903,43.6824643895358],[-79.4815814978988,43.6825254673121],[-79.4815385183239,43.6825865324698]]]]},"properties":{"_id":4238,"FLOC_ID":"006131-P03","Property Description":"BEECH HALL HOUSING CO-OP","Address":"15A CORDELLA AVE","City":"TORONTO","Intersection":"None","Ward \\#":5,"Ward Name":"York South-Weston","Former Municipality":"York","District":"West","City Cluster":"Internal Services Group","Property Type":"Shelter/Housing","Property Status":"Sale (Lease >20 Years)","Jurisdiction":"Facilities Management & Real Estate Services","Management":"Facilities Management & Real Estate Services","Owner":"City of Toronto","Area (M2)":432,"Frontage (M)":19,"Depth (M)":23,"Area (FT2)":4650,"Frontage (FT)":62,"Depth (FT)":75,"OBJECTID":4238}},{"type":"Feature","geometry":{"type":"MultiPolygon","coordinates":[[[[-79.4817108374263,43.6827278267334],[-79.4814955250144,43.6826476102103],[-79.4815385183239,43.6825865324698],[-79.4815814978988,43.6825254673121],[-79.4816244773903,43.6824643895358],[-79.4818397657554,43.6825445977136],[-79.4817967851847,43.6826056755699],[-79.4817538045269,43.6826667525092],[-79.4817108374263,43.6827278267334]]]]},"properties":{"_id":4240,"FLOC_ID":"006131-P05","Property Description":"BEECH HALL HOUSING CO-OP","Address":"15 CORDELLA AVE","City":"TORONTO","Intersection":"None","Ward \\#":5,"Ward Name":"York South-Weston","Former Municipality":"York","District":"West","City Cluster":"Internal Services Group","Property Type":"Shelter/Housing","Property Status":"Sale (Lease >20 Years)","Jurisdiction":"Facilities Management & Real Estate Services","Management":"Facilities Management & Real Estate Services","Owner":"City of Toronto","Area (M2)":523,"Frontage (M)":23,"Depth (M)":23,"Area (FT2)":5625,"Frontage (FT)":75,"Depth (FT)":75,"OBJECTID":4240}},{"type":"Feature","geometry":{"type":"MultiPolygon","coordinates":[[[[-79.4818397657554,43.6825445977136],[-79.4816244773903,43.6824643895358],[-79.4816674567947,43.6824033117426],[-79.4817104423122,43.6823422375341],[-79.4817534227794,43.6822811696089],[-79.4819686995001,43.6823613721438],[-79.4819257191921,43.68242244645],[-79.481882738796,43.6824835234398],[-79.4818397657554,43.6825445977136]]]]},"properties":{"_id":6264,"FLOC_ID":"006131-P16","Property Description":"BEECH HALL HOUSING CO-OP","Address":"17 CORDELLA AVE","City":"TORONTO","Intersection":"None","Ward \\#":5,"Ward Name":"York South-Weston","Former Municipality":"York","District":"West","City Cluster":"Internal Services Group","Property Type":"Shelter/Housing","Property Status":"Sale (Lease >20 Years)","Jurisdiction":"Facilities Management & Real Estate Services","Management":"Facilities Management & Real Estate Services","Owner":"City of Toronto","Area (M2)":495,"Frontage (M)":23,"Depth (M)":23,"Area (FT2)":5325,"Frontage (FT)":75,"Depth (FT)":75,"OBJECTID":6264}},{"type":"Feature","geometry":{"type":"MultiPolygon","coordinates":[[[[-79.4810066833143,43.6830042636483],[-79.4809906424164,43.6830270549984],[-79.4805456129925,43.6829351955699],[-79.4806029137047,43.6828538208644],[-79.4806456797406,43.6827930764718],[-79.4806884506483,43.6827323419649],[-79.4807097157032,43.6827021479601],[-79.4811134659607,43.6828525813663],[-79.4810921998137,43.6828827790458],[-79.4810724102836,43.6829109030638],[-79.4810494416067,43.6829435227056],[-79.4810066833143,43.6830042636483]]]]},"properties":{"_id":6424,"FLOC_ID":"006131-P17","Property Description":"BEECH HALL HOUSING CO-OP","Address":"2 HUMBER BLVD","City":"TORONTO","Intersection":"None","Ward \\#":5,"Ward Name":"York South-Weston","Former Municipality":"York","District":"West","City Cluster":"Internal Services Group","Property Type":"Shelter/Housing","Property Status":"Sale (Lease >20 Years)","Jurisdiction":"Facilities Management & Real Estate Services","Management":"Facilities Management & Real Estate Services","Owner":"City of Toronto","Area (M2)":1067,"Frontage (M)":29,"Depth (M)":37,"Area (FT2)":11480,"Frontage (FT)":96,"Depth (FT)":120,"OBJECTID":6424}}]}