{"type":"FeatureCollection","features":[{"type":"Feature","geometry":{"type":"MultiPoint","coordinates":[[-79.4479966609746,43.6912815689627]]},"properties":{"_id":136,"OBJECTID":136,"FLOC_ID":"003253-B01","Building Description":"FAIRBANK MEMORIAL PARK - COMMUNITY CENTRE","Address":"2213 DUFFERIN ST","City":"TORONTO","Ward Name":"Toronto-St. Paul's","Former Municipality":"York","District":"South","City Cluster":"Citizen-Focused Services Group A","Building Type":"Community Recreation Centre","Building Status":"City Use","Jurisdiction":"Parks & Recreation","Management":"Parks & Recreation","Owner":"City of Toronto","Gross Floor Area (M2)":1700,"Gross Floor Area (FT2)":18300,"Year Built":1949,"WARD":12}},{"type":"Feature","geometry":{"type":"MultiPoint","coordinates":[[-79.4815695395914,43.6870198593364]]},"properties":{"_id":660,"OBJECTID":660,"FLOC_ID":"003256-B01","Building Description":"KEELESDALE PARK - CHRIS TONKS ARENA","Address":"95 BLACK CREEK DR","City":"TORONTO","Ward Name":"York South-Weston","Former Municipality":"York","District":"West","City Cluster":"Citizen-Focused Services Group A","Building Type":"Arena","Building Status":"City Use","Jurisdiction":"Parks & Recreation","Management":"Parks & Recreation","Owner":"City of Toronto","Gross Floor Area (M2)":2850,"Gross Floor Area (FT2)":30680,"Year Built":1953,"WARD":5}},{"type":"Feature","geometry":{"type":"MultiPoint","coordinates":[[-79.4315965612968,43.6913327090482]]},"properties":{"_id":1914,"OBJECTID":1914,"FLOC_ID":"004947-B02","Building Description":"CEDARVALE PARK - PHIL WHITE ARENA","Address":"443 ARLINGTON AVE","City":"TORONTO","Ward Name":"Toronto-St. Paul's","Former Municipality":"York","District":"South","City Cluster":"Citizen-Focused Services Group A","Building Type":"Arena","Building Status":"City Use","Jurisdiction":"Parks & Recreation","Management":"Parks & Recreation","Owner":"City of Toronto","Gross Floor Area (M2)":2495,"Gross Floor Area (FT2)":26856,"Year Built":1962,"WARD":12}}]}