{"type":"FeatureCollection","features":[{"type":"Feature","geometry":{"type":"MultiPolygon","coordinates":[[[[-79.4365425436594,43.6985083455353],[-79.4365390454754,43.6984996960587],[-79.436526887845,43.6984696304173],[-79.4364281104032,43.698225140224],[-79.436412142914,43.6981856499044],[-79.4365716298004,43.6981513220988],[-79.4367311003759,43.6981169949616],[-79.4368942128584,43.6980818874005],[-79.4369101285327,43.6981213749246],[-79.4370085056523,43.6983660013048],[-79.4370241530652,43.6984047163529],[-79.4370265920415,43.6984107674604],[-79.4368636400743,43.6984458311906],[-79.436704306469,43.6984801063791],[-79.4365449813612,43.6985143867508],[-79.4365425436594,43.6985083455353]]]]},"properties":{"_id":1575,"FLOC_ID":"004946-P01","Property Description":"POLICE STATION - DIVISION 13","Address":"1435 EGLINTON AVE W","City":"YORK","Intersection":"SEC EGLINTON AVE W, WINNETT AVE","Ward \\#":12,"Ward Name":"Toronto-St. Paul's","Former Municipality":"Metro Toronto","District":"South","City Cluster":"Agencies, Boards, and Commissions","Property Type":"Police Facility","Property Status":"City Use","Jurisdiction":"Toronto Police Service","Management":"Toronto Police Service","Owner":"City of Toronto","Area (M2)":1538,"Frontage (M)":41,"Depth (M)":38,"Area (FT2)":16553,"Frontage (FT)":133,"Depth (FT)":125,"OBJECTID":1575}},{"type":"Feature","geometry":{"type":"MultiPolygon","coordinates":[[[[-79.4721748896242,43.6906896862126],[-79.4721137533255,43.6907035900207],[-79.4720610240668,43.6905832360968],[-79.4720196928473,43.6904889292918],[-79.4720810286859,43.6904749850764],[-79.4721423632572,43.6904610372271],[-79.4721835073153,43.6905553907494],[-79.4722360110077,43.6906757850684],[-79.4721748896242,43.6906896862126]]]]},"properties":{"_id":1816,"FLOC_ID":"006264-P01","Property Description":"EGLINTON - SCOTT METER HOUSE","Address":"2547 EGLINTON AVE W","City":"TORONTO","Intersection":"SS EGLINTON AVE W, E KEELE ST","Ward \\#":5,"Ward Name":"York South-Weston","Former Municipality":"York","District":"West","City Cluster":"Other Organizations","Property Type":"Commercial/Retail","Property Status":"City Use","Jurisdiction":"Landlord","Management":"Landlord","Owner":"Third Party Organization","Area (M2)":290,"Frontage (M)":12,"Depth (M)":25,"Area (FT2)":3120,"Frontage (FT)":38,"Depth (FT)":82,"OBJECTID":1816}},{"type":"Feature","geometry":{"type":"MultiPolygon","coordinates":[[[[-79.4722504405977,43.6906725030987],[-79.4722360110077,43.6906757850684],[-79.4721835073153,43.6905553907494],[-79.4721423632572,43.6904610372271],[-79.4721567779154,43.6904577543653],[-79.4721979319178,43.6905521078848],[-79.4722504405977,43.6906725030987]]]]},"properties":{"_id":1817,"FLOC_ID":"006264-P01","Property Description":"EGLINTON - SCOTT METER HOUSE","Address":"2547 EGLINTON AVE W","City":"TORONTO","Intersection":"SS EGLINTON AVE W, E KEELE ST","Ward \\#":5,"Ward Name":"York South-Weston","Former Municipality":"York","District":"West","City Cluster":"Other Organizations","Property Type":"Commercial/Retail","Property Status":"City Use","Jurisdiction":"Landlord","Management":"Landlord","Owner":"Third Party Organization","Area (M2)":290,"Frontage (M)":12,"Depth (M)":25,"Area (FT2)":3120,"Frontage (FT)":38,"Depth (FT)":82,"OBJECTID":1817}},{"type":"Feature","geometry":{"type":"MultiPolygon","coordinates":[[[[-79.4415317127782,43.6946150787775],[-79.4415589005008,43.6946807625001],[-79.4415811920787,43.6947346151169],[-79.4411832336548,43.6948224490671],[-79.4411608780056,43.6947684793237],[-79.441133596557,43.6947026298354],[-79.4411063151644,43.6946367839403],[-79.4410498037083,43.6946493881226],[-79.4410240885873,43.6946551230826],[-79.4410159586175,43.6946569362484],[-79.4409933766134,43.6946619653166],[-79.4409905102719,43.6946626101297],[-79.4409543658988,43.694670664723],[-79.4408563282617,43.6944339574908],[-79.4408924947642,43.69442597585],[-79.4409260939804,43.6944185590523],[-79.4410083845922,43.6944004045393],[-79.4414064732179,43.6943125721581],[-79.441439153378,43.6943915113295],[-79.4414718348538,43.6944704612926],[-79.4415045176637,43.6945494031449],[-79.4415317127782,43.6946150787775]]]]},"properties":{"_id":3443,"FLOC_ID":"003091-P01","Property Description":"FIRE HALL 341","Address":"555 OAKWOOD AVE","City":"YORK","Intersection":"None","Ward \\#":12,"Ward Name":"Toronto-St. Paul's","Former Municipality":"York","District":"South","City Cluster":"Citizen-Focused Services Group B","Property Type":"EMS/Fire","Property Status":"City Use","Jurisdiction":"Fire Services","Management":"Fire Services","Owner":"City of Toronto","Area (M2)":1983,"Frontage (M)":49,"Depth (M)":null,"Area (FT2)":21344,"Frontage (FT)":160,"Depth (FT)":null,"OBJECTID":3443}},{"type":"Feature","geometry":{"type":"MultiPolygon","coordinates":[[[[-79.4853341628792,43.6844756083766],[-79.4852591720687,43.6842986159221],[-79.4851684438924,43.6843189912479],[-79.485150218864,43.6842758123093],[-79.4850574404868,43.6840558982672],[-79.4851477155803,43.6840355103678],[-79.4852956848341,43.684002088738],[-79.4854830409956,43.6844424206574],[-79.4855983370059,43.68441674551],[-79.4856509693338,43.6844050126237],[-79.4856530879725,43.6844045439215],[-79.485711810745,43.6843914543742],[-79.4857774401493,43.6843768345339],[-79.4858139779699,43.6844633974472],[-79.4856875540938,43.6844916989008],[-79.4850047105252,43.6846446038829],[-79.4848711241293,43.6845787894257],[-79.4853341628792,43.6844756083766]]]]},"properties":{"_id":3631,"FLOC_ID":"003286-P01","Property Description":"FIRE HALL 421","Address":"6 LAMBTON AVE","City":"YORK","Intersection":"None","Ward \\#":5,"Ward Name":"York South-Weston","Former Municipality":"York","District":"West","City Cluster":"Citizen-Focused Services Group B","Property Type":"EMS/Fire","Property Status":"City Use","Jurisdiction":"Fire Services","Management":"Fire Services","Owner":"City of Toronto","Area (M2)":1619,"Frontage (M)":20,"Depth (M)":null,"Area (FT2)":17424,"Frontage (FT)":66,"Depth (FT)":null,"OBJECTID":3631}},{"type":"Feature","geometry":{"type":"MultiPolygon","coordinates":[[[[-79.487628026376,43.6949541578479],[-79.4872738866907,43.694952080177],[-79.4864298992392,43.6945987787359],[-79.4859626280236,43.6939012536015],[-79.4858292238659,43.6937021213467],[-79.485332357142,43.6929604124028],[-79.4860708947695,43.6933808012881],[-79.4862585057629,43.6935096757079],[-79.4870580589551,43.6940594617714],[-79.4873987728935,43.6943881964183],[-79.487634585021,43.6947622411322],[-79.487628026376,43.6949541578479]]]]},"properties":{"_id":4441,"FLOC_ID":"004966-P01","Property Description":"POLICE STATION - DIVISION 12","Address":"200 TRETHEWEY DR","City":"TORONTO","Intersection":"NC TODD BAYLIS BLVD & BLACK CREEK DR","Ward \\#":5,"Ward Name":"York South-Weston","Former Municipality":"Metro Toronto","District":"West","City Cluster":"Agencies, Boards, and Commissions","Property Type":"Police Facility","Property Status":"City Use","Jurisdiction":"Toronto Police Service","Management":"Toronto Police Service","Owner":"City of Toronto","Area (M2)":12586,"Frontage (M)":202,"Depth (M)":null,"Area (FT2)":135472,"Frontage (FT)":664,"Depth (FT)":null,"OBJECTID":4441}},{"type":"Feature","geometry":{"type":"MultiPolygon","coordinates":[[[[-79.468056088154,43.6915652475031],[-79.4678681463126,43.6915874316295],[-79.4677791139036,43.6913793317033],[-79.4676897748611,43.6911704980079],[-79.4678776302438,43.6911476174485],[-79.468065497896,43.6911247230817],[-79.4682441836846,43.6915430532089],[-79.468056088154,43.6915652475031]]]]},"properties":{"_id":8082,"FLOC_ID":"005755-P01","Property Description":"VACANT LAND","Address":"2475 EGLINTON AVE W","City":"TORONTO","Intersection":"SS EGLINTON AVE W, N SILVERTHORN AVE","Ward \\#":5,"Ward Name":"York South-Weston","Former Municipality":"York","District":"West","City Cluster":"Internal Services Group","Property Type":"Commercial/Retail","Property Status":"City Use","Jurisdiction":"Facilities Management & Real Estate Services","Management":"Facilities Management & Real Estate Services","Owner":"City of Toronto","Area (M2)":1499,"Frontage (M)":31,"Depth (M)":49,"Area (FT2)":16132,"Frontage (FT)":101,"Depth (FT)":160,"OBJECTID":8082}},{"type":"Feature","geometry":{"type":"MultiPolygon","coordinates":[[[[-79.4746310655464,43.6851985706292],[-79.4746596087913,43.6852638490319],[-79.4746881520991,43.6853291247264],[-79.4747166942285,43.6853944004127],[-79.4746305231739,43.6854142120977],[-79.4745443446229,43.685434017415],[-79.4744547211506,43.6854546185131],[-79.4742565204233,43.6855001809645],[-79.4740583020285,43.6855457484685],[-79.473860100703,43.6855913066311],[-79.4736618990777,43.6856368644496],[-79.4732654750762,43.6857279907512],[-79.473206830896,43.6855917215589],[-79.4731391787951,43.6854344861756],[-79.4735331039497,43.6853438845048],[-79.4737300803504,43.6852985750618],[-79.4739270390876,43.6852532697756],[-79.4741240024903,43.6852079632505],[-79.4743209767619,43.6851626518876],[-79.4743090257493,43.6851365823193],[-79.4743058546079,43.6851296316979],[-79.4743975964029,43.6851085514202],[-79.4744857965358,43.6850882803959],[-79.4745739916437,43.6850680192038],[-79.4746025223623,43.6851332949191],[-79.4746310655464,43.6851985706292]]]]},"properties":{"_id":9334,"FLOC_ID":"005876-P01","Property Description":"QUARTERMASTER/STORES","Address":"15 ROTHERHAM AVE","City":"TORONTO","Intersection":"SWC ROTHERHAM AVE, KEELE ST","Ward \\#":5,"Ward Name":"York South-Weston","Former Municipality":"York","District":"West","City Cluster":"Citizen-Focused Services Group B","Property Type":"EMS/Fire","Property Status":"City Use","Jurisdiction":"Fire Services","Management":"Fire Services","Owner":"City of Toronto","Area (M2)":4614,"Frontage (M)":124,"Depth (M)":null,"Area (FT2)":49660,"Frontage (FT)":406,"Depth (FT)":null,"OBJECTID":9334}}]}