{"type":"FeatureCollection","features":[{"type":"Feature","geometry":{"type":"MultiPolygon","coordinates":[[[[-79.4605111152997,43.6822481071633],[-79.4603238134125,43.6819658665063],[-79.4600766926446,43.6815934799178],[-79.4598355991654,43.6812301709121],[-79.4596685258743,43.6809784020805],[-79.4594284139138,43.6806143553156],[-79.4593198538296,43.6804507592659],[-79.4591289502491,43.6801465367718],[-79.4591285178357,43.6801458885226],[-79.4591068370315,43.6801143806696],[-79.4590744050969,43.6800672219792],[-79.4590423213845,43.6800205674775],[-79.459036428514,43.680011997915],[-79.4590306824912,43.6800045238646],[-79.4590185039539,43.6799886789861],[-79.4589976961879,43.6799556754061],[-79.4589638655536,43.6799064827844],[-79.4589300699211,43.6798515140211],[-79.4589131541644,43.6798239999248],[-79.4588962173622,43.6797964516132],[-79.4588623797311,43.6797414144039],[-79.4588389884036,43.6797033682273],[-79.458811609154,43.6796588342614],[-79.4587859321607,43.679617071507],[-79.4587609155263,43.6795763792412],[-79.4587099470058,43.6794934794331],[-79.4587099185127,43.6794934317158],[-79.4586819621391,43.6794479604718],[-79.4586818865683,43.6794478371264],[-79.4586543118087,43.6794029862039],[-79.4586267445236,43.6793581469787],[-79.458598784522,43.6793127234189],[-79.4585910354608,43.6793000647625],[-79.4585459970371,43.6792333765944],[-79.4585403869093,43.6792250708462],[-79.4585388034865,43.6792227254292],[-79.4585350491752,43.6792174366946],[-79.4585064193606,43.6791777224026],[-79.4584748555397,43.6791338601313],[-79.4584718028093,43.6791291657363],[-79.458444168462,43.6790866307775],[-79.4584132113507,43.679038979155],[-79.4583783814054,43.6789853681426],[-79.4583555529755,43.6789502312924],[-79.4583546188267,43.6789487934419],[-79.458332728291,43.6789150971392],[-79.4583045031747,43.6788716527967],[-79.4582960277197,43.6788586058976],[-79.4582881543816,43.6788464881535],[-79.4582574824671,43.6787992767553],[-79.4582374355471,43.6787684192217],[-79.4582315407822,43.6787593464415],[-79.4582080026275,43.6787231138409],[-79.4582062037231,43.6787203452784],[-79.458178524826,43.6786782080942],[-79.4581760556444,43.678674448241],[-79.4581435053349,43.6786248948811],[-79.4581192484326,43.6785879670965],[-79.4581143175178,43.6785804590919],[-79.4580842996646,43.6785347619062],[-79.4580599734564,43.6784977269674],[-79.4580006998961,43.678407489507],[-79.4579710984924,43.6783624234355],[-79.4579414252744,43.6783172502138],[-79.457910746979,43.6782728444264],[-79.4578798692529,43.6782281514149],[-79.4578496519445,43.6781844145781],[-79.4578183158915,43.6781390561829],[-79.4577753930571,43.6780769285458],[-79.457756760233,43.6780499591153],[-79.4577324727897,43.6780148035932],[-79.4576881401941,43.6779506339017],[-79.4576364903981,43.6778758732309],[-79.457586692969,43.6778037947156],[-79.4575248740999,43.6777143139641],[-79.457491179573,43.6776655421994],[-79.4574561990732,43.6776149075732],[-79.4574212892505,43.6775643773773],[-79.4573810941512,43.6775061958797],[-79.4573760509934,43.6774980721098],[-79.4572609835395,43.6773432343726],[-79.4570413890511,43.6770587445899],[-79.4570050579383,43.6770126513782],[-79.4569543919831,43.6769483709928],[-79.4568908744496,43.6768677852493],[-79.4568029634991,43.6767562518188],[-79.4567330019848,43.6766674903513],[-79.4567169343372,43.6766411473074],[-79.4566684422248,43.6765952654116],[-79.4566762914229,43.6765935320322],[-79.4566869143851,43.6765925639152],[-79.4566987464993,43.67658992291],[-79.456816153416,43.6765637158747],[-79.4567870933994,43.6765115818502],[-79.4567777630422,43.6764948421686],[-79.4566939832745,43.6763445406231],[-79.456636553435,43.6762331383154],[-79.456578045115,43.6761196445603],[-79.4564987832421,43.6759760253582],[-79.4564989143844,43.6759730306687],[-79.4564971223314,43.6759730173849],[-79.4564084602175,43.6758123649395],[-79.456404899999,43.6758067647601],[-79.4563240420713,43.6756796010357],[-79.4562422690439,43.6755509966895],[-79.4562099158395,43.6755043583554],[-79.4561924886145,43.6754792361909],[-79.4561876594914,43.6754722736181],[-79.4561554773722,43.6754871521653],[-79.4561534911887,43.6754880704384],[-79.4561527485673,43.6754877389049],[-79.4560910924198,43.6754602099001],[-79.4560242330301,43.6754303565194],[-79.4559790348853,43.6754101752622],[-79.4559148925846,43.6753349012942],[-79.4558895467701,43.6753118661355],[-79.4558855201455,43.6753082055443],[-79.4558384710049,43.675265444601],[-79.4558351061933,43.6752623873523],[-79.4558642151398,43.6752559671505],[-79.4559943122585,43.6752272733861],[-79.4560586959352,43.6752130733643],[-79.4561244675502,43.6751985668939],[-79.4562373196405,43.6751736764919],[-79.4562880364091,43.6752502701426],[-79.4564081306164,43.6754316350273],[-79.4564314966916,43.6754264627747],[-79.4564447932746,43.6754529083237],[-79.4566001500418,43.6757618954605],[-79.4567499007995,43.6759182214499],[-79.4567604303747,43.675915878789],[-79.4568895500106,43.6758871566353],[-79.4570143991007,43.6761892141614],[-79.457036114483,43.6762417504302],[-79.4571609662804,43.6765438104788],[-79.4572323104309,43.6767173313296],[-79.4572297006549,43.6767178965362],[-79.4571981538612,43.6767247365328],[-79.4570816156051,43.6767500036479],[-79.457150468587,43.6768393324685],[-79.4572184011529,43.6769274655265],[-79.4572349735769,43.6769489659778],[-79.4572872062172,43.6770167312348],[-79.4573199013954,43.6770591477608],[-79.4573547278127,43.6771043311775],[-79.4573546956853,43.6771041646411],[-79.4573903262227,43.6771505149175],[-79.4574235778884,43.677193653526],[-79.457462679262,43.6772443806129],[-79.4574970276113,43.6772889427159],[-79.4575000296175,43.6772932212587],[-79.4575317247946,43.6773383773516],[-79.4575609507572,43.6773800175038],[-79.4575904195993,43.6774220015886],[-79.4576151407487,43.6774572230151],[-79.4576219303047,43.6774668956487],[-79.4576516965842,43.6775093046896],[-79.4576840734238,43.6775554322333],[-79.4577164503117,43.6776015615678],[-79.4577488334453,43.6776476980961],[-79.457778770883,43.6776903502014],[-79.4578055366371,43.6777266200936],[-79.4578201065285,43.6777463635608],[-79.4579329872683,43.6778993267453],[-79.4583558512345,43.6785297439083],[-79.4587180624483,43.6790767493603],[-79.4587654958878,43.6791506447797],[-79.4588146868616,43.6792209348848],[-79.4588631649211,43.6792965030826],[-79.4589148333569,43.6793770447322],[-79.4589665081259,43.6794575953609],[-79.4589911345004,43.6794959813057],[-79.4590181768392,43.6795381351614],[-79.4590193550724,43.679539970952],[-79.4590471717894,43.6795833321545],[-79.4590698494065,43.6796186821398],[-79.4590718911869,43.6796218639356],[-79.4590964830046,43.6796601967364],[-79.4591215183955,43.6796992227915],[-79.4591473888721,43.6797395480291],[-79.4591747882484,43.6797822564546],[-79.4591768287997,43.6797854382479],[-79.4592062687721,43.6798313284589],[-79.459228578607,43.6798661039961],[-79.4592312770493,43.6798703103727],[-79.4592565405844,43.6799096893297],[-79.4592823728319,43.6799499578133],[-79.4593361684474,43.6800338107044],[-79.4593664799374,43.6800788001505],[-79.4593967927136,43.6801237886886],[-79.459427032432,43.6801686691766],[-79.4594574171614,43.6802137657391],[-79.4595180405501,43.6803037427557],[-79.4595502876881,43.6803516024553],[-79.4595795153405,43.6803949811239],[-79.4596048598838,43.6804325966716],[-79.4596342883401,43.6804762724399],[-79.4596644194617,43.680522715452],[-79.4596880731505,43.6805591728148],[-79.459748401272,43.6806521614392],[-79.4597809734065,43.6807023660273],[-79.4598135963957,43.6807526471348],[-79.4598542630767,43.6808153285662],[-79.4598951020646,43.6808782755817],[-79.4599733117507,43.6810033690359],[-79.4600515279565,43.6811284723376],[-79.4600631149456,43.6811487095368],[-79.4603235044791,43.6815331382444],[-79.460325100425,43.6815354989423],[-79.4603850068738,43.6816276544471],[-79.4605518763004,43.6818855439246],[-79.460700298395,43.6821136558701],[-79.4607867593128,43.6822465368109],[-79.4608949783501,43.6824116408193],[-79.461059877154,43.682662461017],[-79.4611139119203,43.6827446514713],[-79.4611652534956,43.6827335496069],[-79.461198702172,43.6827263167112],[-79.4612127228288,43.6827493099153],[-79.4614320478854,43.683108990051],[-79.4613980159545,43.6831164028437],[-79.461158845698,43.6831684997169],[-79.4610238886925,43.6831978952631],[-79.4608791397121,43.6828026676201],[-79.4605111152997,43.6822481071633]]]]},"properties":{"_id":4981,"FLOC_ID":"007867-P01","Property Description":"AMENDING AGREEMENT WITH METROLINX","Address":"486 COXWELL AVE","City":"TORONTO","Intersection":"Coxwell Ave & Hanson St","Ward \\#":14,"Ward Name":"Toronto-Danforth","Former Municipality":"None","District":"South","City Cluster":"Citizen-Focused Services Group B","Property Type":"Other Misc. Use","Property Status":"City Use","Jurisdiction":"Transportation Services","Management":"Transportation Services","Owner":"METROLINX","Area (M2)":1241,"Frontage (M)":null,"Depth (M)":null,"Area (FT2)":13353,"Frontage (FT)":null,"Depth (FT)":null,"OBJECTID":4981}},{"type":"Feature","geometry":{"type":"MultiPolygon","coordinates":[[[[-79.4626240510349,43.6903645457514],[-79.4631284850962,43.6902514849469],[-79.4631578693785,43.6903023292526],[-79.4626466436059,43.6904169316893],[-79.4626240510349,43.6903645457514]]]]},"properties":{"_id":7238,"FLOC_ID":"007729-P01","Property Description":"ACQUISITION OF STRATA EASEMENT FROM METROLINX","Address":"400R CALEDONIA RD","City":"YORK","Intersection":"Eglinton Ave W and Caledonia Rd","Ward \\#":5,"Ward Name":"York South-Weston","Former Municipality":"None","District":"West","City Cluster":"Citizen-Focused Services Group B","Property Type":"Railway Land","Property Status":"City Use","Jurisdiction":"Toronto Water","Management":"Toronto Water","Owner":"METROLINX","Area (M2)":632,"Frontage (M)":null,"Depth (M)":null,"Area (FT2)":6803,"Frontage (FT)":null,"Depth (FT)":null,"OBJECTID":7238}},{"type":"Feature","geometry":{"type":"MultiPolygon","coordinates":[[[[-79.4893448328743,43.6886824951991],[-79.4893422125764,43.6886852124475],[-79.4874052255271,43.6876992036962],[-79.4871111724588,43.687552323671],[-79.4871142227973,43.6875516462168],[-79.4871336573823,43.6875473385823],[-79.4872569237309,43.6875199605266],[-79.4876732746252,43.6874274862933],[-79.4878059326463,43.6874933144465],[-79.488015888803,43.6875974961236],[-79.488107457642,43.6876429379607],[-79.4884461784719,43.6878109856062],[-79.4890339902493,43.6881030457417],[-79.4891375507972,43.688154529573],[-79.4892411078009,43.6882060133098],[-79.4896011003736,43.6883849798952],[-79.4900564275623,43.6886113419228],[-79.490245448267,43.6887053137868],[-79.4902445412792,43.6887066909084],[-79.4910943319587,43.689128164252],[-79.4911168606531,43.6891393375185],[-79.4916333819137,43.6893955435831],[-79.4919658808645,43.689560457741],[-79.4921499075734,43.6896517356008],[-79.4926664351478,43.689907937875],[-79.4926629748978,43.6899127164425],[-79.4928499068375,43.6900006682764],[-79.4929885156424,43.6900658867703],[-79.4930885713785,43.6901155575284],[-79.4931886123958,43.6901652119953],[-79.4932887031942,43.6902148942811],[-79.4933253187644,43.6902330709465],[-79.4933887929192,43.6902645593764],[-79.4934411034534,43.690290501431],[-79.4936335099027,43.6903859404715],[-79.4938872965744,43.690511819474],[-79.4946081268185,43.690869344982],[-79.495635852059,43.6913791097795],[-79.4966033994238,43.6918589900187],[-79.49731505751,43.6922119290419],[-79.497474192592,43.6922908569247],[-79.4978058663571,43.6924553498353],[-79.497827776053,43.6924662031149],[-79.4979275532188,43.6925156913856],[-79.4980296366448,43.6925663191723],[-79.4980569562592,43.6925798593873],[-79.4981812834223,43.6926415139998],[-79.4983388453287,43.6927196602357],[-79.4990556582924,43.6930756290809],[-79.501318650352,43.6941990695451],[-79.5014840112171,43.6942811548001],[-79.501564971474,43.6946204088018],[-79.5015783747824,43.6946766216819],[-79.5015838686211,43.6946997018168],[-79.4976195909139,43.6927376519095],[-79.4975659243027,43.6927110915601],[-79.4931934635445,43.6905521897916],[-79.4930808404097,43.6904961904567],[-79.4924680284632,43.6901945983315],[-79.4923739131775,43.6902178712492],[-79.4907856128796,43.689412811291],[-79.4895640719304,43.6887936283805],[-79.4893448328743,43.6886824951991]]]]},"properties":{"_id":7255,"FLOC_ID":"007729-P01","Property Description":"ACQUISITION OF STRATA EASEMENT FROM METROLINX","Address":"400R CALEDONIA RD","City":"YORK","Intersection":"Eglinton Ave W and Caledonia Rd","Ward \\#":5,"Ward Name":"York South-Weston","Former Municipality":"None","District":"West","City Cluster":"Citizen-Focused Services Group B","Property Type":"Railway Land","Property Status":"City Use","Jurisdiction":"Toronto Water","Management":"Toronto Water","Owner":"METROLINX","Area (M2)":632,"Frontage (M)":null,"Depth (M)":null,"Area (FT2)":6803,"Frontage (FT)":null,"Depth (FT)":null,"OBJECTID":7255}},{"type":"Feature","geometry":{"type":"MultiPolygon","coordinates":[[[[-79.4638248014045,43.6910791454062],[-79.4637440832895,43.6909337317838],[-79.463691544853,43.6908390844704],[-79.4635878538263,43.6906522862678],[-79.4634634472979,43.6904636486813],[-79.4633314010692,43.6902634274325],[-79.4632412310919,43.6902833570501],[-79.4631578693785,43.6903023292526],[-79.4631284850962,43.6902514849469],[-79.4632203761098,43.690230725152],[-79.4632619240656,43.6902214311705],[-79.46339174998,43.6901924616376],[-79.4633686158214,43.6901485188893],[-79.4633453810363,43.6901028379529],[-79.4633233608793,43.6900568765607],[-79.4632994455011,43.6900106121118],[-79.4632765012229,43.6899647161225],[-79.4632541683521,43.6899191128671],[-79.4632326694384,43.6898729715975],[-79.4632098417458,43.68982727456],[-79.463188943128,43.6897813891115],[-79.4631684243551,43.6897351266268],[-79.463131424388,43.6896530930616],[-79.4630952545102,43.689570864423],[-79.463059915956,43.689488446113],[-79.4630437117079,43.6894482302705],[-79.4630278275606,43.6894079479193],[-79.4630036623408,43.6893471561249],[-79.4629802291311,43.6892862142402],[-79.4629544196274,43.6892166096291],[-79.4629295642047,43.6891468216942],[-79.4629056678172,43.6890768576388],[-79.4628852734541,43.6890146520351],[-79.4628656346464,43.6889523170539],[-79.4628467563494,43.6888898598981],[-79.4628321288192,43.6888479486888],[-79.4627682996659,43.6888450925071],[-79.4627492369841,43.6887961696294],[-79.4626549402247,43.6888170380806],[-79.4626111712613,43.6888267244743],[-79.4625818950673,43.6887316134544],[-79.4625613031213,43.6886647171467],[-79.4625407087463,43.6885978109323],[-79.46251951923,43.6885305444662],[-79.4624982280831,43.6884632167532],[-79.4624961024364,43.6884564965846],[-79.4623911800637,43.6881247083516],[-79.4623754291785,43.6880749025671],[-79.4623441466108,43.6879759805623],[-79.4623399585269,43.6879627346671],[-79.46228488841,43.6877885881247],[-79.4622768711349,43.6875853693794],[-79.4622722186351,43.6874878855383],[-79.4622702009269,43.6874456039538],[-79.4622617089622,43.6872676363936],[-79.4622600634574,43.6872331653607],[-79.4622548980287,43.6871249175853],[-79.4622543662955,43.6871222962303],[-79.4622264823893,43.6869850405483],[-79.4621753298735,43.6867332355701],[-79.4620868273577,43.6862975692361],[-79.4620524015736,43.6861183184353],[-79.4619816316917,43.6857599034603],[-79.4619672805025,43.6857048593048],[-79.461966875878,43.6857033073451],[-79.461819821766,43.6851214625203],[-79.4618193590289,43.6851196315],[-79.4615952559319,43.6843251433842],[-79.4615392947962,43.6841253198415],[-79.4614705931631,43.6839526894234],[-79.4613651464967,43.6836877228247],[-79.4613332817025,43.6836575144604],[-79.4611162223932,43.6834517357222],[-79.4611078896106,43.683429016284],[-79.4610871356869,43.6833724278926],[-79.4610238886925,43.6831978952631],[-79.461158845698,43.6831684997169],[-79.4613980159545,43.6831164028437],[-79.4614320478854,43.683108990051],[-79.4615274971045,43.6832763421542],[-79.4615283086309,43.6832777367301],[-79.4615379949003,43.6832944032133],[-79.4616951478857,43.6835647841939],[-79.4617279177461,43.6836211640658],[-79.4617388493054,43.6836399732594],[-79.4617519639661,43.6836625358278],[-79.4617574555474,43.6836869816187],[-79.4617725883412,43.683754343472],[-79.4617879017476,43.683822511],[-79.4618031607676,43.6838904354716],[-79.4618178044757,43.6839585721657],[-79.4618324395584,43.6840266710487],[-79.4618470783867,43.6840947834323],[-79.461861722194,43.6841629201184],[-79.4618763586163,43.6842310189938],[-79.4618910024893,43.6842991565746],[-79.4619056402123,43.6843672644464],[-79.46192030023,43.6844354749378],[-79.4619349380186,43.6845035837044],[-79.4619495746046,43.6845716852668],[-79.4619642099844,43.6846397850259],[-79.4619788466382,43.6847078838826],[-79.4619934857972,43.6847759962394],[-79.4620682813272,43.6851001725358],[-79.4621122025862,43.6852779151923],[-79.4621257295465,43.6853320229248],[-79.4621392590057,43.6853861405576],[-79.4621527538485,43.685440115056],[-79.4621662499497,43.6854940994541],[-79.4621796183846,43.6855479748922],[-79.4621929905565,43.6856018629312],[-79.4622082490179,43.6856563150735],[-79.4622187365194,43.6856937405674],[-79.4622230617376,43.685711519575],[-79.462229669579,43.6857386786968],[-79.4622383170525,43.6857789848982],[-79.4622554106958,43.6858463806155],[-79.4622725019046,43.6859137637267],[-79.4622895931487,43.6859811513352],[-79.4623066869062,43.6860485479426],[-79.4623237794677,43.6861159346448],[-79.4623408708265,43.6861833222433],[-79.4623579634622,43.6862507125393],[-79.4623751217161,43.6863183602909],[-79.4623922787715,43.6863860026378],[-79.4624208145553,43.6864985076222],[-79.4624380867851,43.6865666072643],[-79.4624532019689,43.6866347503008],[-79.462471902238,43.6867024327447],[-79.4624906037884,43.6867701169855],[-79.4625092793883,43.6868377112008],[-79.4625275886969,43.6869039766998],[-79.462531640659,43.6869186447519],[-79.4625648641206,43.6869678738641],[-79.4625659026253,43.6869694134271],[-79.4627643157911,43.6872502405786],[-79.4628542624642,43.6874202396435],[-79.4628762430668,43.687471878256],[-79.4628798439477,43.6874800121023],[-79.4628993248893,43.6875240203941],[-79.4629200285052,43.6875666788835],[-79.4629223727379,43.6875709696647],[-79.4629476880647,43.6876220278596],[-79.4629511824664,43.6876298718269],[-79.4629707875503,43.6876738810458],[-79.4629792380072,43.6876949333282],[-79.4629919490022,43.6877265986246],[-79.4630085418135,43.6877655004222],[-79.4630143225481,43.687779052853],[-79.4630362904585,43.6878315969584],[-79.4630467373655,43.6878578004258],[-79.4630572102924,43.6878840660095],[-79.4630670010469,43.6879102440592],[-79.4630771026505,43.6879372485277],[-79.4630873767859,43.6879640847267],[-79.4630976274021,43.6879908561076],[-79.4631124175475,43.6880305116155],[-79.4631173921827,43.6880438495493],[-79.463137737591,43.6880967270575],[-79.463162005196,43.688149746246],[-79.4631822729174,43.6882019936292],[-79.4631979359953,43.68824237041],[-79.4630133743836,43.6882824926501],[-79.4628741933683,43.6883133922044],[-79.4629022217827,43.6884228481251],[-79.4629495002392,43.6885894694385],[-79.4629967826769,43.6887560934292],[-79.4630233894889,43.6888400778717],[-79.4630296823457,43.6888621789997],[-79.4630631170994,43.6889656966609],[-79.4630899224606,43.68904581149],[-79.4631174958221,43.6891257816387],[-79.4631457157829,43.6892053442292],[-79.4631748783802,43.6892852086588],[-79.4632045241061,43.6893642334141],[-79.4632352449583,43.689443961508],[-79.4632665790195,43.6895231326091],[-79.463298634033,43.6896020392938],[-79.4633314396807,43.6896808318927],[-79.463365017066,43.6897594897089],[-79.4633993166173,43.6898379398154],[-79.463434486905,43.689914615133],[-79.4635774968069,43.6902180693585],[-79.4636765002758,43.6904114460441],[-79.4637081671313,43.6904712679267],[-79.4637405722621,43.690530881204],[-79.4637737144326,43.690590280474],[-79.4638072305597,43.6906488391311],[-79.4638414626427,43.6907071801729],[-79.4638764069657,43.6907652972966],[-79.4639637535737,43.6909057928107],[-79.4640373774681,43.6910164788436],[-79.464339410811,43.6914650702732],[-79.4646950924385,43.6919933326162],[-79.4646541174057,43.6920054744026],[-79.4644065812352,43.6920716417258],[-79.4643027579053,43.691889347519],[-79.4642027684087,43.6917382682064],[-79.4641796029329,43.6917032666115],[-79.4640672392573,43.691582586975],[-79.4641231450798,43.6915700018206],[-79.4640461458215,43.6914433185884],[-79.4640307192407,43.6914179372806],[-79.4638248014045,43.6910791454062]]]]},"properties":{"_id":7287,"FLOC_ID":"007729-P01","Property Description":"ACQUISITION OF STRATA EASEMENT FROM METROLINX","Address":"400R CALEDONIA RD","City":"YORK","Intersection":"Eglinton Ave W and Caledonia Rd","Ward \\#":5,"Ward Name":"York South-Weston","Former Municipality":"None","District":"West","City Cluster":"Citizen-Focused Services Group B","Property Type":"Railway Land","Property Status":"City Use","Jurisdiction":"Toronto Water","Management":"Toronto Water","Owner":"METROLINX","Area (M2)":632,"Frontage (M)":null,"Depth (M)":null,"Area (FT2)":6803,"Frontage (FT)":null,"Depth (FT)":null,"OBJECTID":7287}},{"type":"Feature","geometry":{"type":"MultiPolygon","coordinates":[[[[-79.4647924315598,43.6931767943325],[-79.4647757824993,43.6931510599057],[-79.4647598287639,43.6931264004452],[-79.4647272235425,43.693076004747],[-79.4646939763622,43.6930246159982],[-79.4646703867011,43.6929881543697],[-79.464701521902,43.6929791464923],[-79.4647674549455,43.6929600714886],[-79.4647826788469,43.6929556673462],[-79.4648877137805,43.6929252806855],[-79.4647079506797,43.6925618214735],[-79.4646255911721,43.6923907165089],[-79.4649413024294,43.6923222932176],[-79.4650007382033,43.6923094116755],[-79.465094479372,43.6924567159245],[-79.465106958875,43.6924762174391],[-79.4650238681798,43.6924942378407],[-79.4649935289997,43.6925001730084],[-79.4649966108729,43.6925058564695],[-79.4650103139059,43.6925310777917],[-79.465019351308,43.6925478202652],[-79.4650613843085,43.6926262776018],[-79.4651025489093,43.6927049776918],[-79.4651428426299,43.6927839142342],[-79.4651808817741,43.6928618122255],[-79.4652180587211,43.6929399286721],[-79.4652543734707,43.6930182590743],[-79.4652898210608,43.6930967980306],[-79.4653244014916,43.6931755401409],[-79.4653581110409,43.6932544809044],[-79.4653909484683,43.6933336149206],[-79.4654229100515,43.6934129376885],[-79.4654539957905,43.6934924438081],[-79.4654842032041,43.6935721278785],[-79.4655135298111,43.6936519844989],[-79.4655419731298,43.6937320091685],[-79.465548845252,43.6937524063689],[-79.4656664931516,43.6941015757943],[-79.465725443941,43.6942765272943],[-79.4658079715621,43.6942600400402],[-79.4657320826377,43.6942996734062],[-79.4657453280791,43.6943454606466],[-79.4657464300103,43.6943492685232],[-79.4657638690038,43.6944095589985],[-79.4657741689852,43.6944451657918],[-79.46578240997,43.6944736537462],[-79.4658009522142,43.6945377520911],[-79.4658019055744,43.6945410504495],[-79.4658194932568,43.6946018513321],[-79.4658296434899,43.6946369396],[-79.4658380355794,43.6946659505696],[-79.4658573814936,43.6947328287421],[-79.4658590355365,43.6947387448847],[-79.4658724263493,43.6947866636559],[-79.4658851820574,43.6948323130102],[-79.4659130916645,43.6949321834576],[-79.4659410038387,43.695032065599],[-79.4659689123893,43.6951319378292],[-79.4659968247502,43.6952318172531],[-79.4660247347259,43.6953316903668],[-79.4660526472704,43.695431572474],[-79.4661022376084,43.6956090278178],[-79.466128098887,43.6957015687417],[-79.4661539627222,43.6957941168601],[-79.4661798241592,43.6958866586695],[-79.4662056881528,43.6959792076733],[-79.4662315497498,43.6960717476678],[-79.4662420687351,43.6961093905648],[-79.4662574139018,43.6961642975572],[-79.4662832744171,43.6962568375366],[-79.4663091387286,43.6963493865112],[-79.4663350006434,43.6964419264763],[-79.4663608626376,43.6965344664342],[-79.466386727187,43.6966270162868],[-79.4664125880996,43.6967195562296],[-79.4664384528084,43.6968121051675],[-79.4664643151205,43.696904645096],[-79.4664901799878,43.6969971949194],[-79.4665160424588,43.6970897348332],[-79.466541906247,43.6971822801409],[-79.4665541838045,43.6972262118158],[-79.4666706667241,43.6976430054201],[-79.4664257055604,43.6976970035605],[-79.4663443226456,43.6977149434951],[-79.4659130038086,43.6961757800303],[-79.4655145656856,43.694753875266],[-79.4655086244962,43.6947973497092],[-79.4655020667616,43.694840777159],[-79.4654948937231,43.6948841540151],[-79.4654379021386,43.6947000882999],[-79.465345353006,43.6944011786991],[-79.4651559571092,43.6937894725216],[-79.4651428177462,43.6937564301712],[-79.4651035483969,43.6936576695076],[-79.4650623000353,43.6935939142522],[-79.4650215177867,43.6935308792273],[-79.464993788038,43.693488019183],[-79.4649921557103,43.6934854974209],[-79.4649518321968,43.6934231700121],[-79.4649395457739,43.6934041807166],[-79.4648987811337,43.6933411735552],[-79.4648576311194,43.6932775703746],[-79.4648250331713,43.6932271855095],[-79.4647924315598,43.6931767943325]]]]},"properties":{"_id":7315,"FLOC_ID":"007729-P01","Property Description":"ACQUISITION OF STRATA EASEMENT FROM METROLINX","Address":"400R CALEDONIA RD","City":"YORK","Intersection":"Eglinton Ave W and Caledonia Rd","Ward \\#":5,"Ward Name":"York South-Weston","Former Municipality":"None","District":"West","City Cluster":"Citizen-Focused Services Group B","Property Type":"Railway Land","Property Status":"City Use","Jurisdiction":"Toronto Water","Management":"Toronto Water","Owner":"METROLINX","Area (M2)":632,"Frontage (M)":null,"Depth (M)":null,"Area (FT2)":6803,"Frontage (FT)":null,"Depth (FT)":null,"OBJECTID":7315}},{"type":"Feature","geometry":{"type":"MultiPolygon","coordinates":[[[[-79.4657815095864,43.6941655590621],[-79.4657906290187,43.6941981167644],[-79.4657907317741,43.6941984876484],[-79.4658079715621,43.6942600400402],[-79.465725443941,43.6942765272943],[-79.4656664931516,43.6941015757943],[-79.465548845252,43.6937524063689],[-79.4655419731298,43.6937320091685],[-79.4655135298111,43.6936519844989],[-79.4654842032041,43.6935721278785],[-79.4654539957905,43.6934924438081],[-79.4654229100515,43.6934129376885],[-79.4653909484683,43.6933336149206],[-79.4653581110409,43.6932544809044],[-79.4653244014916,43.6931755401409],[-79.4652898210608,43.6930967980306],[-79.4652543734707,43.6930182590743],[-79.4652180587211,43.6929399286721],[-79.4651808817741,43.6928618122255],[-79.4651428426299,43.6927839142342],[-79.4651025501498,43.6927049776921],[-79.465061385549,43.6926262776022],[-79.465019351308,43.6925478202652],[-79.4650103139059,43.6925310777917],[-79.4651224326734,43.6925069966878],[-79.4651307978207,43.6925235994274],[-79.4652503228714,43.6927608919439],[-79.4653190048015,43.6929027659969],[-79.4655486821084,43.6934219517538],[-79.4656722266705,43.6937780998725],[-79.4656905348352,43.6938431190051],[-79.4656981401456,43.6938701161637],[-79.4657583629915,43.6940832182122],[-79.4657679864534,43.6941172729827],[-79.4657815095864,43.6941655590621]]]]},"properties":{"_id":7347,"FLOC_ID":"007729-P01","Property Description":"ACQUISITION OF STRATA EASEMENT FROM METROLINX","Address":"400R CALEDONIA RD","City":"YORK","Intersection":"Eglinton Ave W and Caledonia Rd","Ward \\#":5,"Ward Name":"York South-Weston","Former Municipality":"None","District":"West","City Cluster":"Citizen-Focused Services Group B","Property Type":"Railway Land","Property Status":"City Use","Jurisdiction":"Toronto Water","Management":"Toronto Water","Owner":"METROLINX","Area (M2)":632,"Frontage (M)":null,"Depth (M)":null,"Area (FT2)":6803,"Frontage (FT)":null,"Depth (FT)":null,"OBJECTID":7347}},{"type":"Feature","geometry":{"type":"MultiPolygon","coordinates":[[[[-79.4651224326734,43.6925069966878],[-79.4650103139059,43.6925310777917],[-79.4649966108729,43.6925058564695],[-79.4649935289997,43.6925001730084],[-79.4650238681798,43.6924942378407],[-79.465106958875,43.6924762174391],[-79.4651096080207,43.6924815470142],[-79.4651224326734,43.6925069966878]]]]},"properties":{"_id":7348,"FLOC_ID":"007729-P01","Property Description":"ACQUISITION OF STRATA EASEMENT FROM METROLINX","Address":"400R CALEDONIA RD","City":"YORK","Intersection":"Eglinton Ave W and Caledonia Rd","Ward \\#":5,"Ward Name":"York South-Weston","Former Municipality":"None","District":"West","City Cluster":"Citizen-Focused Services Group B","Property Type":"Railway Land","Property Status":"City Use","Jurisdiction":"Toronto Water","Management":"Toronto Water","Owner":"METROLINX","Area (M2)":632,"Frontage (M)":null,"Depth (M)":null,"Area (FT2)":6803,"Frontage (FT)":null,"Depth (FT)":null,"OBJECTID":7348}},{"type":"Feature","geometry":{"type":"MultiPolygon","coordinates":[[[[-79.4776367739576,43.6824443162308],[-79.4779856364447,43.6826740982906],[-79.4785030719242,43.6829064908777],[-79.4789848223959,43.6830955737588],[-79.4792554811137,43.6831806693698],[-79.4795771326703,43.6832524767264],[-79.4796203189975,43.6832621131346],[-79.4796769619248,43.6832747619575],[-79.4797110151628,43.6832823624113],[-79.479830225745,43.6833089796765],[-79.4798248281272,43.6833635698639],[-79.4798950082293,43.6833984172951],[-79.4799230835156,43.683412362557],[-79.4799620856068,43.6834317222149],[-79.479954729034,43.6834470546551],[-79.4799466618078,43.6834621979425],[-79.4799378926163,43.683477134076],[-79.4799284313871,43.6834918468549],[-79.4798533920579,43.6834628071332],[-79.479950351846,43.6836296769424],[-79.479987194895,43.6836930886169],[-79.4799947578827,43.6837061229355],[-79.4801769599526,43.6840197017519],[-79.4800642940773,43.6839639766628],[-79.4798065581347,43.6838365107029],[-79.4794773036348,43.6836736615992],[-79.4790034984535,43.683439304788],[-79.4789785968143,43.6834269954219],[-79.4783552692813,43.6831117270528],[-79.4777396176111,43.6827886076201],[-79.4770043295357,43.682386775892],[-79.4769782017111,43.6823721624057],[-79.4765485095249,43.6821249377674],[-79.4760268498735,43.6818248086473],[-79.4760129619708,43.6818160672606],[-79.4765198476062,43.6817677985539],[-79.4768832260777,43.6819777165913],[-79.476971851733,43.6820305622754],[-79.4771704704461,43.6821489729574],[-79.4776367739576,43.6824443162308]]]]},"properties":{"_id":7412,"FLOC_ID":"007729-P01","Property Description":"ACQUISITION OF STRATA EASEMENT FROM METROLINX","Address":"400R CALEDONIA RD","City":"YORK","Intersection":"Eglinton Ave W and Caledonia Rd","Ward \\#":5,"Ward Name":"York South-Weston","Former Municipality":"None","District":"West","City Cluster":"Citizen-Focused Services Group B","Property Type":"Railway Land","Property Status":"City Use","Jurisdiction":"Toronto Water","Management":"Toronto Water","Owner":"METROLINX","Area (M2)":632,"Frontage (M)":null,"Depth (M)":null,"Area (FT2)":6803,"Frontage (FT)":null,"Depth (FT)":null,"OBJECTID":7412}},{"type":"Feature","geometry":{"type":"MultiPolygon","coordinates":[[[[-79.4801769599526,43.6840197017519],[-79.4799947578827,43.6837061229355],[-79.479987194895,43.6836930886169],[-79.479950351846,43.6836296769424],[-79.4798533920579,43.6834628071332],[-79.4799284313871,43.6834918468549],[-79.4799378926163,43.683477134076],[-79.4799466618078,43.6834621979425],[-79.479954729034,43.6834470546551],[-79.4799620856068,43.6834317222149],[-79.4800582097362,43.6834785323294],[-79.4801428699252,43.683520527372],[-79.4802126783673,43.6835551486098],[-79.4802350147072,43.6836107985651],[-79.4804543376752,43.6841570644705],[-79.4801769599526,43.6840197017519]]]]},"properties":{"_id":7450,"FLOC_ID":"007729-P01","Property Description":"ACQUISITION OF STRATA EASEMENT FROM METROLINX","Address":"400R CALEDONIA RD","City":"YORK","Intersection":"Eglinton Ave W and Caledonia Rd","Ward \\#":5,"Ward Name":"York South-Weston","Former Municipality":"None","District":"West","City Cluster":"Citizen-Focused Services Group B","Property Type":"Railway Land","Property Status":"City Use","Jurisdiction":"Toronto Water","Management":"Toronto Water","Owner":"METROLINX","Area (M2)":632,"Frontage (M)":null,"Depth (M)":null,"Area (FT2)":6803,"Frontage (FT)":null,"Depth (FT)":null,"OBJECTID":7450}},{"type":"Feature","geometry":{"type":"MultiPolygon","coordinates":[[[[-79.4816426689839,43.6847467175027],[-79.4813267749346,43.684590047193],[-79.4810379892735,43.6840907673306],[-79.4810865401278,43.6841148520726],[-79.4811619739175,43.6841522604627],[-79.4812458545241,43.6841938656984],[-79.481342257155,43.6842416820189],[-79.4815781350765,43.6843586724661],[-79.4816955566122,43.6844169054853],[-79.481665756339,43.6844478057986],[-79.4820649085485,43.6846456701492],[-79.4821958590021,43.6847105873438],[-79.4824549343749,43.6848390193437],[-79.4827174981094,43.6849697349124],[-79.4829745368386,43.6850971194691],[-79.4829835395221,43.6850880591945],[-79.4830864872453,43.6851382747589],[-79.4831802748725,43.6851844932029],[-79.4832740614037,43.6852307106693],[-79.4833678505595,43.6852769289589],[-79.4834616522615,43.6853231525737],[-79.4835241748204,43.6853539640717],[-79.4835554379842,43.6853693707081],[-79.4836179606393,43.6854001812544],[-79.4836492263318,43.6854155878655],[-79.483743017305,43.6854618022455],[-79.4838368059381,43.6855080291496],[-79.4839305909965,43.6855542469747],[-79.4840243799211,43.6856004611224],[-79.4841181689863,43.6856466877946],[-79.484211954477,43.6856929044877],[-79.4843057425932,43.6857391184033],[-79.4843995320928,43.6857853358423],[-79.4844933217344,43.6858315613052],[-79.4845871078019,43.6858777749886],[-79.4846571088638,43.685912269306],[-79.4846807848262,43.685924119099],[-79.4849534100334,43.6860606321962],[-79.4850463061365,43.6861071442271],[-79.485046814634,43.6861073963302],[-79.4851156738285,43.6861418803145],[-79.4851402094565,43.6861541603862],[-79.4851747240528,43.6861714491731],[-79.4852336143471,43.686200925267],[-79.4852959860536,43.6862321570327],[-79.4853270057386,43.6862476900694],[-79.4853582003136,43.6862633113328],[-79.4854204109194,43.6862944547968],[-79.4855138013606,43.6863412194456],[-79.4856072105532,43.68638798312],[-79.4856163747441,43.6863925749388],[-79.485684801746,43.6864268343916],[-79.4857006161696,43.6864347467172],[-79.4857625654331,43.6864657747447],[-79.4857940082843,43.6864815210377],[-79.485840321781,43.6865047042422],[-79.4858874129504,43.6865282853815],[-79.4859185470452,43.6865438704785],[-79.4859807941796,43.6865751117548],[-79.4860032415607,43.6865863841383],[-79.4860739584962,43.6866218849173],[-79.4861030338502,43.6866364786694],[-79.4861517102626,43.6866609141157],[-79.4861672519446,43.6866687228284],[-79.4862293988712,43.6866999351523],[-79.4862604661568,43.6867155408507],[-79.4863070714571,43.6867389480327],[-79.4863536792716,43.6867623677977],[-79.4863847590264,43.6867779698631],[-79.4864469098991,43.6868091856691],[-79.4864624367731,43.6868169925395],[-79.4865401220653,43.6868560043621],[-79.4866333343744,43.6869028328801],[-79.4867110198858,43.6869418553876],[-79.4867265455903,43.6869496514201],[-79.4867886955768,43.6869808679394],[-79.4868197743147,43.6869964797873],[-79.4868663800491,43.6870198912408],[-79.48691298458,43.6870432990745],[-79.4869440509777,43.6870589135874],[-79.4870061949884,43.6870901272868],[-79.4870217344131,43.6870979268811],[-79.4870994043033,43.6871369464212],[-79.4871613660819,43.6871684066509],[-79.4872656983641,43.6872213774881],[-79.4874124733643,43.687295635592],[-79.486997958799,43.6873881072861],[-79.481658523203,43.6847429548009],[-79.4816426689839,43.6847467175027]]]]},"properties":{"_id":7481,"FLOC_ID":"007729-P01","Property Description":"ACQUISITION OF STRATA EASEMENT FROM METROLINX","Address":"400R CALEDONIA RD","City":"YORK","Intersection":"Eglinton Ave W and Caledonia Rd","Ward \\#":5,"Ward Name":"York South-Weston","Former Municipality":"None","District":"West","City Cluster":"Citizen-Focused Services Group B","Property Type":"Railway Land","Property Status":"City Use","Jurisdiction":"Toronto Water","Management":"Toronto Water","Owner":"METROLINX","Area (M2)":632,"Frontage (M)":null,"Depth (M)":null,"Area (FT2)":6803,"Frontage (FT)":null,"Depth (FT)":null,"OBJECTID":7481}}]}