{"type":"FeatureCollection","features":[{"type":"Feature","geometry":{"type":"Polygon","coordinates":[[[-79.4251028379851,43.7011813049706],[-79.4250502804735,43.7011923961041],[-79.4250134840027,43.7012001580788],[-79.4249928581169,43.7012045101672],[-79.424921523796,43.7012195674848],[-79.4249181978301,43.7012202764014],[-79.4248883759084,43.7012265667068],[-79.4247661469089,43.7012523560044],[-79.4247456202661,43.7012566901109],[-79.4247401224938,43.7012578566577],[-79.4247219910549,43.7012616702627],[-79.42472535493,43.7012703317098],[-79.424849980426,43.7015906882641],[-79.4249723564306,43.7019052013577],[-79.4250088242542,43.7019126063375],[-79.4251911634848,43.7019496490646],[-79.4253735153476,43.7019866915088],[-79.4253783459815,43.7018032125808],[-79.4253794782081,43.701760637267],[-79.4253837351519,43.7015995261378],[-79.4253869505028,43.7014779299441],[-79.4252344400955,43.7015100278711],[-79.4251166783995,43.7012158789559],[-79.4251114835896,43.7012029137086],[-79.425106301189,43.7011899484691],[-79.4251028379851,43.7011813049706]]]},"properties":{"_id":103,"OBJECTID":103,"FLOC_ID":"006253-B01","Building Description":"BATHURST - EGLINTON METER HOUSE","Address":"840 EGLINTON AVE W","City":"TORONTO","Ward Name":"Eglinton-Lawrence","Former Municipality":"Toronto (Old)","District":"North","City Cluster":"Citizen-Focused Services Group B","Building Type":"Boiler House/Meter House","Building Status":"City Use","Jurisdiction":"Toronto Water","Management":"Toronto Water","Owner":"City of Toronto","Gross Floor Area (M2)":6,"Gross Floor Area (FT2)":63,"Year Built":null,"WARD":8}},{"type":"Feature","geometry":{"type":"Polygon","coordinates":[[[-79.4729300550588,43.6836745237554],[-79.4728408891288,43.6836972759159],[-79.4724712740439,43.6837915932243],[-79.4724485731206,43.6837973845977],[-79.4725113432391,43.6839411686061],[-79.4725684140128,43.6840718723084],[-79.4726209004921,43.6841921153616],[-79.4726414679194,43.6841868185157],[-79.4730132435937,43.6840920061016],[-79.4731024100394,43.6840692628098],[-79.4730761663481,43.684009136895],[-79.4730499103018,43.683949019972],[-79.4729300550588,43.6836745237554]]]},"properties":{"_id":914,"OBJECTID":914,"FLOC_ID":"005840-B01","Building Description":"FORMER HYDRO BUILDING","Address":"1652 KEELE ST","City":"YORK","Ward Name":"York South-Weston","Former Municipality":"York","District":"West","City Cluster":"Internal Services Group","Building Type":"Office Building - Large","Building Status":"City Use","Jurisdiction":"Facilities Management & Real Estate Services","Management":"Facilities Management & Real Estate Services","Owner":"City of Toronto","Gross Floor Area (M2)":2105,"Gross Floor Area (FT2)":22653,"Year Built":1958,"WARD":5}}]}