{"type":"FeatureCollection","features":[{"type":"Feature","geometry":{"type":"Polygon","coordinates":[[[-79.4470380325414,43.6922932255097],[-79.4470524911547,43.6923280492163],[-79.4470587301115,43.6923431202735],[-79.4470763824177,43.6923857585797],[-79.4470793162986,43.692392753944],[-79.4470983928112,43.6924381473019],[-79.4471000263976,43.6924425856962],[-79.4471179465359,43.6924910749606],[-79.4471186148278,43.69249288453],[-79.447137239714,43.6925440835067],[-79.447247967445,43.6928145425409],[-79.4487728436567,43.6924869588808],[-79.4488090983325,43.6924791710001],[-79.4481497837657,43.6908688300489],[-79.4480983250577,43.6907431215825],[-79.4480714011982,43.6906773908824],[-79.4480444898101,43.6906116511796],[-79.4480175784884,43.6905459024684],[-79.4479906548129,43.6904801627458],[-79.4479544259755,43.6904880313931],[-79.4479187802634,43.6904957742764],[-79.4475555483675,43.6905746215945],[-79.447120428145,43.6906690877804],[-79.4468793954694,43.6907186631852],[-79.4465778498007,43.690784088105],[-79.4464590130382,43.6908098662278],[-79.4464623550024,43.690818130984],[-79.4464651523142,43.6908250902968],[-79.4464888677179,43.6908839608831],[-79.4464917269562,43.6908910372411],[-79.4465001808182,43.6909120502254],[-79.4465153804993,43.6909497817741],[-79.4465175961048,43.6909552646007],[-79.4465349990196,43.6909984699658],[-79.4465418933306,43.6910156116596],[-79.446556226646,43.6910511734845],[-79.4465657697887,43.6910748873617],[-79.4465774543096,43.6911038769987],[-79.4465986696133,43.6911565715014],[-79.4466199097322,43.6912093020165],[-79.4466305298414,43.6912356267665],[-79.4466306164846,43.6912358428381],[-79.446640864598,43.6912620053901],[-79.4466616084963,43.6913148436803],[-79.4466823276529,43.6913676459496],[-79.4466926748518,43.6913940335749],[-79.4467029848686,43.691420394178],[-79.4467157102806,43.6914648215074],[-79.44671840626,43.691474211116],[-79.4467409867276,43.6915265011669],[-79.4467440189396,43.6915344327215],[-79.4467611726104,43.6915793031715],[-79.4467753064828,43.6916162510721],[-79.4467813709416,43.6916320961765],[-79.4467971773238,43.6916715292104],[-79.4468024626387,43.691684700566],[-79.4468259738206,43.6917367840015],[-79.446843442621,43.6917901698099],[-79.4468639264595,43.6918429089233],[-79.4468680839426,43.691854945588],[-79.446882313476,43.6918960971231],[-79.4468962899,43.691928886335],[-79.4469046336971,43.6919484320233],[-79.4469203988917,43.6919925546937],[-79.4469235915281,43.6920014944625],[-79.4469407861171,43.69204246734],[-79.4469455892274,43.6920539012144],[-79.4469599326408,43.6920926314428],[-79.4469651923137,43.6921068289257],[-79.4469791660325,43.6921427955822],[-79.4469856763664,43.6921595680145],[-79.4469977169587,43.6921932024364],[-79.4470046715665,43.692212612453],[-79.4470173598239,43.6922433217519],[-79.4470285378958,43.6922703578212],[-79.4470380325414,43.6922932255097]],[[-79.4469868880035,43.6909811819114],[-79.4472273026368,43.6909301927933],[-79.4472294564792,43.6909354505451],[-79.4469890418189,43.690986448669],[-79.4469868880035,43.6909811819114]]]},"properties":{"_id":89,"OBJECTID":89,"FLOC_ID":"003165-B01","Building Description":"FAIRBANK MEMORIAL PARK - OUTDOOR POOL SERVICE BLDG","Address":"2213 DUFFERIN ST","City":"TORONTO","Ward Name":"Toronto-St. Paul's","Former Municipality":"York","District":"South","City Cluster":"Citizen-Focused Services Group A","Building Type":"Outdoor Pool Service Building","Building Status":"City Use","Jurisdiction":"Parks & Recreation","Management":"Parks & Recreation","Owner":"City of Toronto","Gross Floor Area (M2)":303,"Gross Floor Area (FT2)":3261,"Year Built":1964,"WARD":12}},{"type":"Feature","geometry":{"type":"Polygon","coordinates":[[[-79.4793933853194,43.689462107914],[-79.4798723187937,43.6896343791043],[-79.4799485099315,43.6898148865441],[-79.4811846202668,43.6902594728023],[-79.4824772842689,43.6907243612696],[-79.4827320509604,43.6910850730184],[-79.4834831409282,43.6909180479296],[-79.4834533008764,43.6908506328989],[-79.4834241059868,43.690783064931],[-79.4833955438499,43.690715353026],[-79.4833698458329,43.6906529342928],[-79.4833446937116,43.6905904076171],[-79.483320075082,43.6905277639962],[-79.4832398139937,43.6903119551381],[-79.4831801460172,43.6901380682945],[-79.4830806206811,43.6898367891411],[-79.4828140141964,43.6890297018516],[-79.4825044193167,43.6890833476411],[-79.482202374006,43.6889415665391],[-79.4816395528704,43.6890381694909],[-79.481457469861,43.6890694196175],[-79.4813884801331,43.6890558794514],[-79.4813270479295,43.6890321960132],[-79.4793933853194,43.689462107914]]]},"properties":{"_id":662,"OBJECTID":662,"FLOC_ID":"003256-B04","Building Description":"KEELESDALE PARK - BASEBALL CLUBHOUSE & CHANGE / WASHROOM","Address":"415 BLACK CREEK DR","City":"TORONTO","Ward Name":"York South-Weston","Former Municipality":"Toronto (Amal)","District":"West","City Cluster":"Citizen-Focused Services Group A","Building Type":"Park Fieldhouse","Building Status":"City Use","Jurisdiction":"Parks & Recreation","Management":"Parks & Recreation","Owner":"Province of Ontario","Gross Floor Area (M2)":279,"Gross Floor Area (FT2)":3000,"Year Built":null,"WARD":5}},{"type":"Feature","geometry":{"type":"Polygon","coordinates":[[[-79.4600337815659,43.6874047539037],[-79.4601717322866,43.6876612851653],[-79.4602268757245,43.6877638472],[-79.460271699673,43.6878841831915],[-79.460284354421,43.6879181585023],[-79.460289691607,43.6879506910614],[-79.460300847763,43.6880187897842],[-79.4603092983036,43.6880703521747],[-79.4603988055341,43.6883754643265],[-79.4604132342059,43.6884095572516],[-79.4609266259842,43.6882959394439],[-79.4609565861936,43.6883667449151],[-79.460984304711,43.6884322568475],[-79.4610120232828,43.6884977777737],[-79.4610301114895,43.6884937693615],[-79.4611566668179,43.6884657553811],[-79.4612470580903,43.6884457491652],[-79.4613374493026,43.6884257428777],[-79.461427840455,43.6884057365186],[-79.4615254643201,43.688384130291],[-79.4617631044773,43.6883300221967],[-79.4618748366552,43.6885945987526],[-79.4624960987134,43.6884564992837],[-79.4623911788205,43.6881247128519],[-79.4623754316588,43.6880749034681],[-79.462344147853,43.6879759778623],[-79.462339963488,43.6879627355689],[-79.4622848859297,43.6877885872237],[-79.4622768760954,43.6875853711813],[-79.4622722235968,43.6874878855399],[-79.4622702034066,43.6874456057549],[-79.4622617064802,43.6872676381931],[-79.4622600659399,43.6872331626612],[-79.4622548992674,43.6871249202861],[-79.4622543675331,43.6871223007313],[-79.4613361254679,43.6873196444444],[-79.4610974106624,43.6873723470918],[-79.4610187150418,43.6871863533648],[-79.4605053451586,43.6873001966488],[-79.4600337815659,43.6874047539037]]]},"properties":{"_id":1113,"OBJECTID":1113,"FLOC_ID":"003302-B01","Building Description":"BERT ROBINSON PARK - MAINTENANCE BLDG","Address":"400 CALEDONIA RD","City":"TORONTO","Ward Name":"Davenport","Former Municipality":"York","District":"South","City Cluster":"Citizen-Focused Services Group A","Building Type":"Park Storage Building","Building Status":"City Use","Jurisdiction":"Parks & Recreation","Management":"Parks & Recreation","Owner":"City of Toronto","Gross Floor Area (M2)":11,"Gross Floor Area (FT2)":121,"Year Built":1963,"WARD":9}},{"type":"Feature","geometry":{"type":"Polygon","coordinates":[[[-79.4538446267418,43.6881408982412],[-79.4537543326027,43.6881610336633],[-79.4536640384032,43.6881811690141],[-79.4535737441434,43.6882013042934],[-79.4534834498232,43.6882214395014],[-79.453393167847,43.6882415746429],[-79.453420791229,43.6883071063743],[-79.4534484022737,43.6883726290919],[-79.4534760257689,43.6884381698098],[-79.4535036493312,43.6885037015189],[-79.4535312605492,43.6885692332157],[-79.4535588842386,43.6886347559087],[-79.4535699287638,43.6886609721829],[-79.4536639580627,43.6886400373065],[-79.4537760636308,43.6886150770811],[-79.4538881690992,43.6885901257469],[-79.4539966517754,43.6885659739604],[-79.454112379771,43.6885402047456],[-79.4541262353196,43.6885729840431],[-79.4546687340643,43.6884521779776],[-79.4546436720239,43.688393200513],[-79.4546158612123,43.6883276600023],[-79.4545880256525,43.6882621194743],[-79.45456019016,43.6881965699376],[-79.4545323671256,43.6881310293995],[-79.4545045317475,43.688065488849],[-79.4544767088274,43.6879999572972],[-79.4543864151107,43.6880200932194],[-79.4542961089294,43.6880402290652],[-79.4542058150921,43.6880603648445],[-79.4541155211944,43.6880805005524],[-79.454047769719,43.6880956045242],[-79.4540252148389,43.6881006271825],[-79.4539801174511,43.6881106994946],[-79.4539349208205,43.6881207627475],[-79.4539124527587,43.6881257764172],[-79.4538446267418,43.6881408982412]]]},"properties":{"_id":1473,"OBJECTID":1473,"FLOC_ID":"003169-B01","Building Description":"CHARLES CACCIA PARK SEWAGE PUMPING STATION","Address":"348 NAIRN AVE","City":"YORK","Ward Name":"Davenport","Former Municipality":"None","District":"South","City Cluster":"Citizen-Focused Services Group B","Building Type":"Pumping Station - Above Ground","Building Status":"City Use","Jurisdiction":"Toronto Water","Management":"Toronto Water","Owner":"City of Toronto","Gross Floor Area (M2)":37,"Gross Floor Area (FT2)":400,"Year Built":2017,"WARD":9}},{"type":"Feature","geometry":{"type":"Polygon","coordinates":[[[-79.4470380325414,43.6922932255097],[-79.4470524911547,43.6923280492163],[-79.4470587301115,43.6923431202735],[-79.4470763824177,43.6923857585797],[-79.4470793162986,43.692392753944],[-79.4470983928112,43.6924381473019],[-79.4471000263976,43.6924425856962],[-79.4471179465359,43.6924910749606],[-79.4471186148278,43.69249288453],[-79.447137239714,43.6925440835067],[-79.447247967445,43.6928145425409],[-79.4487728436567,43.6924869588808],[-79.4488090983325,43.6924791710001],[-79.4481497837657,43.6908688300489],[-79.4480983250577,43.6907431215825],[-79.4480714011982,43.6906773908824],[-79.4480444898101,43.6906116511796],[-79.4480175784884,43.6905459024684],[-79.4479906548129,43.6904801627458],[-79.4479544259755,43.6904880313931],[-79.4479187802634,43.6904957742764],[-79.4475555483675,43.6905746215945],[-79.447120428145,43.6906690877804],[-79.4468793954694,43.6907186631852],[-79.4465778498007,43.690784088105],[-79.4464590130382,43.6908098662278],[-79.4464623550024,43.690818130984],[-79.4464651523142,43.6908250902968],[-79.4464888677179,43.6908839608831],[-79.4464917269562,43.6908910372411],[-79.4465001808182,43.6909120502254],[-79.4465153804993,43.6909497817741],[-79.4465175961048,43.6909552646007],[-79.4465349990196,43.6909984699658],[-79.4465418933306,43.6910156116596],[-79.446556226646,43.6910511734845],[-79.4465657697887,43.6910748873617],[-79.4465774543096,43.6911038769987],[-79.4465986696133,43.6911565715014],[-79.4466199097322,43.6912093020165],[-79.4466305298414,43.6912356267665],[-79.4466306164846,43.6912358428381],[-79.446640864598,43.6912620053901],[-79.4466616084963,43.6913148436803],[-79.4466823276529,43.6913676459496],[-79.4466926748518,43.6913940335749],[-79.4467029848686,43.691420394178],[-79.4467157102806,43.6914648215074],[-79.44671840626,43.691474211116],[-79.4467409867276,43.6915265011669],[-79.4467440189396,43.6915344327215],[-79.4467611726104,43.6915793031715],[-79.4467753064828,43.6916162510721],[-79.4467813709416,43.6916320961765],[-79.4467971773238,43.6916715292104],[-79.4468024626387,43.691684700566],[-79.4468259738206,43.6917367840015],[-79.446843442621,43.6917901698099],[-79.4468639264595,43.6918429089233],[-79.4468680839426,43.691854945588],[-79.446882313476,43.6918960971231],[-79.4468962899,43.691928886335],[-79.4469046336971,43.6919484320233],[-79.4469203988917,43.6919925546937],[-79.4469235915281,43.6920014944625],[-79.4469407861171,43.69204246734],[-79.4469455892274,43.6920539012144],[-79.4469599326408,43.6920926314428],[-79.4469651923137,43.6921068289257],[-79.4469791660325,43.6921427955822],[-79.4469856763664,43.6921595680145],[-79.4469977169587,43.6921932024364],[-79.4470046715665,43.692212612453],[-79.4470173598239,43.6922433217519],[-79.4470285378958,43.6922703578212],[-79.4470380325414,43.6922932255097]],[[-79.4469868880035,43.6909811819114],[-79.4472273026368,43.6909301927933],[-79.4472294564792,43.6909354505451],[-79.4469890418189,43.690986448669],[-79.4469868880035,43.6909811819114]]]},"properties":{"_id":2473,"OBJECTID":2473,"FLOC_ID":"003165-B03","Building Description":"FAIRBANK MEMORIAL PARK - GREENHOUSE","Address":"2213 DUFFERIN ST","City":"YORK","Ward Name":"Toronto-St. Paul's","Former Municipality":"None","District":"South","City Cluster":"Citizen-Focused Services Group A","Building Type":"Greenhouse","Building Status":"City Use","Jurisdiction":"Parks & Recreation","Management":"Parks & Recreation","Owner":"City of Toronto","Gross Floor Area (M2)":189,"Gross Floor Area (FT2)":2030,"Year Built":2015,"WARD":12}}]}