{"type":"FeatureCollection","features":[{"type":"Feature","geometry":{"type":"Polygon","coordinates":[[[-79.4851684463729,43.6843189921484],[-79.4852591708284,43.6842986159219],[-79.4853341566772,43.684475609276],[-79.4848711179264,43.6845787939255],[-79.4850047130063,43.684644602083],[-79.4856875553331,43.6844917034016],[-79.4858139792094,43.6844634010479],[-79.4857774339484,43.6843768309326],[-79.4857118157053,43.6843914588755],[-79.4856530817697,43.6844045484214],[-79.485650973054,43.6844050162247],[-79.4855983419669,43.6844167473109],[-79.4854830447162,43.6844424224582],[-79.4852956848337,43.6840020905382],[-79.4851477155801,43.684035511268],[-79.4850574380065,43.6840558964666],[-79.4851502238258,43.6842758105097],[-79.4851684463729,43.6843189921484]]]},"properties":{"_id":1328,"OBJECTID":1328,"FLOC_ID":"003286-B01","Building Description":"FIRE HALL NO. 421","Address":"6 LAMBTON AVE","City":"YORK","Ward Name":"York South-Weston","Former Municipality":"York","District":"West","City Cluster":"Citizen-Focused Services Group B","Building Type":"Fire Hall/Facility","Building Status":"City Use","Jurisdiction":"Fire Services","Management":"Fire Services","Owner":"City of Toronto","Gross Floor Area (M2)":1038,"Gross Floor Area (FT2)":11171,"Year Built":1956,"WARD":5}},{"type":"Feature","geometry":{"type":"Polygon","coordinates":[[[-79.4379808746459,43.6926662475752],[-79.4379529305203,43.6926013150762],[-79.4379247760674,43.6925358963855],[-79.4378966216757,43.6924704776871],[-79.4378684673452,43.6924050589811],[-79.4378402882747,43.6923396312526],[-79.4378121340664,43.6922742125313],[-79.4377839799193,43.6922087938024],[-79.4377558258426,43.6921433660644],[-79.437727696628,43.6920779473337],[-79.4376995426735,43.6920125195805],[-79.4376713887802,43.6919470918196],[-79.4376432349667,43.6918816460485],[-79.4376082994889,43.6918005163115],[-79.4375790196688,43.6917324505313],[-79.4375778935161,43.6917298395405],[-79.4372683300037,43.6907968657247],[-79.4359691237621,43.6901270338833],[-79.4359333660294,43.6901455385194],[-79.4366539826156,43.6919246773881],[-79.436655046678,43.6919273153573],[-79.4366827621246,43.6919957405571],[-79.4367957651044,43.6922747082224],[-79.4367595709518,43.6922825643368],[-79.4367862349626,43.6923483965527],[-79.4368128990506,43.6924142107591],[-79.4368395631779,43.6924800429611],[-79.4368649374808,43.6924746742046],[-79.4368916017106,43.6925404883912],[-79.4369182659893,43.6926063115722],[-79.4368929040315,43.6926116893485],[-79.4369195683524,43.6926775035271],[-79.4369462327128,43.6927433357013],[-79.4369728971503,43.692809149866],[-79.4369995491935,43.6928750090234],[-79.437024948497,43.6928696042403],[-79.4375019135387,43.6927681333921],[-79.4379808746459,43.6926662475752]]]},"properties":{"_id":2404,"OBJECTID":2404,"FLOC_ID":"006252-B01","Building Description":"VAUGHAN ROAD ACADEMY - INDOOR SWIMMING POOL","Address":"529 VAUGHAN RD","City":"TORONTO","Ward Name":"Toronto-St. Paul's","Former Municipality":"York","District":"South","City Cluster":"Other Organizations","Building Type":"Swimming Pool - Indoor","Building Status":"City Use","Jurisdiction":"Toronto District School Board","Management":"Toronto District School Board","Owner":"Toronto District School Board","Gross Floor Area (M2)":null,"Gross Floor Area (FT2)":null,"Year Built":null,"WARD":12}},{"type":"Feature","geometry":{"type":"Polygon","coordinates":[[[-79.4876280276165,43.694954157848],[-79.4876345800586,43.6947622420318],[-79.4873987766156,43.6943881946185],[-79.4870580527516,43.6940594653712],[-79.4862585045231,43.6935096721072],[-79.4860708898065,43.6933808048881],[-79.4853323621035,43.6929604151039],[-79.4858292189037,43.6937021213461],[-79.4859626305042,43.6939012554021],[-79.4864299004802,43.6945987769358],[-79.4872738817274,43.6949520846771],[-79.4876280276165,43.694954157848]]]},"properties":{"_id":2440,"OBJECTID":2440,"FLOC_ID":"004966-B01","Building Description":"POLICE NO. 12 DIVISION & NO.1 DISTRICT HEADQUARTER","Address":"200 TRETHEWEY DR","City":"TORONTO","Ward Name":"York South-Weston","Former Municipality":"Metro Toronto","District":"West","City Cluster":"Internal Services Group","Building Type":"Police Station/Facility","Building Status":"City Use","Jurisdiction":"Toronto Police Service","Management":"Facilities Management & Real Estate Services","Owner":"City of Toronto","Gross Floor Area (M2)":2395,"Gross Floor Area (FT2)":25781,"Year Built":1989,"WARD":5}},{"type":"Feature","geometry":{"type":"Polygon","coordinates":[[[-79.4364121416714,43.698185651704],[-79.4364281042,43.6982251402206],[-79.4365268866006,43.6984696340171],[-79.4365390504379,43.6984996960615],[-79.4365425399346,43.6985083482336],[-79.4365449776364,43.698514389449],[-79.436704300261,43.6984801108763],[-79.4368636351108,43.6984458320879],[-79.4370265932775,43.6984107719617],[-79.4370241555503,43.6984047127538],[-79.4370085019332,43.6983659986024],[-79.4369101272873,43.6981213794246],[-79.4368942140952,43.6980818910018],[-79.4367310954124,43.6981169958589],[-79.4365716248407,43.6981513193957],[-79.4364121416714,43.698185651704]]]},"properties":{"_id":2666,"OBJECTID":2666,"FLOC_ID":"004946-B01","Building Description":"POLICE NO. 13 DIVISION","Address":"1435 EGLINTON AVE W","City":"YORK","Ward Name":"Toronto-St. Paul's","Former Municipality":"Metro Toronto","District":"South","City Cluster":"Internal Services Group","Building Type":"Police Station/Facility","Building Status":"City Use","Jurisdiction":"Toronto Police Service","Management":"Facilities Management & Real Estate Services","Owner":"City of Toronto","Gross Floor Area (M2)":1891,"Gross Floor Area (FT2)":20355,"Year Built":1973,"WARD":12}},{"type":"Feature","geometry":{"type":"Polygon","coordinates":[[[-79.4415811920778,43.6947346160171],[-79.4415589017449,43.6946807589002],[-79.4415317102954,43.6946150805764],[-79.4415045189052,43.6945494022454],[-79.4414718323718,43.6944704621915],[-79.4414391583385,43.6943915131323],[-79.4414064719765,43.6943125730576],[-79.441008389558,43.6944004009413],[-79.440926097702,43.6944185590542],[-79.4408924960039,43.6944259767508],[-79.4408563257779,43.6944339601899],[-79.4409543708619,43.6946706638254],[-79.4409905040709,43.6946626083262],[-79.4409933704141,43.6946619617129],[-79.4410159536588,43.6946569326453],[-79.4410240935452,43.6946551275858],[-79.4410498037074,43.6946493890228],[-79.4411063114462,43.6946367803379],[-79.4411336015192,43.694702629838],[-79.4411608792462,43.6947684793244],[-79.4411832311693,43.6948224535664],[-79.4415811920778,43.6947346160171]]]},"properties":{"_id":2690,"OBJECTID":2690,"FLOC_ID":"003091-B01","Building Description":"FIRE HALL NO. 341","Address":"555 OAKWOOD AVE","City":"YORK","Ward Name":"Toronto-St. Paul's","Former Municipality":"York","District":"South","City Cluster":"Citizen-Focused Services Group B","Building Type":"Fire Hall/Facility","Building Status":"City Use","Jurisdiction":"Fire Services","Management":"Fire Services","Owner":"City of Toronto","Gross Floor Area (M2)":881,"Gross Floor Area (FT2)":9479,"Year Built":1968,"WARD":12}}]}