{"type":"FeatureCollection","features":[{"type":"Feature","geometry":{"type":"MultiPolygon","coordinates":[[[[-79.4392927374904,43.6882883794701],[-79.4392663491659,43.6882225299358],[-79.4392557923664,43.688196187419],[-79.4396140078809,43.6881164123539],[-79.4396245648322,43.6881427458368],[-79.4396509795846,43.6882085737002],[-79.439677389424,43.6882744105555],[-79.4393191221541,43.6883542262952],[-79.4392927374904,43.6882883794701]]]]},"properties":{"_id":1229,"FLOC_ID":"006049-P01","Property Description":"CARPARK 660","Address":"406 OAKWOOD AVE","City":"YORK","Intersection":"BTWN 402 & 410 OAKWOOD DR","Ward \\#":12,"Ward Name":"Toronto-St. Paul's","Former Municipality":"York","District":"South","City Cluster":"Agencies, Boards, and Commissions","Property Type":"Parking Facility","Property Status":"City Use","Jurisdiction":"Toronto Parking Authority","Management":"Toronto Parking Authority","Owner":"City of Toronto","Area (M2)":582,"Frontage (M)":18,"Depth (M)":30,"Area (FT2)":6269,"Frontage (FT)":60,"Depth (FT)":99,"OBJECTID":1229}},{"type":"Feature","geometry":{"type":"MultiPolygon","coordinates":[[[[-79.451289676478,43.6963571184345],[-79.451273852952,43.6962892743797],[-79.451400280611,43.6962609318372],[-79.4514580819194,43.6962479774396],[-79.4514146487608,43.6961385978296],[-79.4513766756873,43.6960429510898],[-79.4513588746434,43.695998123398],[-79.4512144519644,43.6960288885653],[-79.4511941408045,43.6959418716346],[-79.4512843257701,43.6959218948387],[-79.4513748320488,43.6959018442977],[-79.451519623862,43.6958697567941],[-79.4515920116397,43.6958537219714],[-79.4515924702994,43.6958557105504],[-79.4516012117704,43.6958939445276],[-79.4516767637286,43.6958770828724],[-79.451770723118,43.6958561054445],[-79.4518418800219,43.6958402256665],[-79.4523865634568,43.6957186366955],[-79.4524267730527,43.6958132488879],[-79.4524545763412,43.695878671925],[-79.4524823623274,43.6959440877463],[-79.4524101234273,43.6959602771167],[-79.4522294918859,43.6960007561792],[-79.4523689160307,43.6963284009643],[-79.4522243094044,43.6963608064638],[-79.4519738218373,43.6964169361455],[-79.451827797764,43.6964496564925],[-79.4517729283924,43.6963211174603],[-79.4517024855643,43.6963369020821],[-79.4517021740151,43.6963355535575],[-79.451304845134,43.6964247983841],[-79.451289676478,43.6963571184345]]]]},"properties":{"_id":1972,"FLOC_ID":"005490-P01","Property Description":"CARPARK 663","Address":"9 SHORTT ST","City":"TORONTO","Intersection":"SS RAMSDEN RD & SHORTT ST","Ward \\#":8,"Ward Name":"Eglinton-Lawrence","Former Municipality":"York","District":"North","City Cluster":"Agencies, Boards, and Commissions","Property Type":"Parking Facility","Property Status":"City Use","Jurisdiction":"Toronto Parking Authority","Management":"Toronto Parking Authority","Owner":"City of Toronto","Area (M2)":5082,"Frontage (M)":12,"Depth (M)":null,"Area (FT2)":54703,"Frontage (FT)":39,"Depth (FT)":null,"OBJECTID":1972}},{"type":"Feature","geometry":{"type":"MultiPolygon","coordinates":[[[[-79.4407985317755,43.6974237804499],[-79.4408671690221,43.6975881641684],[-79.4408778733563,43.6976144732646],[-79.4408051721388,43.6976300510706],[-79.4407947532405,43.6976049392866],[-79.4407260179735,43.6974394888218],[-79.4407084457563,43.6974432845523],[-79.4406575134466,43.6973197244624],[-79.4406747108951,43.6973159978551],[-79.4407472257977,43.6973002940166],[-79.4407603217544,43.6973318395133],[-79.4407985317755,43.6974237804499]]]]},"properties":{"_id":2822,"FLOC_ID":"006041-P03","Property Description":"CARPARK 667 - CENTRAL PROP","Address":"1533 EGLINTON AVE W","City":"TORONTO","Intersection":"BTWN 1535 & 1531 EGLINTON AVE W","Ward \\#":12,"Ward Name":"Toronto-St. Paul's","Former Municipality":"Toronto (Amal)","District":"South","City Cluster":"Agencies, Boards, and Commissions","Property Type":"Parking Facility","Property Status":"City Use","Jurisdiction":"Toronto Parking Authority","Management":"Toronto Parking Authority","Owner":"City of Toronto","Area (M2)":223,"Frontage (M)":null,"Depth (M)":null,"Area (FT2)":2402,"Frontage (FT)":null,"Depth (FT)":null,"OBJECTID":2822}},{"type":"Feature","geometry":{"type":"MultiPolygon","coordinates":[[[[-79.4617454857347,43.6935423569098],[-79.4617814330215,43.6935344621986],[-79.4618896251048,43.6935100733125],[-79.4619237002077,43.6935024416701],[-79.4619254707138,43.6935020444027],[-79.4620341191654,43.6934777104396],[-79.4620608028233,43.6935432973194],[-79.4618554016947,43.6935892282689],[-79.4617327043042,43.6936166637055],[-79.4616537745316,43.6936343130934],[-79.4616437391016,43.6936100395406],[-79.4616277052872,43.6935688190393],[-79.4617454857347,43.6935423569098]]]]},"properties":{"_id":2845,"FLOC_ID":"007160-P04","Property Description":"CARPARK 673 - PROP D","Address":"601 CALEDONIA RD","City":"TORONTO","Intersection":"ADJ N 2212 & 2204 EGLINTON AVE W","Ward \\#":8,"Ward Name":"Eglinton-Lawrence","Former Municipality":"Toronto (Amal)","District":"North","City Cluster":"Citizen-Focused Services Group A","Property Type":"Parking Facility","Property Status":"City Use","Jurisdiction":"Toronto Shelter & Support Services","Management":"Toronto Shelter & Support Services","Owner":"None","Area (M2)":262,"Frontage (M)":null,"Depth (M)":null,"Area (FT2)":2820,"Frontage (FT)":null,"Depth (FT)":null,"OBJECTID":2845}},{"type":"Feature","geometry":{"type":"MultiPolygon","coordinates":[[[[-79.4617454857347,43.6935423569098],[-79.4616277052872,43.6935688190393],[-79.4615997415344,43.6934959495826],[-79.4615280756713,43.6933091963578],[-79.4615266400898,43.6933057501796],[-79.4616366048068,43.6932810281806],[-79.461638040394,43.6932844743575],[-79.4617301561616,43.6935055652943],[-79.4617454857347,43.6935423569098]]]]},"properties":{"_id":2968,"FLOC_ID":"007160-P03","Property Description":"CARPARK 673 - PROP C","Address":"2204 EGLINTON AVE W","City":"TORONTO","Intersection":"N EGLINTON AVE W","Ward \\#":8,"Ward Name":"Eglinton-Lawrence","Former Municipality":"None","District":"North","City Cluster":"Citizen-Focused Services Group A","Property Type":"Parking Facility","Property Status":"City Use","Jurisdiction":"Toronto Shelter & Support Services","Management":"Toronto Shelter & Support Services","Owner":"None","Area (M2)":294,"Frontage (M)":9,"Depth (M)":100,"Area (FT2)":3165,"Frontage (FT)":98,"Depth (FT)":1076,"OBJECTID":2968}},{"type":"Feature","geometry":{"type":"MultiPolygon","coordinates":[[[[-79.4618896251048,43.6935100733125],[-79.4617815261423,43.6935343362116],[-79.4617455216784,43.6935424073291],[-79.4617301561616,43.6935055652943],[-79.461638040394,43.6932844743575],[-79.4616366048068,43.6932810281806],[-79.4616712468376,43.693273240181],[-79.4616719366759,43.6932730846899],[-79.4616731960024,43.6932728015714],[-79.4617806965397,43.6932486330871],[-79.4617821321338,43.6932520801623],[-79.4618742954513,43.6934732826162],[-79.4618896251048,43.6935100733125]]]]},"properties":{"_id":2969,"FLOC_ID":"007160-P01","Property Description":"CARPARK 673 - PROP A","Address":"2212 EGLINTON AVE W","City":"TORONTO","Intersection":"SEC EGLINTON AVE W & CALEDONIA RD","Ward \\#":8,"Ward Name":"Eglinton-Lawrence","Former Municipality":"None","District":"North","City Cluster":"Citizen-Focused Services Group A","Property Type":"Parking Facility","Property Status":"City Use","Jurisdiction":"Toronto Shelter & Support Services","Management":"Toronto Shelter & Support Services","Owner":"None","Area (M2)":320,"Frontage (M)":null,"Depth (M)":null,"Area (FT2)":3444,"Frontage (FT)":null,"Depth (FT)":null,"OBJECTID":2969}},{"type":"Feature","geometry":{"type":"MultiPolygon","coordinates":[[[[-79.4618896251048,43.6935100733125],[-79.4617815261423,43.6935343362116],[-79.4617455216784,43.6935424073291],[-79.4617301561616,43.6935055652943],[-79.461638040394,43.6932844743575],[-79.4616366048068,43.6932810281806],[-79.4616712468376,43.693273240181],[-79.4616719366759,43.6932730846899],[-79.4616731960024,43.6932728015714],[-79.4617806965397,43.6932486330871],[-79.4617821321338,43.6932520801623],[-79.4618742954513,43.6934732826162],[-79.4618896251048,43.6935100733125]]]]},"properties":{"_id":3009,"FLOC_ID":"007160-P02","Property Description":"CARPARK 673 - PROP B","Address":"2212R EGLINTON AVE W","City":"TORONTO","Intersection":"REAR 2212 EGLINTON AVE W","Ward \\#":8,"Ward Name":"Eglinton-Lawrence","Former Municipality":"None","District":"North","City Cluster":"Citizen-Focused Services Group A","Property Type":"Parking Facility","Property Status":"City Use","Jurisdiction":"Toronto Shelter & Support Services","Management":"Toronto Shelter & Support Services","Owner":"None","Area (M2)":52,"Frontage (M)":null,"Depth (M)":null,"Area (FT2)":560,"Frontage (FT)":null,"Depth (FT)":null,"OBJECTID":3009}},{"type":"Feature","geometry":{"type":"MultiPolygon","coordinates":[[[[-79.4378392716132,43.6868511227988],[-79.4377703693097,43.6868657556335],[-79.4376595009466,43.6865887188106],[-79.4377283893517,43.6865740509293],[-79.4378392716132,43.6868511227988]]]]},"properties":{"_id":3654,"FLOC_ID":"003277-P01","Property Description":"CARPARK 659","Address":"341 OAKWOOD AVE","City":"TORONTO","Intersection":"None","Ward \\#":12,"Ward Name":"Toronto-St. Paul's","Former Municipality":"York","District":"South","City Cluster":"Agencies, Boards, and Commissions","Property Type":"Parking Facility","Property Status":"City Use","Jurisdiction":"Toronto Public Library Board","Management":"Toronto Public Library Board","Owner":"Toronto Public Library Board","Area (M2)":null,"Frontage (M)":null,"Depth (M)":null,"Area (FT2)":null,"Frontage (FT)":null,"Depth (FT)":null,"OBJECTID":3654}},{"type":"Feature","geometry":{"type":"MultiPolygon","coordinates":[[[[-79.4377332912619,43.6865729977466],[-79.4377877419163,43.6865614094112],[-79.4378239546706,43.6865536987944],[-79.4379146453351,43.6865343754814],[-79.4382980955257,43.6864527081427],[-79.4383300209228,43.6865325750384],[-79.4383563516588,43.6865984319783],[-79.4379728859591,43.6866798807702],[-79.437992262023,43.6867282993934],[-79.4379992300324,43.6867457188951],[-79.4380112830686,43.6867757987872],[-79.4380255865644,43.6868115597204],[-79.4379348844153,43.6868308237056],[-79.4378986442344,43.6868385199403],[-79.4378441722896,43.6868500831127],[-79.4378392703728,43.6868511227981],[-79.4377283881113,43.6865740509286],[-79.4377332912619,43.6865729977466]]]]},"properties":{"_id":3664,"FLOC_ID":"003277-P01","Property Description":"CARPARK 659","Address":"341 OAKWOOD AVE","City":"TORONTO","Intersection":"None","Ward \\#":12,"Ward Name":"Toronto-St. Paul's","Former Municipality":"York","District":"South","City Cluster":"Agencies, Boards, and Commissions","Property Type":"Parking Facility","Property Status":"City Use","Jurisdiction":"Toronto Public Library Board","Management":"Toronto Public Library Board","Owner":"Toronto Public Library Board","Area (M2)":null,"Frontage (M)":null,"Depth (M)":null,"Area (FT2)":null,"Frontage (FT)":null,"Depth (FT)":null,"OBJECTID":3664}},{"type":"Feature","geometry":{"type":"MultiPolygon","coordinates":[[[[-79.4491847058274,43.6862289316111],[-79.4482019805642,43.6864484526966],[-79.4476130493952,43.6865799895061],[-79.4475926567247,43.6865306872178],[-79.4475517737504,43.6864317864413],[-79.4477358797827,43.6863902595371],[-79.4481041047418,43.6863071913419],[-79.4481402109589,43.6862990507463],[-79.4487508268096,43.6861612947359],[-79.4491226418228,43.6860774147483],[-79.4491649944533,43.6861808027731],[-79.4491847058274,43.6862289316111]]]]},"properties":{"_id":4511,"FLOC_ID":"005488-P01","Property Description":"CARPARK 658","Address":"2054 DUFFERIN ST","City":"TORONTO","Intersection":"WS DUFFERIN ST, N ROGERS RD","Ward \\#":9,"Ward Name":"Davenport","Former Municipality":"York","District":"South","City Cluster":"Internal Services Group","Property Type":"Parking Facility","Property Status":"Potentially Surplus","Jurisdiction":"Facilities Management & Real Estate Services","Management":"Facilities Management & Real Estate Services","Owner":"City of Toronto","Area (M2)":3157,"Frontage (M)":16,"Depth (M)":null,"Area (FT2)":33977,"Frontage (FT)":53,"Depth (FT)":null,"OBJECTID":4511}},{"type":"Feature","geometry":{"type":"MultiPolygon","coordinates":[[[[-79.4639855599691,43.6821423955601],[-79.4639431457795,43.6821516643411],[-79.4638566476842,43.6821705694817],[-79.4638636972808,43.6821876372959],[-79.4638744351608,43.682213644577],[-79.4639016006911,43.6822794149358],[-79.4639287662785,43.6823451888879],[-79.463955914563,43.6824109592268],[-79.4639830815115,43.6824767295643],[-79.4640102336506,43.6825424746864],[-79.4637923423716,43.6825896141492],[-79.4637652152556,43.6825238689839],[-79.4637380758011,43.6824581148062],[-79.4637109364042,43.6823923633217],[-79.4636837970741,43.6823265992282],[-79.4636566701988,43.6822608477333],[-79.4636298170741,43.6821957867188],[-79.4638474220321,43.6821482334116],[-79.464049517052,43.6821040701074],[-79.4640587477395,43.6821263962615],[-79.4639855599691,43.6821423955601]]]]},"properties":{"_id":4512,"FLOC_ID":"005491-P01","Property Description":"CARPARK 661 - PROP A","Address":"433 ROGERS RD","City":"TORONTO","Intersection":"ADJ E 437 ROGERS RD","Ward \\#":9,"Ward Name":"Davenport","Former Municipality":"York","District":"South","City Cluster":"Agencies, Boards, and Commissions","Property Type":"Parking Facility","Property Status":"City Use","Jurisdiction":"Toronto Parking Authority","Management":"Toronto Parking Authority","Owner":"City of Toronto","Area (M2)":838,"Frontage (M)":18,"Depth (M)":46,"Area (FT2)":9025,"Frontage (FT)":60,"Depth (FT)":150,"OBJECTID":4512}},{"type":"Feature","geometry":{"type":"MultiPolygon","coordinates":[[[[-79.4903535696899,43.687881117902],[-79.4905073991218,43.6879339468196],[-79.4904869048706,43.687964692663],[-79.490429835256,43.6880503091824],[-79.4902758306271,43.6879978960068],[-79.4901218002187,43.6879454745198],[-79.4900641568892,43.6880319090256],[-79.4898758939342,43.6879678446436],[-79.4899014134756,43.6879296912822],[-79.4899426779396,43.6878679990963],[-79.4899839299132,43.687806315895],[-79.4899917465665,43.6877944519632],[-79.4900119805221,43.6877637142861],[-79.4902066803215,43.6878306846183],[-79.4902801218739,43.6878559008335],[-79.4903535696899,43.687881117902]]]]},"properties":{"_id":4551,"FLOC_ID":"005493-P01","Property Description":"CARPARK 651 (PROP A)","Address":"0 LOCUST ST","City":"TORONTO","Intersection":"ABUTTING SS 7 LOCUST ST","Ward \\#":5,"Ward Name":"York South-Weston","Former Municipality":"York","District":"West","City Cluster":"Agencies, Boards, and Commissions","Property Type":"Parking Facility","Property Status":"City Use","Jurisdiction":"Toronto Parking Authority","Management":"Toronto Parking Authority","Owner":"City of Toronto","Area (M2)":445,"Frontage (M)":11,"Depth (M)":null,"Area (FT2)":4792,"Frontage (FT)":35,"Depth (FT)":null,"OBJECTID":4551}},{"type":"Feature","geometry":{"type":"MultiPolygon","coordinates":[[[[-79.490011980522,43.6877637151862],[-79.4900654897264,43.6876824560923],[-79.4902447737302,43.68741017583],[-79.490436063229,43.6874818378636],[-79.4902066815619,43.6878306846184],[-79.490011980522,43.6877637151862]]]]},"properties":{"_id":4552,"FLOC_ID":"005493-P02","Property Description":"CARPARK 651 (PROP B)","Address":"1169 WESTON RD","City":"TORONTO","Intersection":"BTWN 1165 & 1175 WESTON RD","Ward \\#":5,"Ward Name":"York South-Weston","Former Municipality":"York","District":"West","City Cluster":"Agencies, Boards, and Commissions","Property Type":"Parking Facility","Property Status":"City Use","Jurisdiction":"Toronto Parking Authority","Management":"Toronto Parking Authority","Owner":"City of Toronto","Area (M2)":769,"Frontage (M)":17,"Depth (M)":44,"Area (FT2)":8276,"Frontage (FT)":57,"Depth (FT)":143,"OBJECTID":4552}},{"type":"Feature","geometry":{"type":"MultiPolygon","coordinates":[[[[-79.424230798592,43.6824378899335],[-79.424119085881,43.6821584367571],[-79.4242948945848,43.6821260045872],[-79.4243036507103,43.6821243910501],[-79.4243202232134,43.6821662284138],[-79.4243207045559,43.6821661468205],[-79.4243241281744,43.6821747372376],[-79.4244097610181,43.6823895822677],[-79.4244339837095,43.6824503697292],[-79.4244255473456,43.6824521392103],[-79.4242510536876,43.6824885519299],[-79.424230798592,43.6824378899335]]]]},"properties":{"_id":4678,"FLOC_ID":"007500-P01","Property Description":"CARPARK 226","Address":"640 ST CLAIR AVE W","City":"TORONTO","Intersection":"PINEWOOD AVE & ST CLAIR AVE W","Ward \\#":12,"Ward Name":"Toronto-St. Paul's","Former Municipality":"None","District":"South","City Cluster":"Agencies, Boards, and Commissions","Property Type":"Parking Facility","Property Status":"City Use","Jurisdiction":"Toronto Parking Authority","Management":"Toronto Parking Authority","Owner":"City of Toronto","Area (M2)":589,"Frontage (M)":null,"Depth (M)":null,"Area (FT2)":6341,"Frontage (FT)":null,"Depth (FT)":null,"OBJECTID":4678}},{"type":"Feature","geometry":{"type":"MultiPolygon","coordinates":[[[[-79.4459797237651,43.6866865482425],[-79.4459639856734,43.6866477082794],[-79.4463989205659,43.6865538467277],[-79.4464146440457,43.686592667722],[-79.446441296307,43.6866584428384],[-79.4460063743351,43.6867523423612],[-79.4459797237651,43.6866865482425]]]]},"properties":{"_id":5236,"FLOC_ID":"006952-P01","Property Description":"CARPARK 670 (LARGER PARCEL)","Address":"2053 DUFFERIN ST","City":"TORONTO","Intersection":"ADJ S 2055 DUFFERIN ST","Ward \\#":12,"Ward Name":"Toronto-St. Paul's","Former Municipality":"Toronto (Amal)","District":"South","City Cluster":"Agencies, Boards, and Commissions","Property Type":"Parking Facility","Property Status":"City Use","Jurisdiction":"Toronto Parking Authority","Management":"Toronto Parking Authority","Owner":"City of Toronto","Area (M2)":443,"Frontage (M)":null,"Depth (M)":null,"Area (FT2)":4770,"Frontage (FT)":null,"Depth (FT)":null,"OBJECTID":5236}},{"type":"Feature","geometry":{"type":"MultiPolygon","coordinates":[[[[-79.4459530670504,43.6866207550141],[-79.4463879881215,43.6865268925969],[-79.4463989205659,43.6865538467277],[-79.4459639856734,43.6866477082794],[-79.4459530670504,43.6866207550141]]]]},"properties":{"_id":5237,"FLOC_ID":"006952-P02","Property Description":"CARPARK 670 (SMALLER PARCEL)","Address":"2053 DUFFERIN ST","City":"YORK","Intersection":"ADJ S 2055 DUFFERIN ST","Ward \\#":12,"Ward Name":"Toronto-St. Paul's","Former Municipality":"None","District":"South","City Cluster":"Agencies, Boards, and Commissions","Property Type":"Parking Facility","Property Status":"City Use","Jurisdiction":"Toronto Parking Authority","Management":"Toronto Parking Authority","Owner":"City of Toronto","Area (M2)":114,"Frontage (M)":null,"Depth (M)":null,"Area (FT2)":1230,"Frontage (FT)":null,"Depth (FT)":null,"OBJECTID":5237}},{"type":"Feature","geometry":{"type":"MultiPolygon","coordinates":[[[[-79.4781242942992,43.6911900295163],[-79.4780277847062,43.6909631963256],[-79.4778895509105,43.6906382912454],[-79.477880627131,43.6906173272969],[-79.4781033864953,43.6905674165834],[-79.478250646866,43.690913514881],[-79.478349391949,43.6911455780623],[-79.4782598877539,43.6911628831704],[-79.4782582389305,43.6911600195442],[-79.4781242942992,43.6911900295163]]]]},"properties":{"_id":6462,"FLOC_ID":"004034-P01","Property Description":"CARPARK 672","Address":"2696 EGLINTON AVE W","City":"TORONTO","Intersection":"NS EGLINTON AVE W, ES MUNICIPAL DR","Ward \\#":5,"Ward Name":"York South-Weston","Former Municipality":"York","District":"West","City Cluster":"Internal Services Group","Property Type":"Administrative Faci.","Property Status":"City Use","Jurisdiction":"Facilities Management & Real Estate Services","Management":"Facilities Management & Real Estate Services","Owner":"City of Toronto","Area (M2)":1255,"Frontage (M)":null,"Depth (M)":null,"Area (FT2)":13504,"Frontage (FT)":null,"Depth (FT)":null,"OBJECTID":6462}},{"type":"Feature","geometry":{"type":"MultiPolygon","coordinates":[[[[-79.4281495713075,43.700844272437],[-79.427859225158,43.7009064621413],[-79.4278058405519,43.700775112346],[-79.4277417706597,43.700617481928],[-79.4280318723079,43.7005553364712],[-79.4280961028972,43.7007130055349],[-79.4281495713075,43.700844272437]]]]},"properties":{"_id":6575,"FLOC_ID":"001564-P01","Property Description":"CARPARK 131","Address":"912 EGLINTON AVE W","City":"TORONTO","Intersection":"None","Ward \\#":8,"Ward Name":"Eglinton-Lawrence","Former Municipality":"Toronto (Old)","District":"North","City Cluster":"Agencies, Boards, and Commissions","Property Type":"Parking Facility","Property Status":"City Use","Jurisdiction":"Toronto Parking Authority","Management":"Toronto Parking Authority","Owner":"City of Toronto","Area (M2)":818,"Frontage (M)":null,"Depth (M)":null,"Area (FT2)":8800,"Frontage (FT)":null,"Depth (FT)":null,"OBJECTID":6575}},{"type":"Feature","geometry":{"type":"MultiPolygon","coordinates":[[[[-79.4310175895324,43.6996985926817],[-79.4309558769575,43.6997118962241],[-79.430849589651,43.6994487298668],[-79.4312114922748,43.6993701500922],[-79.4312776930771,43.6995328944107],[-79.4313183151994,43.6996338025078],[-79.4311142702945,43.6996777725101],[-79.4310876252988,43.6996835055692],[-79.4310447048698,43.6996927600084],[-79.4310175895324,43.6996985926817]]]]},"properties":{"_id":6637,"FLOC_ID":"001572-P01","Property Description":"CARPARK 155","Address":"995 EGLINTON AVE W","City":"TORONTO","Intersection":"None","Ward \\#":12,"Ward Name":"Toronto-St. Paul's","Former Municipality":"Metro Toronto","District":"South","City Cluster":"Agencies, Boards, and Commissions","Property Type":"Parking Facility","Property Status":"City Use","Jurisdiction":"Toronto Parking Authority","Management":"Toronto Parking Authority","Owner":"City of Toronto","Area (M2)":931,"Frontage (M)":null,"Depth (M)":null,"Area (FT2)":10019,"Frontage (FT)":null,"Depth (FT)":null,"OBJECTID":6637}},{"type":"Feature","geometry":{"type":"MultiPolygon","coordinates":[[[[-79.4753003516931,43.6899623954973],[-79.4751558013427,43.6899945537159],[-79.4750519329166,43.6897583721173],[-79.4750406069841,43.689732607927],[-79.475185904741,43.6897005130239],[-79.4753300932651,43.689668669733],[-79.4753413585422,43.6896943960764],[-79.4754448200121,43.6899302523804],[-79.4753003516931,43.6899623954973]]]]},"properties":{"_id":7244,"FLOC_ID":"007241-P01","Property Description":"CARPARK 674","Address":"2623 EGLINTON AVE W","City":"TORONTO","Intersection":"SWC EGLINTON AVE W & KEELE ST","Ward \\#":5,"Ward Name":"York South-Weston","Former Municipality":"Toronto (Amal)","District":"West","City Cluster":"Agencies, Boards, and Commissions","Property Type":"Parking Facility","Property Status":"City Use","Jurisdiction":"Toronto Parking Authority","Management":"Toronto Parking Authority","Owner":"City of Toronto","Area (M2)":745,"Frontage (M)":null,"Depth (M)":null,"Area (FT2)":8019,"Frontage (FT)":null,"Depth (FT)":null,"OBJECTID":7244}},{"type":"Feature","geometry":{"type":"MultiPolygon","coordinates":[[[[-79.4407084457563,43.6974432845523],[-79.4407260179735,43.6974394888218],[-79.4407947532405,43.6976049392866],[-79.4408051721388,43.6976300510706],[-79.4407872313479,43.6976339042304],[-79.440732757521,43.6976455758713],[-79.4406965768774,43.6976533324174],[-79.440686128012,43.6976284573419],[-79.4405660501545,43.6973395247803],[-79.4406575134466,43.6973197244624],[-79.4407084457563,43.6974432845523]]]]},"properties":{"_id":7429,"FLOC_ID":"006041-P01","Property Description":"CARPARK 667 - EAST PROP","Address":"1531 EGLINTON AVE W","City":"TORONTO","Intersection":"BTWN 1533 & 1529 EGLINTON AVE","Ward \\#":12,"Ward Name":"Toronto-St. Paul's","Former Municipality":"York","District":"South","City Cluster":"Agencies, Boards, and Commissions","Property Type":"Parking Facility","Property Status":"City Use","Jurisdiction":"Toronto Parking Authority","Management":"Toronto Parking Authority","Owner":"City of Toronto","Area (M2)":325,"Frontage (M)":9,"Depth (M)":37,"Area (FT2)":3500,"Frontage (FT)":29,"Depth (FT)":120,"OBJECTID":7429}},{"type":"Feature","geometry":{"type":"MultiPolygon","coordinates":[[[[-79.4408255923602,43.6973177070958],[-79.4409321779056,43.6975742385849],[-79.4408671690221,43.6975881641684],[-79.4407985317755,43.6974237804499],[-79.4407603217544,43.6973318395133],[-79.4408255923602,43.6973177070958]]]]},"properties":{"_id":7430,"FLOC_ID":"006041-P02","Property Description":"CARPARK 667 - WEST PROP","Address":"1535 EGLINTON AVE W","City":"TORONTO","Intersection":"None","Ward \\#":12,"Ward Name":"Toronto-St. Paul's","Former Municipality":"York","District":"South","City Cluster":"Agencies, Boards, and Commissions","Property Type":"Parking Facility","Property Status":"City Use","Jurisdiction":"Toronto Parking Authority","Management":"Toronto Parking Authority","Owner":"City of Toronto","Area (M2)":164,"Frontage (M)":5,"Depth (M)":30,"Area (FT2)":1764,"Frontage (FT)":18,"Depth (FT)":98,"OBJECTID":7430}},{"type":"Feature","geometry":{"type":"MultiPolygon","coordinates":[[[[-79.4638636972808,43.6821876372959],[-79.4638566476842,43.6821705694817],[-79.4639431457795,43.6821516643411],[-79.4639502214449,43.6821687321583],[-79.4639610684254,43.6821948744855],[-79.4639829841,43.6822477109865],[-79.4639883469193,43.6822606295572],[-79.4640156081105,43.6823263810157],[-79.4640209375194,43.6823391924585],[-79.4640203420881,43.6823393281909],[-79.4640421312768,43.6823922960587],[-79.4640691941074,43.6824580951474],[-79.4640962594896,43.6825238744269],[-79.4640102336506,43.6825424746864],[-79.4639830815115,43.6824767295643],[-79.463955914563,43.6824109592268],[-79.4639287662785,43.6823451888879],[-79.4639016006911,43.6822794149358],[-79.4638744351608,43.682213644577],[-79.4638636972808,43.6821876372959]]]]},"properties":{"_id":8031,"FLOC_ID":"005491-P02","Property Description":"FUTURE CARPARK 661 - PROP B","Address":"437 ROGERS RD","City":"TORONTO","Intersection":"ADJ W 433 ROGERS RD","Ward \\#":9,"Ward Name":"Davenport","Former Municipality":"Toronto (Amal)","District":"South","City Cluster":"Agencies, Boards, and Commissions","Property Type":"Commercial/Retail","Property Status":"City Use","Jurisdiction":"Toronto Parking Authority","Management":"Toronto Parking Authority","Owner":"City of Toronto","Area (M2)":314,"Frontage (M)":null,"Depth (M)":null,"Area (FT2)":3380,"Frontage (FT)":null,"Depth (FT)":null,"OBJECTID":8031}},{"type":"Feature","geometry":{"type":"MultiPolygon","coordinates":[[[[-79.4720810286859,43.6904749850764],[-79.4720196928473,43.6904889292918],[-79.4720037845394,43.6904524152324],[-79.4719627139838,43.6903581426734],[-79.4720240497022,43.6903441984882],[-79.4723845068937,43.6902622384056],[-79.472425676051,43.6903564919356],[-79.4724416255337,43.6903929879443],[-79.4721567779154,43.6904577543653],[-79.4721423632572,43.6904610372271],[-79.4720810286859,43.6904749850764]]]]},"properties":{"_id":9432,"FLOC_ID":"006004-P01","Property Description":"CARPARK 652","Address":"301 SCOTT RD","City":"TORONTO","Intersection":"None","Ward \\#":5,"Ward Name":"York South-Weston","Former Municipality":"York","District":"West","City Cluster":"Agencies, Boards, and Commissions","Property Type":"Parking Facility","Property Status":"City Use","Jurisdiction":"Toronto Parking Authority","Management":"Toronto Parking Authority","Owner":"City of Toronto","Area (M2)":526,"Frontage (M)":15,"Depth (M)":36,"Area (FT2)":5663,"Frontage (FT)":50,"Depth (FT)":117,"OBJECTID":9432}}]}