{"type":"FeatureCollection","features":[{"type":"Feature","geometry":{"type":"Polygon","coordinates":[[[-79.4340887988996,43.6986589013947],[-79.4344699160151,43.6985772358295],[-79.4344464936579,43.6985193171338],[-79.4340838668696,43.6985970237193],[-79.4340653644712,43.6986009826148],[-79.4340887988996,43.6986589013947]]]},"properties":{"_id":271,"OBJECTID":271,"FLOC_ID":"005104-B01","Building Description":"SINGLE FAMILY DETACHED - GARAGE","Address":"222 STRATHEARN RD","City":"TORONTO","Ward Name":"Toronto-St. Paul's","Former Municipality":"Metro Toronto","District":"South","City Cluster":"Internal Services Group","Building Type":"Residential Garage","Building Status":"Sell Abutting Owner","Jurisdiction":"Facilities Management & Real Estate Services","Management":"Facilities Management & Real Estate Services","Owner":"City of Toronto","Gross Floor Area (M2)":17,"Gross Floor Area (FT2)":186,"Year Built":1929,"WARD":12}},{"type":"Feature","geometry":{"type":"Polygon","coordinates":[[[-79.4340887988996,43.6986589013947],[-79.4344699160151,43.6985772358295],[-79.4344464936579,43.6985193171338],[-79.4340838668696,43.6985970237193],[-79.4340653644712,43.6986009826148],[-79.4340887988996,43.6986589013947]]]},"properties":{"_id":284,"OBJECTID":284,"FLOC_ID":"005104-B02","Building Description":"SINGLE FAMILY DETACHED","Address":"222 STRATHEARN RD","City":"TORONTO","Ward Name":"Toronto-St. Paul's","Former Municipality":"Metro Toronto","District":"South","City Cluster":"Internal Services Group","Building Type":"Residential House","Building Status":"Sell Abutting Owner","Jurisdiction":"Facilities Management & Real Estate Services","Management":"Facilities Management & Real Estate Services","Owner":"City of Toronto","Gross Floor Area (M2)":91,"Gross Floor Area (FT2)":982,"Year Built":1929,"WARD":12}},{"type":"Feature","geometry":{"type":"Polygon","coordinates":[[[-79.4809906362148,43.6830270549974],[-79.4810066808328,43.6830042663483],[-79.4810494416064,43.6829435236057],[-79.4810724102825,43.6829109066643],[-79.4810922022938,43.6828827808464],[-79.4811134709209,43.6828525849676],[-79.4807097194233,43.6827021506611],[-79.4806884506469,43.6827323464655],[-79.4806456772588,43.6827930800719],[-79.4806029161847,43.682853822665],[-79.4805456117527,43.6829351937695],[-79.4809906362148,43.6830270549974]]]},"properties":{"_id":918,"OBJECTID":918,"FLOC_ID":"006131-B01","Building Description":"BEECH HALL HOUSING CO-OP - BLDG #2","Address":"2 HUMBER BLVD","City":"YORK","Ward Name":"York South-Weston","Former Municipality":"Toronto (Amal)","District":"West","City Cluster":"Internal Services Group","Building Type":"Multi-Unit Residence","Building Status":"City Use","Jurisdiction":"Facilities Management & Real Estate Services","Management":"Tenant","Owner":"City of Toronto","Gross Floor Area (M2)":380,"Gross Floor Area (FT2)":4090,"Year Built":1952,"WARD":5}},{"type":"Feature","geometry":{"type":"Polygon","coordinates":[[[-79.4341096269125,43.6957833982687],[-79.4340408442016,43.6956742359689],[-79.4339989851751,43.6956078272973],[-79.4339651078384,43.6955711094741],[-79.4341052213755,43.6954901517203],[-79.4342935242063,43.6953814705272],[-79.4342674204929,43.6953604735125],[-79.434240745708,43.6953398632186],[-79.4342135122574,43.6953196396525],[-79.4341857201216,43.6952998208162],[-79.4341573692807,43.6952804247118],[-79.4341284969718,43.6952614333579],[-79.4340991031652,43.6952428737579],[-79.4337237055457,43.6955569007468],[-79.433843080777,43.6956416090245],[-79.433898289854,43.6957292685165],[-79.43395347428,43.6958169279662],[-79.4341096269125,43.6957833982687]]]},"properties":{"_id":1721,"OBJECTID":1721,"FLOC_ID":"005822-B01","Building Description":"DETACHED DWELLING","Address":"203 AVA RD","City":"TORONTO","Ward Name":"Toronto-St. Paul's","Former Municipality":"Metro Toronto","District":"South","City Cluster":"Internal Services Group","Building Type":"Residential House","Building Status":"Declared Surplus","Jurisdiction":"Facilities Management & Real Estate Services","Management":"Facilities Management & Real Estate Services","Owner":"Province of Ontario","Gross Floor Area (M2)":118,"Gross Floor Area (FT2)":1274,"Year Built":1946,"WARD":12}},{"type":"Feature","geometry":{"type":"Polygon","coordinates":[[[-79.4345444975677,43.6947165451726],[-79.4343554288712,43.6949155182991],[-79.4343308000451,43.6949414368709],[-79.4343899659003,43.6949842449787],[-79.4344126628914,43.6950006763579],[-79.434422077244,43.6949907623371],[-79.4346369424265,43.6947643139145],[-79.4346140047773,43.6947524640986],[-79.4345444975677,43.6947165451726]]]},"properties":{"_id":1915,"OBJECTID":1915,"FLOC_ID":"005930-B01","Building Description":"RESIDENTIAL DWELLING - VACANT","Address":"567 ARLINGTON AVE","City":"TORONTO","Ward Name":"Toronto-St. Paul's","Former Municipality":"York","District":"South","City Cluster":"Internal Services Group","Building Type":"Residential House","Building Status":"Hardship Case","Jurisdiction":"Facilities Management & Real Estate Services","Management":"Facilities Management & Real Estate Services","Owner":"Province of Ontario","Gross Floor Area (M2)":99,"Gross Floor Area (FT2)":1066,"Year Built":1940,"WARD":12}}]}