{"type":"FeatureCollection","features":[{"type":"Feature","geometry":{"type":"MultiPolygon","coordinates":[[[[-79.4774097150462,43.7010001235837],[-79.4777714504847,43.7009190947561],[-79.4777731084094,43.7009282088759],[-79.4777756125272,43.7009372205456],[-79.4777789492062,43.7009460883565],[-79.477128679587,43.7010917943533],[-79.4765464615697,43.7012222426576],[-79.4765402798924,43.7011948864964],[-79.4774097150462,43.7010001235837]]]]},"properties":{"_id":2716,"FLOC_ID":"004328-P01","Property Description":"WALKWAY","Address":"0 GOTHAM CRT","City":"TORONTO","Intersection":"BTWN 56 & 65 GOTHAM CRT","Ward \\#":5,"Ward Name":"York South-Weston","Former Municipality":"North York","District":"West","City Cluster":"Citizen-Focused Services Group B","Property Type":"Walkway","Property Status":"City Use","Jurisdiction":"Transportation Services","Management":"Transportation Services","Owner":"City of Toronto","Area (M2)":324,"Frontage (M)":3,"Depth (M)":104,"Area (FT2)":3485,"Frontage (FT)":10,"Depth (FT)":341,"OBJECTID":2716}},{"type":"Feature","geometry":{"type":"MultiPolygon","coordinates":[[[[-79.4847584212395,43.7028254634354],[-79.4847474312839,43.7027991152275],[-79.4847407117778,43.7027832081716],[-79.4851407904501,43.7026970520348],[-79.4851469076763,43.7027054222187],[-79.4851538054054,43.7027134666573],[-79.4851614526291,43.702721146641],[-79.4851698121345,43.7027284252596],[-79.4851788442266,43.7027352683029],[-79.4851885054881,43.7027416424604],[-79.485198750019,43.7027475180217],[-79.4847644706669,43.7028417295518],[-79.4847584212395,43.7028254634354]]]]},"properties":{"_id":2748,"FLOC_ID":"004331-P01","Property Description":"WALKWAY","Address":"0 DARIEN CRT","City":"TORONTO","Intersection":"BTWN 12 & 15 DARIEN CRT","Ward \\#":5,"Ward Name":"York South-Weston","Former Municipality":"North York","District":"West","City Cluster":"Citizen-Focused Services Group B","Property Type":"Walkway","Property Status":"City Use","Jurisdiction":"Transportation Services","Management":"Transportation Services","Owner":"City of Toronto","Area (M2)":243,"Frontage (M)":7,"Depth (M)":35,"Area (FT2)":2614,"Frontage (FT)":24,"Depth (FT)":115,"OBJECTID":2748}},{"type":"Feature","geometry":{"type":"MultiPolygon","coordinates":[[[[-79.4336653192503,43.6913707219947],[-79.4339691756446,43.691366288359],[-79.4339756832836,43.6913832667624],[-79.4336723835279,43.6913879365724],[-79.4336653192503,43.6913707219947]]]]},"properties":{"_id":7042,"FLOC_ID":"003240-P01","Property Description":"WALKWAY","Address":"0 WINNETT AVE","City":"TORONTO","Intersection":"BTWN 255 & 263 WINNETT AVE","Ward \\#":12,"Ward Name":"Toronto-St. Paul's","Former Municipality":"York","District":"South","City Cluster":"Citizen-Focused Services Group A","Property Type":"Walkway","Property Status":"City Use","Jurisdiction":"Parks & Recreation","Management":"Parks & Recreation","Owner":"City of Toronto","Area (M2)":40,"Frontage (M)":2,"Depth (M)":null,"Area (FT2)":436,"Frontage (FT)":6,"Depth (FT)":null,"OBJECTID":7042}},{"type":"Feature","geometry":{"type":"MultiPolygon","coordinates":[[[[-79.4806083003198,43.7001258358643],[-79.4805720574643,43.700133913762],[-79.4802727104797,43.6995989171403],[-79.4801133501021,43.6993067852684],[-79.4799278680173,43.6988695775733],[-79.4799640109393,43.698861517863],[-79.4801502086186,43.6993040183793],[-79.4801509555181,43.6993039555001],[-79.4803116659441,43.6995960083409],[-79.4806083003198,43.7001258358643]]]]},"properties":{"_id":10416,"FLOC_ID":"004327-P01","Property Description":"WESTVIEW GREENBELT TRAIL","Address":"0 GOTHAM CRT","City":"TORONTO","Intersection":"ADJ TO 9 GOTHAM CRT","Ward \\#":5,"Ward Name":"York South-Weston","Former Municipality":"North York","District":"West","City Cluster":"Citizen-Focused Services Group B","Property Type":"Walkway","Property Status":"City Use","Jurisdiction":"Transportation Services","Management":"Transportation Services","Owner":"City of Toronto","Area (M2)":445,"Frontage (M)":3,"Depth (M)":150,"Area (FT2)":4792,"Frontage (FT)":10,"Depth (FT)":493,"OBJECTID":10416}}]}