{"type":"FeatureCollection","features":[{"type":"Feature","geometry":{"type":"MultiPoint","coordinates":[[-79.4260607598411,43.7018869538787]]},"properties":{"_id":44,"OBJECTID":143,"GEO_ID":881213,"NAME":"ALIVE MONTESSORI AND PRIVATE SCHOOL","SCHOOL_LEVEL":"None","SCHOOL_TYPE":"PR","BOARD_NAME":"None","SOURCE_ADDRESS":"2 WEMBLEY RD ","SCHOOL_TYPE_DESC":"Private","ADDRESS_POINT_ID":881213,"ADDRESS_NUMBER":"2","LINEAR_NAME_FULL":"Wembley Rd","ADDRESS_FULL":"2 Wembley Rd","POSTAL_CODE":"M6C 2E9","MUNICIPALITY":"TO","CITY":"TO","PLACE_NAME":"Forest Hill United Church","GENERAL_USE_CODE":115001,"CENTRELINE_ID":1138717,"LO_NUM":2,"LO_NUM_SUF":"None","HI_NUM":null,"HI_NUM_SUF":"None","LINEAR_NAME_ID":4656}},{"type":"Feature","geometry":{"type":"MultiPoint","coordinates":[[-79.4546890976067,43.6875353134585]]},"properties":{"_id":76,"OBJECTID":175,"GEO_ID":62453,"NAME":"BALANCED EDUCATION NETWORK B.E.N. SCHOOL","SCHOOL_LEVEL":"None","SCHOOL_TYPE":"PR","BOARD_NAME":"None","SOURCE_ADDRESS":"394 HARVIE AVE ","SCHOOL_TYPE_DESC":"Private","ADDRESS_POINT_ID":62453,"ADDRESS_NUMBER":"394","LINEAR_NAME_FULL":"Harvie Ave","ADDRESS_FULL":"394 Harvie Ave","POSTAL_CODE":"M6E 4L8","MUNICIPALITY":"YK","CITY":"YK","PLACE_NAME":"None","GENERAL_USE_CODE":115001,"CENTRELINE_ID":30119749,"LO_NUM":394,"LO_NUM_SUF":"None","HI_NUM":null,"HI_NUM_SUF":"None","LINEAR_NAME_ID":648}},{"type":"Feature","geometry":{"type":"MultiPoint","coordinates":[[-79.4302837269918,43.696025486871]]},"properties":{"_id":177,"OBJECTID":276,"GEO_ID":51217,"NAME":"CEDARVALE COMMUNITY SCHOOL ","SCHOOL_LEVEL":"None","SCHOOL_TYPE":"EP","BOARD_NAME":"Toronto District School Board","SOURCE_ADDRESS":"145 AVA RD ","SCHOOL_TYPE_DESC":"English Public","ADDRESS_POINT_ID":51217,"ADDRESS_NUMBER":"145","LINEAR_NAME_FULL":"Ava Rd","ADDRESS_FULL":"145 Ava Rd","POSTAL_CODE":"M6C 1W4","MUNICIPALITY":"YK","CITY":"YK","PLACE_NAME":"Cedarvale Community School","GENERAL_USE_CODE":115001,"CENTRELINE_ID":7630,"LO_NUM":145,"LO_NUM_SUF":"None","HI_NUM":null,"HI_NUM_SUF":"None","LINEAR_NAME_ID":418}},{"type":"Feature","geometry":{"type":"MultiPoint","coordinates":[[-79.475099515903,43.6934344434159]]},"properties":{"_id":194,"OBJECTID":293,"GEO_ID":9038626,"NAME":"CHARLES E WEBSTER JR PUBLIC SCHOOL","SCHOOL_LEVEL":"None","SCHOOL_TYPE":"EP","BOARD_NAME":"Toronto District School Board","SOURCE_ADDRESS":"1900 KEELE ST ","SCHOOL_TYPE_DESC":"English Public","ADDRESS_POINT_ID":9038626,"ADDRESS_NUMBER":"1900","LINEAR_NAME_FULL":"Keele St","ADDRESS_FULL":"1900 Keele St","POSTAL_CODE":"M6M 3X7","MUNICIPALITY":"YK","CITY":"YK","PLACE_NAME":"Charles E Webster Public School","GENERAL_USE_CODE":115001,"CENTRELINE_ID":9038621,"LO_NUM":1900,"LO_NUM_SUF":"None","HI_NUM":null,"HI_NUM_SUF":"None","LINEAR_NAME_ID":703}},{"type":"Feature","geometry":{"type":"MultiPoint","coordinates":[[-79.4429115844532,43.6922556300161]]},"properties":{"_id":251,"OBJECTID":350,"GEO_ID":51593,"NAME":"D'ARCY MCGEE CATHOLIC ELEMENTARY SCHOOL","SCHOOL_LEVEL":"None","SCHOOL_TYPE":"ES","BOARD_NAME":"Toronto Catholic District School Board","SOURCE_ADDRESS":"20 BANSLEY AVE ","SCHOOL_TYPE_DESC":"English Separate","ADDRESS_POINT_ID":51593,"ADDRESS_NUMBER":"20","LINEAR_NAME_FULL":"Bansley Ave","ADDRESS_FULL":"20 Bansley Ave","POSTAL_CODE":"M6E 2A2","MUNICIPALITY":"YK","CITY":"YK","PLACE_NAME":"D'Arcy McGee Catholic School","GENERAL_USE_CODE":115001,"CENTRELINE_ID":14068332,"LO_NUM":20,"LO_NUM_SUF":"None","HI_NUM":null,"HI_NUM_SUF":"None","LINEAR_NAME_ID":429}},{"type":"Feature","geometry":{"type":"MultiPoint","coordinates":[[-79.4872863165976,43.6844195398894]]},"properties":{"_id":264,"OBJECTID":363,"GEO_ID":10313238,"NAME":"DENNIS AVENUE COMMUNITY SCHOOL (CLOSED LOCATION)","SCHOOL_LEVEL":"None","SCHOOL_TYPE":"EP","BOARD_NAME":"Toronto District School Board","SOURCE_ADDRESS":"17 DENNIS AVE ","SCHOOL_TYPE_DESC":"English Public","ADDRESS_POINT_ID":10313238,"ADDRESS_NUMBER":"17","LINEAR_NAME_FULL":"Dennis Ave","ADDRESS_FULL":"17 Dennis Ave","POSTAL_CODE":"M6N 2T7","MUNICIPALITY":"YK","CITY":"YK","PLACE_NAME":"Dennis Avenue Community School","GENERAL_USE_CODE":115001,"CENTRELINE_ID":10313197,"LO_NUM":17,"LO_NUM_SUF":"None","HI_NUM":null,"HI_NUM_SUF":"None","LINEAR_NAME_ID":551}},{"type":"Feature","geometry":{"type":"MultiPoint","coordinates":[[-79.458898094007,43.6840057733305]]},"properties":{"_id":339,"OBJECTID":438,"GEO_ID":54313,"NAME":"F H MILLER JR PUBLIC SCHOOL","SCHOOL_LEVEL":"None","SCHOOL_TYPE":"EP","BOARD_NAME":"Toronto District School Board","SOURCE_ADDRESS":"300 CALEDONIA RD ","SCHOOL_TYPE_DESC":"English Public","ADDRESS_POINT_ID":54313,"ADDRESS_NUMBER":"300","LINEAR_NAME_FULL":"Caledonia Rd","ADDRESS_FULL":"300 Caledonia Rd","POSTAL_CODE":"M6E 4T5","MUNICIPALITY":"YK","CITY":"YK","PLACE_NAME":"F. H. Miller Junior Public School","GENERAL_USE_CODE":115001,"CENTRELINE_ID":14072354,"LO_NUM":300,"LO_NUM_SUF":"None","HI_NUM":null,"HI_NUM_SUF":"None","LINEAR_NAME_ID":481}},{"type":"Feature","geometry":{"type":"MultiPoint","coordinates":[[-79.4554057013447,43.6917032417799]]},"properties":{"_id":340,"OBJECTID":439,"GEO_ID":62504,"NAME":"FAIRBANK MEMORIAL COMMUNITY SCHOOL","SCHOOL_LEVEL":"None","SCHOOL_TYPE":"EP","BOARD_NAME":"Toronto District School Board","SOURCE_ADDRESS":"555 HARVIE AVE ","SCHOOL_TYPE_DESC":"English Public","ADDRESS_POINT_ID":62504,"ADDRESS_NUMBER":"555","LINEAR_NAME_FULL":"Harvie Ave","ADDRESS_FULL":"555 Harvie Ave","POSTAL_CODE":"M6E 4M2","MUNICIPALITY":"YK","CITY":"YK","PLACE_NAME":"Fairbank Memorial Community School","GENERAL_USE_CODE":115001,"CENTRELINE_ID":8067,"LO_NUM":555,"LO_NUM_SUF":"None","HI_NUM":null,"HI_NUM_SUF":"None","LINEAR_NAME_ID":648}},{"type":"Feature","geometry":{"type":"MultiPoint","coordinates":[[-79.4490892289333,43.6942876649058]]},"properties":{"_id":341,"OBJECTID":440,"GEO_ID":9741283,"NAME":"FAIRBANK PUBLIC SCHOOL ","SCHOOL_LEVEL":"None","SCHOOL_TYPE":"EP","BOARD_NAME":"Toronto District School Board","SOURCE_ADDRESS":"2335 DUFFERIN ST ","SCHOOL_TYPE_DESC":"English Public","ADDRESS_POINT_ID":9741283,"ADDRESS_NUMBER":"2335","LINEAR_NAME_FULL":"Dufferin St","ADDRESS_FULL":"2335 Dufferin St","POSTAL_CODE":"M6E 3S5","MUNICIPALITY":"YK","CITY":"YK","PLACE_NAME":"Fairbank Public School","GENERAL_USE_CODE":115001,"CENTRELINE_ID":9741259,"LO_NUM":2335,"LO_NUM_SUF":"None","HI_NUM":null,"HI_NUM_SUF":"None","LINEAR_NAME_ID":557}},{"type":"Feature","geometry":{"type":"MultiPolygon","coordinates":[[[[-79.4273188496284,43.6856088109116],[-79.4274642933772,43.685578551795],[-79.4276088461732,43.6855484710549],[-79.4277551282815,43.6855180824801],[-79.4279005343079,43.685487883993],[-79.4280448359859,43.6854579087581],[-79.4281697158734,43.6857739511166],[-79.4282218135273,43.685905810653],[-79.4282739176303,43.6860376539644],[-79.4283260095445,43.6861695080429],[-79.4283781190424,43.6863013702068],[-79.4284302213376,43.686433222438],[-79.4284823325435,43.686565074648],[-79.4285344315755,43.6866969250233],[-79.428596959889,43.6868551494048],[-79.4281611118306,43.6869459488078],[-79.4277250800524,43.6870368022394],[-79.4276625426742,43.6868785818811],[-79.4276104478679,43.6867467383164],[-79.4275583359239,43.6866148947141],[-79.4275062316492,43.68648305199],[-79.4274541400073,43.6863512083471],[-79.4274020349479,43.6862193655689],[-79.4273499288759,43.6860875227633],[-79.4272978292338,43.685955679935],[-79.4271727605608,43.6856392143528],[-79.4273188496284,43.6856088109116]]]]},"properties":{"_id":464,"OBJECTID":563,"GEO_ID":55237,"NAME":"HUMEWOOD COMMUNITY SCHOOL ","SCHOOL_LEVEL":"None","SCHOOL_TYPE":"EP","BOARD_NAME":"Toronto District School Board","SOURCE_ADDRESS":"15 CHERRYWOOD AVE ","SCHOOL_TYPE_DESC":"English Public","ADDRESS_POINT_ID":55237,"ADDRESS_NUMBER":"15","LINEAR_NAME_FULL":"Cherrywood Ave","ADDRESS_FULL":"15 Cherrywood Ave","POSTAL_CODE":"M6C 2X4","MUNICIPALITY":"YK","CITY":"YK","PLACE_NAME":"Humewood Community School","GENERAL_USE_CODE":115001,"CENTRELINE_ID":8534,"LO_NUM":15,"LO_NUM_SUF":"None","HI_NUM":null,"HI_NUM_SUF":"None","LINEAR_NAME_ID":499}},{"type":"Feature","geometry":{"type":"MultiPoint","coordinates":[[-79.4778216965409,43.6976801383094]]},"properties":{"_id":468,"OBJECTID":567,"GEO_ID":501943,"NAME":"IMMACULATE CONCEPTION CATHOLIC ELEMENTARY SCHOOL","SCHOOL_LEVEL":"None","SCHOOL_TYPE":"ES","BOARD_NAME":"Toronto Catholic District School Board","SOURCE_ADDRESS":"23 COMAY RD ","SCHOOL_TYPE_DESC":"English Separate","ADDRESS_POINT_ID":501943,"ADDRESS_NUMBER":"23","LINEAR_NAME_FULL":"Comay Rd","ADDRESS_FULL":"23 Comay Rd","POSTAL_CODE":"M6M 2K9","MUNICIPALITY":"NY","CITY":"NY","PLACE_NAME":"Immaculate Conception Catholic School","GENERAL_USE_CODE":115001,"CENTRELINE_ID":30097795,"LO_NUM":23,"LO_NUM_SUF":"None","HI_NUM":null,"HI_NUM_SUF":"None","LINEAR_NAME_ID":520}},{"type":"Feature","geometry":{"type":"MultiPoint","coordinates":[[-79.4363052648149,43.6949467937453]]},"properties":{"_id":484,"OBJECTID":583,"GEO_ID":51261,"NAME":"J R WILCOX COMMUNITY SCHOOL","SCHOOL_LEVEL":"None","SCHOOL_TYPE":"EP","BOARD_NAME":"Toronto District School Board","SOURCE_ADDRESS":"231 AVA RD ","SCHOOL_TYPE_DESC":"English Public","ADDRESS_POINT_ID":51261,"ADDRESS_NUMBER":"231","LINEAR_NAME_FULL":"Ava Rd","ADDRESS_FULL":"231 Ava Rd","POSTAL_CODE":"M6C 1X3","MUNICIPALITY":"YK","CITY":"YK","PLACE_NAME":"J. R. Wilcox Community School","GENERAL_USE_CODE":115001,"CENTRELINE_ID":7726,"LO_NUM":231,"LO_NUM_SUF":"None","HI_NUM":null,"HI_NUM_SUF":"None","LINEAR_NAME_ID":418}},{"type":"Feature","geometry":{"type":"MultiPoint","coordinates":[[-79.4769463100751,43.6869571004579]]},"properties":{"_id":514,"OBJECTID":613,"GEO_ID":52633,"NAME":"KEELESDALE JR PUBLIC SCHOOL","SCHOOL_LEVEL":"None","SCHOOL_TYPE":"EP","BOARD_NAME":"Toronto District School Board","SOURCE_ADDRESS":"200 BICKNELL AVE ","SCHOOL_TYPE_DESC":"English Public","ADDRESS_POINT_ID":52633,"ADDRESS_NUMBER":"200","LINEAR_NAME_FULL":"Bicknell Ave","ADDRESS_FULL":"200 Bicknell Ave","POSTAL_CODE":"M6M 4G9","MUNICIPALITY":"YK","CITY":"YK","PLACE_NAME":"Keelesdale Junior Public School","GENERAL_USE_CODE":115001,"CENTRELINE_ID":8519,"LO_NUM":200,"LO_NUM_SUF":"None","HI_NUM":null,"HI_NUM_SUF":"None","LINEAR_NAME_ID":450}},{"type":"Feature","geometry":{"type":"MultiPoint","coordinates":[[-79.4329480383653,43.6922867379928]]},"properties":{"_id":546,"OBJECTID":645,"GEO_ID":50614,"NAME":"LEO BAECK DAY SCHOOL - SOUTH CAMPUS","SCHOOL_LEVEL":"None","SCHOOL_TYPE":"PR","BOARD_NAME":"None","SOURCE_ADDRESS":"501 ARLINGTON AVE ","SCHOOL_TYPE_DESC":"Private","ADDRESS_POINT_ID":50614,"ADDRESS_NUMBER":"501","LINEAR_NAME_FULL":"Arlington Ave","ADDRESS_FULL":"501 Arlington Ave","POSTAL_CODE":"M6C 3A4","MUNICIPALITY":"YK","CITY":"YK","PLACE_NAME":"Arlington Middle School","GENERAL_USE_CODE":115001,"CENTRELINE_ID":30088089,"LO_NUM":501,"LO_NUM_SUF":"None","HI_NUM":null,"HI_NUM_SUF":"None","LINEAR_NAME_ID":412}},{"type":"Feature","geometry":{"type":"MultiPoint","coordinates":[[-79.4488750654069,43.6935935696857]]},"properties":{"_id":562,"OBJECTID":661,"GEO_ID":9741281,"NAME":"LYCEE FRANCAIS DE TORONTO","SCHOOL_LEVEL":"None","SCHOOL_TYPE":"PR","BOARD_NAME":"None","SOURCE_ADDRESS":"2327 DUFFERIN ST ","SCHOOL_TYPE_DESC":"Private","ADDRESS_POINT_ID":9741281,"ADDRESS_NUMBER":"2327","LINEAR_NAME_FULL":"Dufferin St","ADDRESS_FULL":"2327 Dufferin St","POSTAL_CODE":"M6E 3S5","MUNICIPALITY":"YK","CITY":"YK","PLACE_NAME":"D. B. Hood Community School","GENERAL_USE_CODE":115001,"CENTRELINE_ID":9741259,"LO_NUM":2327,"LO_NUM_SUF":"None","HI_NUM":null,"HI_NUM_SUF":"None","LINEAR_NAME_ID":557}},{"type":"Feature","geometry":{"type":"MultiPolygon","coordinates":[[[[-79.4300846809719,43.6935578018505],[-79.4300796697894,43.6935615433231],[-79.4300740004979,43.6935647506163],[-79.4300677773733,43.693567363485],[-79.4300611195643,43.6935693333952],[-79.43005415241,43.6935706226179],[-79.4300470074374,43.69357120603],[-79.4300398198775,43.6935710738129],[-79.4300327261882,43.6935702278503],[-79.4300258578497,43.6935686835248],[-79.4300193463241,43.6935664715214],[-79.4300133143783,43.6935636324212],[-79.4300078760796,43.6935602203018],[-79.4299005549983,43.6934827947269],[-79.4297798054693,43.6933956880123],[-79.4299625688518,43.6932383639218],[-79.4300678691842,43.6933143389975],[-79.4302307348124,43.6934318513867],[-79.4300846809719,43.6935578018505]]]]},"properties":{"_id":584,"OBJECTID":683,"GEO_ID":14647878,"NAME":"MARKDALE PRESCHOOL","SCHOOL_LEVEL":"None","SCHOOL_TYPE":"PR","BOARD_NAME":"None","SOURCE_ADDRESS":"41 MARKDALE AVE ","SCHOOL_TYPE_DESC":"Private","ADDRESS_POINT_ID":14647878,"ADDRESS_NUMBER":"41","LINEAR_NAME_FULL":"Markdale Ave","ADDRESS_FULL":"41 Markdale Ave","POSTAL_CODE":"None","MUNICIPALITY":"YK","CITY":"YK","PLACE_NAME":"Markdale Preschool Site","GENERAL_USE_CODE":115001,"CENTRELINE_ID":8456990,"LO_NUM":41,"LO_NUM_SUF":"None","HI_NUM":null,"HI_NUM_SUF":"None","LINEAR_NAME_ID":760}},{"type":"Feature","geometry":{"type":"MultiPoint","coordinates":[[-79.4898300918393,43.6836610022383]]},"properties":{"_id":696,"OBJECTID":795,"GEO_ID":9531820,"NAME":"OUR LADY OF VICTORY CATHOLIC ELEMENTARY SCHOOL","SCHOOL_LEVEL":"None","SCHOOL_TYPE":"ES","BOARD_NAME":"Toronto Catholic District School Board","SOURCE_ADDRESS":"70 GUESTVILLE AVE ","SCHOOL_TYPE_DESC":"English Separate","ADDRESS_POINT_ID":9531820,"ADDRESS_NUMBER":"70","LINEAR_NAME_FULL":"Guestville Ave","ADDRESS_FULL":"70 Guestville Ave","POSTAL_CODE":"M6N 4N3","MUNICIPALITY":"YK","CITY":"YK","PLACE_NAME":"Our Lady Of Victory Catholic School","GENERAL_USE_CODE":115001,"CENTRELINE_ID":8787,"LO_NUM":70,"LO_NUM_SUF":"None","HI_NUM":null,"HI_NUM_SUF":"None","LINEAR_NAME_ID":637}},{"type":"Feature","geometry":{"type":"MultiPoint","coordinates":[[-79.4400434190871,43.6839770688827]]},"properties":{"_id":744,"OBJECTID":843,"GEO_ID":60867,"NAME":"RAWLINSON COMMUNITY SCHOOL ","SCHOOL_LEVEL":"None","SCHOOL_TYPE":"EP","BOARD_NAME":"Toronto District School Board","SOURCE_ADDRESS":"231 GLENHOLME AVE ","SCHOOL_TYPE_DESC":"English Public","ADDRESS_POINT_ID":60867,"ADDRESS_NUMBER":"231","LINEAR_NAME_FULL":"Glenholme Ave","ADDRESS_FULL":"231 Glenholme Ave","POSTAL_CODE":"M6E 3C7","MUNICIPALITY":"YK","CITY":"YK","PLACE_NAME":"Rawlinson Community School","GENERAL_USE_CODE":115001,"CENTRELINE_ID":8735,"LO_NUM":231,"LO_NUM_SUF":"None","HI_NUM":null,"HI_NUM_SUF":"None","LINEAR_NAME_ID":615}},{"type":"Feature","geometry":{"type":"MultiPoint","coordinates":[[-79.4244002758798,43.6954265728918]]},"properties":{"_id":754,"OBJECTID":853,"GEO_ID":8855298,"NAME":"ROBBINS HEBREW ACADEMY","SCHOOL_LEVEL":"None","SCHOOL_TYPE":"PR","BOARD_NAME":"None","SOURCE_ADDRESS":"1700 BATHURST ST ","SCHOOL_TYPE_DESC":"Private","ADDRESS_POINT_ID":8855298,"ADDRESS_NUMBER":"1700","LINEAR_NAME_FULL":"Bathurst St","ADDRESS_FULL":"1700 Bathurst St","POSTAL_CODE":"M5P 3K3","MUNICIPALITY":"YK","CITY":"YK","PLACE_NAME":"Beth Tzedec Synagogue","GENERAL_USE_CODE":115001,"CENTRELINE_ID":8855299,"LO_NUM":1700,"LO_NUM_SUF":"None","HI_NUM":null,"HI_NUM_SUF":"None","LINEAR_NAME_ID":436}},{"type":"Feature","geometry":{"type":"MultiPoint","coordinates":[[-79.4694151111639,43.6872494240615]]},"properties":{"_id":817,"OBJECTID":916,"GEO_ID":64913,"NAME":"SILVERTHORN COMMUNITY SCHOOL","SCHOOL_LEVEL":"None","SCHOOL_TYPE":"EP","BOARD_NAME":"Toronto District School Board","SOURCE_ADDRESS":"300 KANE AVE ","SCHOOL_TYPE_DESC":"English Public","ADDRESS_POINT_ID":64913,"ADDRESS_NUMBER":"300","LINEAR_NAME_FULL":"Kane Ave","ADDRESS_FULL":"300 Kane Ave","POSTAL_CODE":"M6M 3P1","MUNICIPALITY":"YK","CITY":"YK","PLACE_NAME":"Silverthorn Community School","GENERAL_USE_CODE":115001,"CENTRELINE_ID":8438,"LO_NUM":300,"LO_NUM_SUF":"None","HI_NUM":null,"HI_NUM_SUF":"None","LINEAR_NAME_ID":702}},{"type":"Feature","geometry":{"type":"MultiPoint","coordinates":[[-79.4322064448468,43.6829136856874]]},"properties":{"_id":835,"OBJECTID":934,"GEO_ID":50835,"NAME":"ST ALPHONSUS CATHOLIC ELEMENTARY SCHOOL","SCHOOL_LEVEL":"None","SCHOOL_TYPE":"ES","BOARD_NAME":"Toronto Catholic District School Board","SOURCE_ADDRESS":"60 ATLAS AVE ","SCHOOL_TYPE_DESC":"English Separate","ADDRESS_POINT_ID":50835,"ADDRESS_NUMBER":"60","LINEAR_NAME_FULL":"Atlas Ave","ADDRESS_FULL":"60 Atlas Ave","POSTAL_CODE":"M6C 3N9","MUNICIPALITY":"YK","CITY":"YK","PLACE_NAME":"St. Alphonsus Catholic School","GENERAL_USE_CODE":115001,"CENTRELINE_ID":8704,"LO_NUM":60,"LO_NUM_SUF":"None","HI_NUM":null,"HI_NUM_SUF":"None","LINEAR_NAME_ID":417}},{"type":"Feature","geometry":{"type":"MultiPoint","coordinates":[[-79.4505577405563,43.688715787105]]},"properties":{"_id":904,"OBJECTID":1003,"GEO_ID":63252,"NAME":"ST JOHN BOSCO CATHOLIC ELEMENTARY SCHOOL","SCHOOL_LEVEL":"None","SCHOOL_TYPE":"ES","BOARD_NAME":"Toronto Catholic District School Board","SOURCE_ADDRESS":"75 HOLMESDALE RD ","SCHOOL_TYPE_DESC":"English Separate","ADDRESS_POINT_ID":63252,"ADDRESS_NUMBER":"75","LINEAR_NAME_FULL":"Holmesdale Rd","ADDRESS_FULL":"75 Holmesdale Rd","POSTAL_CODE":"M6E 1Y2","MUNICIPALITY":"YK","CITY":"YK","PLACE_NAME":"St. John Bosco Catholic School","GENERAL_USE_CODE":115001,"CENTRELINE_ID":8266,"LO_NUM":75,"LO_NUM_SUF":"None","HI_NUM":null,"HI_NUM_SUF":"None","LINEAR_NAME_ID":668}},{"type":"Feature","geometry":{"type":"MultiPoint","coordinates":[[-79.4604931991533,43.6828243738643]]},"properties":{"_id":953,"OBJECTID":1052,"GEO_ID":71978,"NAME":"ST NICHOLAS OF BARI CATHOLIC ELEMENTARY SCHOOL","SCHOOL_LEVEL":"None","SCHOOL_TYPE":"ES","BOARD_NAME":"Toronto Catholic District School Board","SOURCE_ADDRESS":"363 ROGERS RD ","SCHOOL_TYPE_DESC":"English Separate","ADDRESS_POINT_ID":71978,"ADDRESS_NUMBER":"363","LINEAR_NAME_FULL":"Rogers Rd","ADDRESS_FULL":"363 Rogers Rd","POSTAL_CODE":"M6E 1R6","MUNICIPALITY":"YK","CITY":"YK","PLACE_NAME":"St. Nicholas Of Bari Catholic School","GENERAL_USE_CODE":115001,"CENTRELINE_ID":8745,"LO_NUM":363,"LO_NUM_SUF":"None","HI_NUM":null,"HI_NUM_SUF":"None","LINEAR_NAME_ID":849}},{"type":"Feature","geometry":{"type":"MultiPoint","coordinates":[[-79.4457437831478,43.6958897058391]]},"properties":{"_id":974,"OBJECTID":1073,"GEO_ID":8571075,"NAME":"ST THOMAS AQUINAS CATHOLIC ELEMENTARY SCHOOL","SCHOOL_LEVEL":"None","SCHOOL_TYPE":"ES","BOARD_NAME":"Toronto Catholic District School Board","SOURCE_ADDRESS":"636 GLENHOLME AVE ","SCHOOL_TYPE_DESC":"English Separate","ADDRESS_POINT_ID":8571075,"ADDRESS_NUMBER":"636","LINEAR_NAME_FULL":"Glenholme Ave","ADDRESS_FULL":"636 Glenholme Ave","POSTAL_CODE":"M6E 3G9","MUNICIPALITY":"YK","CITY":"YK","PLACE_NAME":"St. Thomas Aquinas Catholic School","GENERAL_USE_CODE":115001,"CENTRELINE_ID":8570974,"LO_NUM":636,"LO_NUM_SUF":"None","HI_NUM":null,"HI_NUM_SUF":"None","LINEAR_NAME_ID":615}},{"type":"Feature","geometry":{"type":"MultiPoint","coordinates":[[-79.431434529951,43.699986532638]]},"properties":{"_id":1034,"OBJECTID":1133,"GEO_ID":8608458,"NAME":"THE VILLAGE SHUL SYNAGOGUE & SUPPLMENTARY SCHOOL","SCHOOL_LEVEL":"None","SCHOOL_TYPE":"PR","BOARD_NAME":"None","SOURCE_ADDRESS":"1072 EGLINTON AVE W","SCHOOL_TYPE_DESC":"Private","ADDRESS_POINT_ID":8608458,"ADDRESS_NUMBER":"1072","LINEAR_NAME_FULL":"Eglinton Ave W","ADDRESS_FULL":"1072 Eglinton Ave W","POSTAL_CODE":"M6C 2E2","MUNICIPALITY":"TO","CITY":"TO","PLACE_NAME":"None","GENERAL_USE_CODE":115001,"CENTRELINE_ID":8608450,"LO_NUM":1072,"LO_NUM_SUF":"None","HI_NUM":null,"HI_NUM_SUF":"None","LINEAR_NAME_ID":571}},{"type":"Feature","geometry":{"type":"MultiPolygon","coordinates":[[[[-79.4341395783744,43.7031543162934],[-79.4326398291831,43.7035066704619],[-79.4324380633219,43.7030096745696],[-79.4321814762852,43.7023776760918],[-79.4336935217097,43.7020544784413],[-79.4338643820972,43.7024757418695],[-79.4339497834875,43.7026863023494],[-79.4340202229206,43.7028599956892],[-79.4341395783744,43.7031543162934]]]]},"properties":{"_id":1114,"OBJECTID":1213,"GEO_ID":859183,"NAME":"WEST PREPARATORY JR PUBLIC SCHOOL","SCHOOL_LEVEL":"None","SCHOOL_TYPE":"EP","BOARD_NAME":"Toronto District School Board","SOURCE_ADDRESS":"70 RIDGE HILL DR ","SCHOOL_TYPE_DESC":"English Public","ADDRESS_POINT_ID":859183,"ADDRESS_NUMBER":"70","LINEAR_NAME_FULL":"Ridge Hill Dr","ADDRESS_FULL":"70 Ridge Hill Dr","POSTAL_CODE":"M6C 2J6","MUNICIPALITY":"TO","CITY":"TO","PLACE_NAME":"West Preparatory Junior Public School","GENERAL_USE_CODE":115001,"CENTRELINE_ID":1138683,"LO_NUM":70,"LO_NUM_SUF":"None","HI_NUM":null,"HI_NUM_SUF":"None","LINEAR_NAME_ID":4282}},{"type":"Feature","geometry":{"type":"MultiPoint","coordinates":[[-79.473699193678,43.6845465069876]]},"properties":{"_id":1163,"OBJECTID":1262,"GEO_ID":8152704,"NAME":"YORK MEMORIAL COLLEGIATE INSTITUTE","SCHOOL_LEVEL":"None","SCHOOL_TYPE":"EP","BOARD_NAME":"Toronto District School Board","SOURCE_ADDRESS":"1700 KEELE ST ","SCHOOL_TYPE_DESC":"English Public","ADDRESS_POINT_ID":8152704,"ADDRESS_NUMBER":"1700","LINEAR_NAME_FULL":"Keele St","ADDRESS_FULL":"1700 Keele St","POSTAL_CODE":"M6M 3W5","MUNICIPALITY":"YK","CITY":"YK","PLACE_NAME":"George Harvey Collegiate Institute","GENERAL_USE_CODE":115001,"CENTRELINE_ID":8128677,"LO_NUM":1700,"LO_NUM_SUF":"None","HI_NUM":null,"HI_NUM_SUF":"None","LINEAR_NAME_ID":703}},{"type":"Feature","geometry":{"type":"MultiPoint","coordinates":[[-79.4762398021686,43.6902787238341]]},"properties":{"_id":1164,"OBJECTID":1263,"GEO_ID":59118,"NAME":"YORK MEMORIAL COLLEGIATE INSTITUTE (UNDER CONSTRUCTION)","SCHOOL_LEVEL":"None","SCHOOL_TYPE":"EP","BOARD_NAME":"Toronto District School Board","SOURCE_ADDRESS":"2690 EGLINTON AVE W","SCHOOL_TYPE_DESC":"English Public","ADDRESS_POINT_ID":59118,"ADDRESS_NUMBER":"2690","LINEAR_NAME_FULL":"Eglinton Ave W","ADDRESS_FULL":"2690 Eglinton Ave W","POSTAL_CODE":"M6M 1T9","MUNICIPALITY":"YK","CITY":"YK","PLACE_NAME":"York Memorial Collegiate Institute","GENERAL_USE_CODE":115001,"CENTRELINE_ID":8171,"LO_NUM":2690,"LO_NUM_SUF":"None","HI_NUM":null,"HI_NUM_SUF":"None","LINEAR_NAME_ID":571}}]}