{
"type": "FeatureCollection",
"name": "Long term care locations - 4326",
"crs": { "type": "name", "properties": { "name": "urn:ogc:def:crs:OGC:1.3:CRS84" } },
"features": [
{ "type": "Feature", "properties": { "_id": 1, "ADDRESS_POINT_ID": "3872909", "ADDRESS_FULL": "92 Island Rd", "POSTAL_CODE": "M1C2P5", "MUNICIPALITY": "SCARBOROUGH", "CITY": "Toronto", "OBJECTID": "1", "ID": "1", "NAME": "Leisureworld Altamont Nursing Home", "BEDS": "159", "RESPITE": "1", "CONVALESCE": "0", "SMOKING": "No", "CITY_OP": "None", "TELEPHONE": "None", "ADULT_DAY_PROGRAM": "None" }, "geometry": { "type": "MultiPoint", "coordinates": [ [ -79.140029727974394, 43.798851214156102 ] ] } },
{ "type": "Feature", "properties": { "_id": 2, "ADDRESS_POINT_ID": "11165052", "ADDRESS_FULL": "914 Bathurst St", "POSTAL_CODE": "M5R3G5", "MUNICIPALITY": "former TORONTO", "CITY": "Toronto", "OBJECTID": "2", "ID": "2", "NAME": "Vermont Square", "BEDS": "130", "RESPITE": "1", "CONVALESCE": "0", "SMOKING": "Yes", "CITY_OP": "None", "TELEPHONE": "None", "ADULT_DAY_PROGRAM": "None" }, "geometry": { "type": "MultiPoint", "coordinates": [ [ -79.412800840119999, 43.668306832037899 ] ] } },
{ "type": "Feature", "properties": { "_id": 3, "ADDRESS_POINT_ID": "487172", "ADDRESS_FULL": "3560 Bathurst St", "POSTAL_CODE": "M6A2E1", "MUNICIPALITY": "NORTH YORK", "CITY": "Toronto", "OBJECTID": "3", "ID": "3", "NAME": "Baycrest Centre J.H.A.", "BEDS": "472", "RESPITE": "0", "CONVALESCE": "0", "SMOKING": "No", "CITY_OP": "None", "TELEPHONE": "None", "ADULT_DAY_PROGRAM": "None" }, "geometry": { "type": "MultiPoint", "coordinates": [ [ -79.434143305389696, 43.730055606356203 ] ] } },
{ "type": "Feature", "properties": { "_id": 4, "ADDRESS_POINT_ID": "13972845", "ADDRESS_FULL": "55 Belmont St", "POSTAL_CODE": "M5R1R1", "MUNICIPALITY": "former TORONTO", "CITY": "Toronto", "OBJECTID": "4", "ID": "4", "NAME": "Belmont House", "BEDS": "140", "RESPITE": "0", "CONVALESCE": "0", "SMOKING": "No", "CITY_OP": "None", "TELEPHONE": "None", "ADULT_DAY_PROGRAM": "None" }, "geometry": { "type": "MultiPoint", "coordinates": [ [ -79.390963573464603, 43.674670983534703 ] ] } },
{ "type": "Feature", "properties": { "_id": 5, "ADDRESS_POINT_ID": "354403", "ADDRESS_FULL": "2920 Lawrence Ave E", "POSTAL_CODE": "M1P2T8", "MUNICIPALITY": "SCARBOROUGH", "CITY": "Toronto", "OBJECTID": "5", "ID": "5", "NAME": "Bendale Acres", "BEDS": "300", "RESPITE": "2", "CONVALESCE": "None", "SMOKING": "Yes", "CITY_OP": "Y", "TELEPHONE": "416-397-7000", "ADULT_DAY_PROGRAM": "Yes" }, "geometry": { "type": "MultiPoint", "coordinates": [ [ -79.252155968425598, 43.754886500597898 ] ] } },
{ "type": "Feature", "properties": { "_id": 6, "ADDRESS_POINT_ID": "515756", "ADDRESS_FULL": "306 Finch Ave E", "POSTAL_CODE": "M2N4S5", "MUNICIPALITY": "NORTH YORK", "CITY": "Toronto", "OBJECTID": "6", "ID": "6", "NAME": "Carefree Lodge", "BEDS": "127", "RESPITE": "0", "CONVALESCE": "None", "SMOKING": "No", "CITY_OP": "Y", "TELEPHONE": "416-397-1500", "ADULT_DAY_PROGRAM": "No" }, "geometry": { "type": "MultiPoint", "coordinates": [ [ -79.394032644073107, 43.785013159397998 ] ] } },
{ "type": "Feature", "properties": { "_id": 7, "ADDRESS_POINT_ID": "9278797", "ADDRESS_FULL": "3595 Keele St", "POSTAL_CODE": "M3J1M7", "MUNICIPALITY": "NORTH YORK", "CITY": "Toronto", "OBJECTID": "7", "ID": "7", "NAME": "Casa Verde Health Centre Inc.", "BEDS": "252", "RESPITE": "2", "CONVALESCE": "0", "SMOKING": "No", "CITY_OP": "None", "TELEPHONE": "None", "ADULT_DAY_PROGRAM": "None" }, "geometry": { "type": "MultiPoint", "coordinates": [ [ -79.485769783464804, 43.751123375583198 ] ] } },
{ "type": "Feature", "properties": { "_id": 8, "ADDRESS_POINT_ID": "8008656", "ADDRESS_FULL": "351 Christie St", "POSTAL_CODE": "M6G3C3", "MUNICIPALITY": "former TORONTO", "CITY": "Toronto", "OBJECTID": "8", "ID": "8", "NAME": "Castleview Wychwood Towers", "BEDS": "441", "RESPITE": "3", "CONVALESCE": "12", "SMOKING": "Yes", "CITY_OP": "Y", "TELEPHONE": "416-392-5700", "ADULT_DAY_PROGRAM": "Yes" }, "geometry": { "type": "MultiPoint", "coordinates": [ [ -79.421169754267098, 43.673380828622903 ] ] } },
{ "type": "Feature", "properties": { "_id": 9, "ADDRESS_POINT_ID": "982392", "ADDRESS_FULL": "1145 Albion Rd", "POSTAL_CODE": "M9V4J7", "MUNICIPALITY": "ETOBICOKE", "CITY": "Toronto", "OBJECTID": "9", "ID": "9", "NAME": "Central Park Lodge", "BEDS": "290", "RESPITE": "1", "CONVALESCE": "0", "SMOKING": "No", "CITY_OP": "None", "TELEPHONE": "None", "ADULT_DAY_PROGRAM": "None" }, "geometry": { "type": "MultiPoint", "coordinates": [ [ -79.567758488144804, 43.737291249148697 ] ] } },
{ "type": "Feature", "properties": { "_id": 10, "ADDRESS_POINT_ID": "9313354", "ADDRESS_FULL": "5935 Bathurst St", "POSTAL_CODE": "M2R1Y8", "MUNICIPALITY": "NORTH YORK", "CITY": "Toronto", "OBJECTID": "10", "ID": "10", "NAME": "Cheltenham Nursing Home", "BEDS": "170", "RESPITE": "1", "CONVALESCE": "0", "SMOKING": "No", "CITY_OP": "None", "TELEPHONE": "None", "ADULT_DAY_PROGRAM": "None" }, "geometry": { "type": "MultiPoint", "coordinates": [ [ -79.444520423189203, 43.781900512653301 ] ] } },
{ "type": "Feature", "properties": { "_id": 11, "ADDRESS_POINT_ID": "776531", "ADDRESS_FULL": "717 Broadview Ave", "POSTAL_CODE": "M4K2P5", "MUNICIPALITY": "former TORONTO", "CITY": "Toronto", "OBJECTID": "11", "ID": "11", "NAME": "Chester Village", "BEDS": "175", "RESPITE": "3", "CONVALESCE": "0", "SMOKING": "No", "CITY_OP": "None", "TELEPHONE": "None", "ADULT_DAY_PROGRAM": "None" }, "geometry": { "type": "MultiPoint", "coordinates": [ [ -79.357465314272901, 43.675154921189097 ] ] } },
{ "type": "Feature", "properties": { "_id": 12, "ADDRESS_POINT_ID": "9234477", "ADDRESS_FULL": "600 Melita Cres", "POSTAL_CODE": "M6G3Z4", "MUNICIPALITY": "former TORONTO", "CITY": "Toronto", "OBJECTID": "12", "ID": "12", "NAME": "Christie Gardens", "BEDS": "88", "RESPITE": "0", "CONVALESCE": "0", "SMOKING": "No", "CITY_OP": "None", "TELEPHONE": "None", "ADULT_DAY_PROGRAM": "None" }, "geometry": { "type": "MultiPoint", "coordinates": [ [ -79.422689837308198, 43.673181245254398 ] ] } },
{ "type": "Feature", "properties": { "_id": 13, "ADDRESS_POINT_ID": "20120140", "ADDRESS_FULL": "66 Roncesvalles Ave", "POSTAL_CODE": "M6R 3A7", "MUNICIPALITY": "former TORONTO", "CITY": "Toronto", "OBJECTID": "13", "ID": "13", "NAME": "Copernicus Lodge", "BEDS": "228", "RESPITE": "2", "CONVALESCE": "0", "SMOKING": "Yes", "CITY_OP": "None", "TELEPHONE": "None", "ADULT_DAY_PROGRAM": "None" }, "geometry": { "type": "MultiPoint", "coordinates": [ [ -79.447304330691296, 43.640190879095698 ] ] } },
{ "type": "Feature", "properties": { "_id": 14, "ADDRESS_POINT_ID": "323703", "ADDRESS_FULL": "102 Craiglee Dr", "POSTAL_CODE": "M1N2M7", "MUNICIPALITY": "SCARBOROUGH", "CITY": "Toronto", "OBJECTID": "14", "ID": "14", "NAME": "Craiglee Nursing Home", "BEDS": "169", "RESPITE": "3", "CONVALESCE": "0", "SMOKING": "No", "CITY_OP": "None", "TELEPHONE": "None", "ADULT_DAY_PROGRAM": "None" }, "geometry": { "type": "MultiPoint", "coordinates": [ [ -79.253071451983104, 43.706902203957 ] ] } },
{ "type": "Feature", "properties": { "_id": 15, "ADDRESS_POINT_ID": "504793", "ADDRESS_FULL": "205 Cummer Ave", "POSTAL_CODE": "M2M2E8", "MUNICIPALITY": "NORTH YORK", "CITY": "Toronto", "OBJECTID": "15", "ID": "15", "NAME": "Cummer Lodge", "BEDS": "387", "RESPITE": "4", "CONVALESCE": "None", "SMOKING": "Yes", "CITY_OP": "Y", "TELEPHONE": "416-392-9500", "ADULT_DAY_PROGRAM": "No" }, "geometry": { "type": "MultiPoint", "coordinates": [ [ -79.407510083818906, 43.788249835804798 ] ] } },
{ "type": "Feature", "properties": { "_id": 16, "ADDRESS_POINT_ID": "1020555", "ADDRESS_FULL": "52 Neilson Dr", "POSTAL_CODE": "M9C1V7", "MUNICIPALITY": "ETOBICOKE", "CITY": "Toronto", "OBJECTID": "16", "ID": "16", "NAME": "Dom Lipa Nursing Home", "BEDS": "66", "RESPITE": "0", "CONVALESCE": "0", "SMOKING": "No", "CITY_OP": "None", "TELEPHONE": "None", "ADULT_DAY_PROGRAM": "None" }, "geometry": { "type": "MultiPoint", "coordinates": [ [ -79.565280157427097, 43.629155698490202 ] ] } },
{ "type": "Feature", "properties": { "_id": 17, "ADDRESS_POINT_ID": "6535316", "ADDRESS_FULL": "345 Sherbourne St", "POSTAL_CODE": "M5A2S3", "MUNICIPALITY": "former TORONTO", "CITY": "Toronto", "OBJECTID": "17", "ID": "17", "NAME": "Dr.'s Paul and John Rekai Centre", "BEDS": "125", "RESPITE": "2", "CONVALESCE": "0", "SMOKING": "Yes", "CITY_OP": "None", "TELEPHONE": "None", "ADULT_DAY_PROGRAM": "None" }, "geometry": { "type": "MultiPoint", "coordinates": [ [ -79.3724232708811, 43.662698594300501 ] ] } },
{ "type": "Feature", "properties": { "_id": 18, "ADDRESS_POINT_ID": "369261", "ADDRESS_FULL": "40 Old Kingston Rd", "POSTAL_CODE": "M1E3J5", "MUNICIPALITY": "SCARBOROUGH", "CITY": "Toronto", "OBJECTID": "18", "ID": "18", "NAME": "Ehatare Home for the Aged", "BEDS": "32", "RESPITE": "0", "CONVALESCE": "0", "SMOKING": "Yes", "CITY_OP": "None", "TELEPHONE": "None", "ADULT_DAY_PROGRAM": "None" }, "geometry": { "type": "MultiPoint", "coordinates": [ [ -79.183129521102998, 43.775541382528203 ] ] } },
{ "type": "Feature", "properties": { "_id": 19, "ADDRESS_POINT_ID": "8190415", "ADDRESS_FULL": "35 Elm Grove Ave", "POSTAL_CODE": "M6K 2J2", "MUNICIPALITY": "former TORONTO", "CITY": "Toronto", "OBJECTID": "19", "ID": "19", "NAME": "Elm Grove Living Centre Inc.", "BEDS": "126", "RESPITE": "0", "CONVALESCE": "0", "SMOKING": "Yes", "CITY_OP": "None", "TELEPHONE": "None", "ADULT_DAY_PROGRAM": "None" }, "geometry": { "type": "MultiPoint", "coordinates": [ [ -79.430744255424699, 43.640325258019303 ] ] } },
{ "type": "Feature", "properties": { "_id": 20, "ADDRESS_POINT_ID": "504889", "ADDRESS_FULL": "550 Cummer Ave", "POSTAL_CODE": "M2K2M2", "MUNICIPALITY": "NORTH YORK", "CITY": "Toronto", "OBJECTID": "20", "ID": "20", "NAME": "Extendicare Bayview", "BEDS": "202", "RESPITE": "1", "CONVALESCE": "0", "SMOKING": "Yes", "CITY_OP": "None", "TELEPHONE": "None", "ADULT_DAY_PROGRAM": "None" }, "geometry": { "type": "MultiPoint", "coordinates": [ [ -79.390921414281905, 43.793664010333501 ] ] } },
{ "type": "Feature", "properties": { "_id": 21, "ADDRESS_POINT_ID": "341406", "ADDRESS_FULL": "60 Guildwood Pkwy", "POSTAL_CODE": "M1E1N9", "MUNICIPALITY": "SCARBOROUGH", "CITY": "Toronto", "OBJECTID": "21", "ID": "21", "NAME": "Extendicare Guildwood", "BEDS": "169", "RESPITE": "3", "CONVALESCE": "0", "SMOKING": "Yes", "CITY_OP": "None", "TELEPHONE": "None", "ADULT_DAY_PROGRAM": "None" }, "geometry": { "type": "MultiPoint", "coordinates": [ [ -79.203149364505293, 43.7469080281275 ] ] } },
{ "type": "Feature", "properties": { "_id": 22, "ADDRESS_POINT_ID": "12666241", "ADDRESS_FULL": "1 Sand Beach Rd", "POSTAL_CODE": "M8V2W2", "MUNICIPALITY": "ETOBICOKE", "CITY": "Toronto", "OBJECTID": "22", "ID": "22", "NAME": "Garden Court Nursing Home", "BEDS": "45", "RESPITE": "0", "CONVALESCE": "0", "SMOKING": "Yes", "CITY_OP": "None", "TELEPHONE": "None", "ADULT_DAY_PROGRAM": "None" }, "geometry": { "type": "MultiPoint", "coordinates": [ [ -79.496900972146406, 43.6019346949507 ] ] } },
{ "type": "Feature", "properties": { "_id": 23, "ADDRESS_POINT_ID": "565245", "ADDRESS_FULL": "1925 Steeles Ave E", "POSTAL_CODE": "M2H2H3", "MUNICIPALITY": "NORTH YORK", "CITY": "Toronto", "OBJECTID": "23", "ID": "23", "NAME": "Gibson Long Term Care", "BEDS": "201", "RESPITE": "2", "CONVALESCE": "0", "SMOKING": "None", "CITY_OP": "None", "TELEPHONE": "None", "ADULT_DAY_PROGRAM": "None" }, "geometry": { "type": "MultiPoint", "coordinates": [ [ -79.373887340546901, 43.807655570304298 ] ] } },
{ "type": "Feature", "properties": { "_id": 24, "ADDRESS_POINT_ID": "14629316", "ADDRESS_FULL": "551 Conlins Rd", "POSTAL_CODE": "M1B5S1", "MUNICIPALITY": "SCARBOROUGH", "CITY": "Toronto", "OBJECTID": "24", "ID": "24", "NAME": "Extendicare Rouge Valley", "BEDS": "192", "RESPITE": "1", "CONVALESCE": "0", "SMOKING": "No", "CITY_OP": "None", "TELEPHONE": "None", "ADULT_DAY_PROGRAM": "None" }, "geometry": { "type": "MultiPoint", "coordinates": [ [ -79.188975705388103, 43.803730328504699 ] ] } },
{ "type": "Feature", "properties": { "_id": 25, "ADDRESS_POINT_ID": "7423569", "ADDRESS_FULL": "3830 Lawrence Ave E", "POSTAL_CODE": "M1G1R6", "MUNICIPALITY": "SCARBOROUGH", "CITY": "Toronto", "OBJECTID": "25", "ID": "25", "NAME": "Extendicare Scarborough", "BEDS": "154", "RESPITE": "6", "CONVALESCE": "20", "SMOKING": "No", "CITY_OP": "None", "TELEPHONE": "None", "ADULT_DAY_PROGRAM": "None" }, "geometry": { "type": "MultiPoint", "coordinates": [ [ -79.210588665658605, 43.763581721463297 ] ] } },
{ "type": "Feature", "properties": { "_id": 26, "ADDRESS_POINT_ID": "56753", "ADDRESS_FULL": "14 Cross St", "POSTAL_CODE": "M9N2B9", "MUNICIPALITY": "YORK", "CITY": "Toronto", "OBJECTID": "26", "ID": "26", "NAME": "Fairview Nursing Home", "BEDS": "108", "RESPITE": "1", "CONVALESCE": "0", "SMOKING": "No", "CITY_OP": "None", "TELEPHONE": "None", "ADULT_DAY_PROGRAM": "None" }, "geometry": { "type": "MultiPoint", "coordinates": [ [ -79.524968105825096, 43.704197381799197 ] ] } },
{ "type": "Feature", "properties": { "_id": 27, "ADDRESS_POINT_ID": "10923486", "ADDRESS_FULL": "439 Sherbourne St", "POSTAL_CODE": "M4X1K6", "MUNICIPALITY": "former TORONTO", "CITY": "Toronto", "OBJECTID": "27", "ID": "27", "NAME": "Fudger House", "BEDS": "240", "RESPITE": "1", "CONVALESCE": "9", "SMOKING": "Yes", "CITY_OP": "Y", "TELEPHONE": "416-392-5252", "ADULT_DAY_PROGRAM": "No" }, "geometry": { "type": "MultiPoint", "coordinates": [ [ -79.373691485362599, 43.666271031425602 ] ] } },
{ "type": "Feature", "properties": { "_id": 28, "ADDRESS_POINT_ID": "69387", "ADDRESS_FULL": "1 Northwestern Ave", "POSTAL_CODE": "M6M2J7", "MUNICIPALITY": "YORK", "CITY": "Toronto", "OBJECTID": "28", "ID": "28", "NAME": "Harold and Grace Baker Centre", "BEDS": "120", "RESPITE": "0", "CONVALESCE": "0", "SMOKING": "None", "CITY_OP": "None", "TELEPHONE": "None", "ADULT_DAY_PROGRAM": "None" }, "geometry": { "type": "MultiPoint", "coordinates": [ [ -79.469786323623296, 43.6979367327612 ] ] } },
{ "type": "Feature", "properties": { "_id": 29, "ADDRESS_POINT_ID": "20040273", "ADDRESS_FULL": "2411 Lawrence Ave E", "POSTAL_CODE": "M1P4X1", "MUNICIPALITY": "SCARBOROUGH", "CITY": "Toronto", "OBJECTID": "29", "ID": "29", "NAME": "Hellenic Home", "BEDS": "128", "RESPITE": "1", "CONVALESCE": "0", "SMOKING": "None", "CITY_OP": "None", "TELEPHONE": "None", "ADULT_DAY_PROGRAM": "None" }, "geometry": { "type": "MultiPoint", "coordinates": [ [ -79.274368623367096, 43.749292376203798 ] ] } },
{ "type": "Feature", "properties": { "_id": 30, "ADDRESS_POINT_ID": "8007050", "ADDRESS_FULL": "215 Tyrrel Ave", "POSTAL_CODE": "M6G4A9", "MUNICIPALITY": "former TORONTO", "CITY": "Toronto", "OBJECTID": "30", "ID": "30", "NAME": "Hellenic Care for Seniors", "BEDS": "81", "RESPITE": "0", "CONVALESCE": "0", "SMOKING": "No", "CITY_OP": "None", "TELEPHONE": "None", "ADULT_DAY_PROGRAM": "None" }, "geometry": { "type": "MultiPoint", "coordinates": [ [ -79.430335309662098, 43.676776823691903 ] ] } },
{ "type": "Feature", "properties": { "_id": 31, "ADDRESS_POINT_ID": "14200264", "ADDRESS_FULL": "1195 Queen St E", "POSTAL_CODE": "M4M1L6", "MUNICIPALITY": "former TORONTO", "CITY": "Toronto", "OBJECTID": "31", "ID": "31", "NAME": "Heritage Nursing Home", "BEDS": "201", "RESPITE": "1", "CONVALESCE": "0", "SMOKING": "Yes", "CITY_OP": "None", "TELEPHONE": "None", "ADULT_DAY_PROGRAM": "None" }, "geometry": { "type": "MultiPoint", "coordinates": [ [ -79.331156010417402, 43.662522320776098 ] ] } },
{ "type": "Feature", "properties": { "_id": 32, "ADDRESS_POINT_ID": "1036581", "ADDRESS_FULL": "420 The East Mall", "POSTAL_CODE": "M9B3Z9", "MUNICIPALITY": "ETOBICOKE", "CITY": "Toronto", "OBJECTID": "32", "ID": "32", "NAME": "Highbourne Lifecare Centre", "BEDS": "251", "RESPITE": "4", "CONVALESCE": "0", "SMOKING": "Yes", "CITY_OP": "None", "TELEPHONE": "None", "ADULT_DAY_PROGRAM": "None" }, "geometry": { "type": "MultiPoint", "coordinates": [ [ -79.560693367065895, 43.6474696882985 ] ] } },
{ "type": "Feature", "properties": { "_id": 33, "ADDRESS_POINT_ID": "4628244", "ADDRESS_FULL": "3276 St Clair Ave E", "POSTAL_CODE": "M1L1W1", "MUNICIPALITY": "SCARBOROUGH", "CITY": "Toronto", "OBJECTID": "33", "ID": "33", "NAME": "Houses of Providence", "BEDS": "288", "RESPITE": "0", "CONVALESCE": "0", "SMOKING": "No", "CITY_OP": "None", "TELEPHONE": "None", "ADULT_DAY_PROGRAM": "None" }, "geometry": { "type": "MultiPoint", "coordinates": [ [ -79.285196235403504, 43.7139593948895 ] ] } },
{ "type": "Feature", "properties": { "_id": 34, "ADDRESS_POINT_ID": "30353", "ADDRESS_FULL": "2 O'Connor Dr", "POSTAL_CODE": "M4K2K1", "MUNICIPALITY": "EAST YORK", "CITY": "Toronto", "OBJECTID": "34", "ID": "34", "NAME": "Ina Grafton Gage Home", "BEDS": "110", "RESPITE": "0", "CONVALESCE": "0", "SMOKING": "No", "CITY_OP": "None", "TELEPHONE": "None", "ADULT_DAY_PROGRAM": "None" }, "geometry": { "type": "MultiPoint", "coordinates": [ [ -79.356473619800695, 43.692337751902599 ] ] } },
{ "type": "Feature", "properties": { "_id": 35, "ADDRESS_POINT_ID": "14236186", "ADDRESS_FULL": "155 Millwood Rd", "POSTAL_CODE": "M4S1J6", "MUNICIPALITY": "former TORONTO", "CITY": "Toronto", "OBJECTID": "35", "ID": "35", "NAME": "The Isabel and Arthur Meighen Manor", "BEDS": "168", "RESPITE": "0", "CONVALESCE": "0", "SMOKING": "No", "CITY_OP": "None", "TELEPHONE": "None", "ADULT_DAY_PROGRAM": "None" }, "geometry": { "type": "MultiPoint", "coordinates": [ [ -79.392536149663798, 43.699983828327603 ] ] } },
{ "type": "Feature", "properties": { "_id": 36, "ADDRESS_POINT_ID": "10143004", "ADDRESS_FULL": "767 Royal York Rd", "POSTAL_CODE": "M8Y2T3", "MUNICIPALITY": "ETOBICOKE", "CITY": "Toronto", "OBJECTID": "36", "ID": "36", "NAME": "Ivan Franko Home", "BEDS": "85", "RESPITE": "1", "CONVALESCE": "0", "SMOKING": "No", "CITY_OP": "None", "TELEPHONE": "None", "ADULT_DAY_PROGRAM": "None" }, "geometry": { "type": "MultiPoint", "coordinates": [ [ -79.507082900598803, 43.637680429433502 ] ] } },
{ "type": "Feature", "properties": { "_id": 37, "ADDRESS_POINT_ID": "5070417", "ADDRESS_FULL": "1400 Kennedy Rd", "POSTAL_CODE": "M1P4V6", "MUNICIPALITY": "SCARBOROUGH", "CITY": "Toronto", "OBJECTID": "37", "ID": "37", "NAME": "Kennedy Lodge", "BEDS": "289", "RESPITE": "2", "CONVALESCE": "18", "SMOKING": "No", "CITY_OP": "None", "TELEPHONE": "None", "ADULT_DAY_PROGRAM": "None" }, "geometry": { "type": "MultiPoint", "coordinates": [ [ -79.280633026097405, 43.7626707459236 ] ] } },
{ "type": "Feature", "properties": { "_id": 38, "ADDRESS_POINT_ID": "12601319", "ADDRESS_FULL": "25 Brunswick Ave", "POSTAL_CODE": "M5S 2L9", "MUNICIPALITY": "former TORONTO", "CITY": "Toronto", "OBJECTID": "38", "ID": "38", "NAME": "Kensington Gardens", "BEDS": "350", "RESPITE": "3", "CONVALESCE": "0", "SMOKING": "No", "CITY_OP": "None", "TELEPHONE": "None", "ADULT_DAY_PROGRAM": "None" }, "geometry": { "type": "MultiPoint", "coordinates": [ [ -79.404097816907694, 43.658229549433102 ] ] } },
{ "type": "Feature", "properties": { "_id": 39, "ADDRESS_POINT_ID": "6052169", "ADDRESS_FULL": "2233 Kipling Ave", "POSTAL_CODE": "M9W4L3", "MUNICIPALITY": "ETOBICOKE", "CITY": "Toronto", "OBJECTID": "39", "ID": "39", "NAME": "Kipling Acres", "BEDS": "243", "RESPITE": "2", "CONVALESCE": "17", "SMOKING": "No", "CITY_OP": "Y", "TELEPHONE": "416-392-2300", "ADULT_DAY_PROGRAM": "Yes" }, "geometry": { "type": "MultiPoint", "coordinates": [ [ -79.571886474029, 43.725119510265202 ] ] } },
{ "type": "Feature", "properties": { "_id": 40, "ADDRESS_POINT_ID": "14204102", "ADDRESS_FULL": "5 Resurrection Rd", "POSTAL_CODE": "M9A5G1", "MUNICIPALITY": "ETOBICOKE", "CITY": "Toronto", "OBJECTID": "40", "ID": "40", "NAME": "Labdara Nursing Home", "BEDS": "90", "RESPITE": "0", "CONVALESCE": "0", "SMOKING": "No", "CITY_OP": "None", "TELEPHONE": "None", "ADULT_DAY_PROGRAM": "None" }, "geometry": { "type": "MultiPoint", "coordinates": [ [ -79.530863131565596, 43.643889340712597 ] ] } },
{ "type": "Feature", "properties": { "_id": 41, "ADDRESS_POINT_ID": "6735910", "ADDRESS_FULL": "3197 Lake Shore Blvd W", "POSTAL_CODE": "M8V3X5", "MUNICIPALITY": "ETOBICOKE", "CITY": "Toronto", "OBJECTID": "41", "ID": "41", "NAME": "Lakeshore Lodge", "BEDS": "150", "RESPITE": "0", "CONVALESCE": "None", "SMOKING": "Yes", "CITY_OP": "Y", "TELEPHONE": "416-392-9400", "ADULT_DAY_PROGRAM": "No" }, "geometry": { "type": "MultiPoint", "coordinates": [ [ -79.519717755078901, 43.597420010879603 ] ] } },
{ "type": "Feature", "properties": { "_id": 42, "ADDRESS_POINT_ID": "8649751", "ADDRESS_FULL": "1800 O'Connor Dr", "POSTAL_CODE": "M4A1W7", "MUNICIPALITY": "NORTH YORK", "CITY": "Toronto", "OBJECTID": "42", "ID": "43", "NAME": "Leisureworld Caregiving Centre O'Connor Court & Gate", "BEDS": "316", "RESPITE": "0", "CONVALESCE": "0", "SMOKING": "No", "CITY_OP": "None", "TELEPHONE": "None", "ADULT_DAY_PROGRAM": "None" }, "geometry": { "type": "MultiPoint", "coordinates": [ [ -79.3048608425553, 43.720464623454802 ] ] } },
{ "type": "Feature", "properties": { "_id": 43, "ADDRESS_POINT_ID": "873429", "ADDRESS_FULL": "225 St George St", "POSTAL_CODE": "M5R2M2", "MUNICIPALITY": "former TORONTO", "CITY": "Toronto", "OBJECTID": "43", "ID": "45", "NAME": "Leisureworld Caregiving Cenre - St. George", "BEDS": "238", "RESPITE": "4", "CONVALESCE": "0", "SMOKING": "Yes", "CITY_OP": "None", "TELEPHONE": "None", "ADULT_DAY_PROGRAM": "None" }, "geometry": { "type": "MultiPoint", "coordinates": [ [ -79.401458874789199, 43.672529115302197 ] ] } },
{ "type": "Feature", "properties": { "_id": 44, "ADDRESS_POINT_ID": "14225874", "ADDRESS_FULL": "70 Humberline Dr", "POSTAL_CODE": "M9W7H3", "MUNICIPALITY": "ETOBICOKE", "CITY": "Toronto", "OBJECTID": "44", "ID": "47", "NAME": "Leisureworld Etobicoke", "BEDS": "160", "RESPITE": "0", "CONVALESCE": "0", "SMOKING": "Yes", "CITY_OP": "None", "TELEPHONE": "None", "ADULT_DAY_PROGRAM": "None" }, "geometry": { "type": "MultiPoint", "coordinates": [ [ -79.617381923960806, 43.731928022179702 ] ] } },
{ "type": "Feature", "properties": { "_id": 45, "ADDRESS_POINT_ID": "4570687", "ADDRESS_FULL": "22 Norfinch Dr", "POSTAL_CODE": "M3N1X1", "MUNICIPALITY": "NORTH YORK", "CITY": "Toronto", "OBJECTID": "45", "ID": "49", "NAME": "Leisureworld Norfinch", "BEDS": "160", "RESPITE": "0", "CONVALESCE": "0", "SMOKING": "None", "CITY_OP": "None", "TELEPHONE": "None", "ADULT_DAY_PROGRAM": "None" }, "geometry": { "type": "MultiPoint", "coordinates": [ [ -79.526176087272802, 43.7568095978259 ] ] } },
{ "type": "Feature", "properties": { "_id": 46, "ADDRESS_POINT_ID": "7571204", "ADDRESS_FULL": "28 Halton St", "POSTAL_CODE": "M6J1R3", "MUNICIPALITY": "former TORONTO", "CITY": "Toronto", "OBJECTID": "46", "ID": "51", "NAME": "Maynard Nursing Home", "BEDS": "77", "RESPITE": "0", "CONVALESCE": "0", "SMOKING": "No", "CITY_OP": "None", "TELEPHONE": "None", "ADULT_DAY_PROGRAM": "None" }, "geometry": { "type": "MultiPoint", "coordinates": [ [ -79.419150730839206, 43.648938366572203 ] ] } },
{ "type": "Feature", "properties": { "_id": 47, "ADDRESS_POINT_ID": "14245951", "ADDRESS_FULL": "2030 McNicoll Ave", "POSTAL_CODE": "M1V5P4", "MUNICIPALITY": "SCARBOROUGH", "CITY": "Toronto", "OBJECTID": "47", "ID": "53", "NAME": "Mon Sheong Scarborough LTC Centre", "BEDS": "160", "RESPITE": "2", "CONVALESCE": "0", "SMOKING": "No", "CITY_OP": "None", "TELEPHONE": "None", "ADULT_DAY_PROGRAM": "None" }, "geometry": { "type": "MultiPoint", "coordinates": [ [ -79.300207715200997, 43.813059627761902 ] ] } },
{ "type": "Feature", "properties": { "_id": 48, "ADDRESS_POINT_ID": "558481", "ADDRESS_FULL": "450 Rustic Rd", "POSTAL_CODE": "M6L1W9", "MUNICIPALITY": "NORTH YORK", "CITY": "Toronto", "OBJECTID": "48", "ID": "55", "NAME": "North Park Nursing Home", "BEDS": "75", "RESPITE": "0", "CONVALESCE": "0", "SMOKING": "Yes", "CITY_OP": "None", "TELEPHONE": "None", "ADULT_DAY_PROGRAM": "None" }, "geometry": { "type": "MultiPoint", "coordinates": [ [ -79.482221519468396, 43.717599783382099 ] ] } },
{ "type": "Feature", "properties": { "_id": 49, "ADDRESS_POINT_ID": "11485081", "ADDRESS_FULL": "3015 Lawrence Ave E", "POSTAL_CODE": "M1P2V7", "MUNICIPALITY": "SCARBOROUGH", "CITY": "Toronto", "OBJECTID": "49", "ID": "57", "NAME": "Leisureworld Rockcliffe Centre", "BEDS": "204", "RESPITE": "1", "CONVALESCE": "0", "SMOKING": "No", "CITY_OP": "None", "TELEPHONE": "None", "ADULT_DAY_PROGRAM": "None" }, "geometry": { "type": "MultiPoint", "coordinates": [ [ -79.247948373320298, 43.754666626427301 ] ] } },
{ "type": "Feature", "properties": { "_id": 50, "ADDRESS_POINT_ID": "6332525", "ADDRESS_FULL": "3760 Sheppard Ave E", "POSTAL_CODE": "M1T3K9", "MUNICIPALITY": "SCARBOROUGH", "CITY": "Toronto", "OBJECTID": "50", "ID": "60", "NAME": "Shepherd Village", "BEDS": "208", "RESPITE": "0", "CONVALESCE": "0", "SMOKING": "Yes", "CITY_OP": "None", "TELEPHONE": "None", "ADULT_DAY_PROGRAM": "None" }, "geometry": { "type": "MultiPoint", "coordinates": [ [ -79.293623330004806, 43.782297228284101 ] ] } },
{ "type": "Feature", "properties": { "_id": 51, "ADDRESS_POINT_ID": "14038558", "ADDRESS_FULL": "36 Spencer Ave", "POSTAL_CODE": "M6K2J6", "MUNICIPALITY": "former TORONTO", "CITY": "Toronto", "OBJECTID": "51", "ID": "61", "NAME": "Spencer House", "BEDS": "120", "RESPITE": "1", "CONVALESCE": "0", "SMOKING": "Yes", "CITY_OP": "None", "TELEPHONE": "None", "ADULT_DAY_PROGRAM": "None" }, "geometry": { "type": "MultiPoint", "coordinates": [ [ -79.429996151627094, 43.634953300179802 ] ] } },
{ "type": "Feature", "properties": { "_id": 52, "ADDRESS_POINT_ID": "11816853", "ADDRESS_FULL": "795 Eglinton Ave E", "POSTAL_CODE": "M4G4E4", "MUNICIPALITY": "EAST YORK", "CITY": "Toronto", "OBJECTID": "52", "ID": "63", "NAME": "Suomi Koti Nursing Home", "BEDS": "34", "RESPITE": "0", "CONVALESCE": "0", "SMOKING": "No", "CITY_OP": "None", "TELEPHONE": "None", "ADULT_DAY_PROGRAM": "None" }, "geometry": { "type": "MultiPoint", "coordinates": [ [ -79.366184815099999, 43.713002658005898 ] ] } },
{ "type": "Feature", "properties": { "_id": 53, "ADDRESS_POINT_ID": "10877858", "ADDRESS_FULL": "33 Christie St", "POSTAL_CODE": "M6G3B1", "MUNICIPALITY": "former TORONTO", "CITY": "Toronto", "OBJECTID": "53", "ID": "65", "NAME": "The O'Neill Centre", "BEDS": "161", "RESPITE": "1", "CONVALESCE": "0", "SMOKING": "No", "CITY_OP": "None", "TELEPHONE": "None", "ADULT_DAY_PROGRAM": "None" }, "geometry": { "type": "MultiPoint", "coordinates": [ [ -79.418597909002898, 43.664777957006301 ] ] } },
{ "type": "Feature", "properties": { "_id": 54, "ADDRESS_POINT_ID": "1027596", "ADDRESS_FULL": "60 Richview Rd", "POSTAL_CODE": "M9A5E4", "MUNICIPALITY": "ETOBICOKE", "CITY": "Toronto", "OBJECTID": "54", "ID": "67", "NAME": "The Ukrainian Canadian Care Centre", "BEDS": "120", "RESPITE": "0", "CONVALESCE": "0", "SMOKING": "No", "CITY_OP": "None", "TELEPHONE": "None", "ADULT_DAY_PROGRAM": "None" }, "geometry": { "type": "MultiPoint", "coordinates": [ [ -79.518952074263495, 43.684488615976498 ] ] } },
{ "type": "Feature", "properties": { "_id": 55, "ADDRESS_POINT_ID": "548153", "ADDRESS_FULL": "1 Overland Dr", "POSTAL_CODE": "M3C2C3", "MUNICIPALITY": "NORTH YORK", "CITY": "Toronto", "OBJECTID": "55", "ID": "69", "NAME": "Thompson House", "BEDS": "136", "RESPITE": "0", "CONVALESCE": "0", "SMOKING": "No", "CITY_OP": "None", "TELEPHONE": "None", "ADULT_DAY_PROGRAM": "None" }, "geometry": { "type": "MultiPoint", "coordinates": [ [ -79.346919033058995, 43.732441981253999 ] ] } },
{ "type": "Feature", "properties": { "_id": 56, "ADDRESS_POINT_ID": "20573", "ADDRESS_FULL": "200 Dawes Rd", "POSTAL_CODE": "M4C5M8", "MUNICIPALITY": "EAST YORK", "CITY": "Toronto", "OBJECTID": "56", "ID": "71", "NAME": "True Davidson Acres", "BEDS": "185", "RESPITE": "2", "CONVALESCE": "None", "SMOKING": "No", "CITY_OP": "Y", "TELEPHONE": "416-397-0400", "ADULT_DAY_PROGRAM": "No" }, "geometry": { "type": "MultiPoint", "coordinates": [ [ -79.298269100302406, 43.6958366309129 ] ] } },
{ "type": "Feature", "properties": { "_id": 57, "ADDRESS_POINT_ID": "14646308", "ADDRESS_FULL": "541 Finch Ave W", "POSTAL_CODE": "M2R 3Y3", "MUNICIPALITY": "NORTH YORK", "CITY": "Toronto", "OBJECTID": "57", "ID": "74", "NAME": "Valleyview Long Term Care", "BEDS": "174", "RESPITE": "0", "CONVALESCE": "0", "SMOKING": "No", "CITY_OP": "None", "TELEPHONE": "None", "ADULT_DAY_PROGRAM": "None" }, "geometry": { "type": "MultiPoint", "coordinates": [ [ -79.446244184261602, 43.770905445010698 ] ] } },
{ "type": "Feature", "properties": { "_id": 58, "ADDRESS_POINT_ID": "1014509", "ADDRESS_FULL": "2245 Lawrence Ave W", "POSTAL_CODE": "M9P3W3", "MUNICIPALITY": "ETOBICOKE", "CITY": "Toronto", "OBJECTID": "58", "ID": "76", "NAME": "Village of Humber Heights", "BEDS": "192", "RESPITE": "0", "CONVALESCE": "0", "SMOKING": "No", "CITY_OP": "None", "TELEPHONE": "None", "ADULT_DAY_PROGRAM": "None" }, "geometry": { "type": "MultiPoint", "coordinates": [ [ -79.525957157185204, 43.697126618637299 ] ] } },
{ "type": "Feature", "properties": { "_id": 59, "ADDRESS_POINT_ID": "54248", "ADDRESS_FULL": "82 Buttonwood Ave", "POSTAL_CODE": "M6M2J5", "MUNICIPALITY": "YORK", "CITY": "Toronto", "OBJECTID": "59", "ID": "77", "NAME": "West Park LTC Centre", "BEDS": "200", "RESPITE": "1", "CONVALESCE": "0", "SMOKING": "No", "CITY_OP": "None", "TELEPHONE": "None", "ADULT_DAY_PROGRAM": "None" }, "geometry": { "type": "MultiPoint", "coordinates": [ [ -79.508964961953893, 43.689288223432797 ] ] } },
{ "type": "Feature", "properties": { "_id": 60, "ADDRESS_POINT_ID": "14601299", "ADDRESS_FULL": "400 The West Mall", "POSTAL_CODE": "M9C5S1", "MUNICIPALITY": "ETOBICOKE", "CITY": "Toronto", "OBJECTID": "60", "ID": "79", "NAME": "Wesburn Manor", "BEDS": "191", "RESPITE": "1", "CONVALESCE": "None", "SMOKING": "Yes", "CITY_OP": "Y", "TELEPHONE": "416-394-3600", "ADULT_DAY_PROGRAM": "No" }, "geometry": { "type": "MultiPoint", "coordinates": [ [ -79.567526716135802, 43.643735373876702 ] ] } },
{ "type": "Feature", "properties": { "_id": 61, "ADDRESS_POINT_ID": "794815", "ADDRESS_FULL": "138 Dowling Ave", "POSTAL_CODE": "M6K3A6", "MUNICIPALITY": "former TORONTO", "CITY": "Toronto", "OBJECTID": "61", "ID": "81", "NAME": "White Eagle Nursing Home", "BEDS": "56", "RESPITE": "2", "CONVALESCE": "0", "SMOKING": "Yes", "CITY_OP": "None", "TELEPHONE": "None", "ADULT_DAY_PROGRAM": "None" }, "geometry": { "type": "MultiPoint", "coordinates": [ [ -79.439216136025195, 43.6371736438238 ] ] } },
{ "type": "Feature", "properties": { "_id": 62, "ADDRESS_POINT_ID": "9468008", "ADDRESS_FULL": "2311 McNicoll Ave", "POSTAL_CODE": "M1V5L3", "MUNICIPALITY": "SCARBOROUGH", "CITY": "Toronto", "OBJECTID": "62", "ID": "83", "NAME": "Yee Hong - McNicoll", "BEDS": "153", "RESPITE": "2", "CONVALESCE": "0", "SMOKING": "None", "CITY_OP": "None", "TELEPHONE": "None", "ADULT_DAY_PROGRAM": "None" }, "geometry": { "type": "MultiPoint", "coordinates": [ [ -79.290490751853895, 43.814359377101503 ] ] } },
{ "type": "Feature", "properties": { "_id": 63, "ADDRESS_POINT_ID": "14245098", "ADDRESS_FULL": "150 Dunn Ave", "POSTAL_CODE": "M6K 2R6", "MUNICIPALITY": "former TORONTO", "CITY": "Toronto", "OBJECTID": "63", "ID": "42", "NAME": "Lakeside Long Term Care Centre", "BEDS": "128", "RESPITE": "4", "CONVALESCE": "0", "SMOKING": "No", "CITY_OP": "None", "TELEPHONE": "None", "ADULT_DAY_PROGRAM": "None" }, "geometry": { "type": "MultiPoint", "coordinates": [ [ -79.432977257924804, 43.635809093195398 ] ] } },
{ "type": "Feature", "properties": { "_id": 64, "ADDRESS_POINT_ID": "6597961", "ADDRESS_FULL": "130 Midland Ave", "POSTAL_CODE": "M1N 4E6", "MUNICIPALITY": "SCARBOROUGH", "CITY": "Toronto", "OBJECTID": "64", "ID": "44", "NAME": "Leisureworld Caregiving Scarborough", "BEDS": "302", "RESPITE": "6", "CONVALESCE": "0", "SMOKING": "Yes", "CITY_OP": "None", "TELEPHONE": "None", "ADULT_DAY_PROGRAM": "None" }, "geometry": { "type": "MultiPoint", "coordinates": [ [ -79.247769930623903, 43.708328382692798 ] ] } },
{ "type": "Feature", "properties": { "_id": 65, "ADDRESS_POINT_ID": "14177814", "ADDRESS_FULL": "1000 Ellesmere Rd", "POSTAL_CODE": "M1P5G2", "MUNICIPALITY": "SCARBOROUGH", "CITY": "Toronto", "OBJECTID": "65", "ID": "46", "NAME": "Leisureworld Ellesmere", "BEDS": "302", "RESPITE": "4", "CONVALESCE": "0", "SMOKING": "Yes", "CITY_OP": "None", "TELEPHONE": "None", "ADULT_DAY_PROGRAM": "None" }, "geometry": { "type": "MultiPoint", "coordinates": [ [ -79.277742082174399, 43.767144731671699 ] ] } },
{ "type": "Feature", "properties": { "_id": 66, "ADDRESS_POINT_ID": "14258929", "ADDRESS_FULL": "2005 Lawrence Ave W", "POSTAL_CODE": "M9N3V4", "MUNICIPALITY": "YORK", "CITY": "Toronto", "OBJECTID": "66", "ID": "48", "NAME": "Leisureworld - Lawrence Caregiving Centre", "BEDS": "224", "RESPITE": "2", "CONVALESCE": "0", "SMOKING": "None", "CITY_OP": "None", "TELEPHONE": "None", "ADULT_DAY_PROGRAM": "None" }, "geometry": { "type": "MultiPoint", "coordinates": [ [ -79.510171383709306, 43.701274591693902 ] ] } },
{ "type": "Feature", "properties": { "_id": 67, "ADDRESS_POINT_ID": "75801", "ADDRESS_FULL": "429 Walmer Rd", "POSTAL_CODE": "M5P2X9", "MUNICIPALITY": "YORK", "CITY": "Toronto", "OBJECTID": "67", "ID": "50", "NAME": "Lincoln Place (Cedarvale Terrace)", "BEDS": "248", "RESPITE": "1", "CONVALESCE": "0", "SMOKING": "None", "CITY_OP": "None", "TELEPHONE": "None", "ADULT_DAY_PROGRAM": "None" }, "geometry": { "type": "MultiPoint", "coordinates": [ [ -79.412374147243, 43.6854463851801 ] ] } },
{ "type": "Feature", "properties": { "_id": 68, "ADDRESS_POINT_ID": "789306", "ADDRESS_FULL": "36 D'Arcy St", "POSTAL_CODE": "M5T1J7", "MUNICIPALITY": "former TORONTO", "CITY": "Toronto", "OBJECTID": "68", "ID": "52", "NAME": "Mon Sheong Home for the Aged", "BEDS": "105", "RESPITE": "2", "CONVALESCE": "0", "SMOKING": "No", "CITY_OP": "None", "TELEPHONE": "None", "ADULT_DAY_PROGRAM": "None" }, "geometry": { "type": "MultiPoint", "coordinates": [ [ -79.393356312880599, 43.655249542656598 ] ] } },
{ "type": "Feature", "properties": { "_id": 69, "ADDRESS_POINT_ID": "10379331", "ADDRESS_FULL": "740 Pape Ave", "POSTAL_CODE": "M4K3S7", "MUNICIPALITY": "former TORONTO", "CITY": "Toronto", "OBJECTID": "69", "ID": "54", "NAME": "Nisbet Lodge", "BEDS": "110", "RESPITE": "0", "CONVALESCE": "0", "SMOKING": "No", "CITY_OP": "None", "TELEPHONE": "None", "ADULT_DAY_PROGRAM": "None" }, "geometry": { "type": "MultiPoint", "coordinates": [ [ -79.345855834514097, 43.680542481830201 ] ] } },
{ "type": "Feature", "properties": { "_id": 70, "ADDRESS_POINT_ID": "8190311", "ADDRESS_FULL": "122 Tyndall Ave", "POSTAL_CODE": "M6K 2E2", "MUNICIPALITY": "former TORONTO", "CITY": "Toronto", "OBJECTID": "70", "ID": "56", "NAME": "Norwood Nursing Home", "BEDS": "60", "RESPITE": "0", "CONVALESCE": "0", "SMOKING": "No", "CITY_OP": "None", "TELEPHONE": "None", "ADULT_DAY_PROGRAM": "None" }, "geometry": { "type": "MultiPoint", "coordinates": [ [ -79.429323353350298, 43.6375431602739 ] ] } },
{ "type": "Feature", "properties": { "_id": 71, "ADDRESS_POINT_ID": "12562211", "ADDRESS_FULL": "2 Buchan Crt", "POSTAL_CODE": "M2J 5A3", "MUNICIPALITY": "NORTH YORK", "CITY": "Toronto", "OBJECTID": "71", "ID": "58", "NAME": "Seniors' Health Centre", "BEDS": "192", "RESPITE": "3", "CONVALESCE": "12", "SMOKING": "Yes", "CITY_OP": "None", "TELEPHONE": "None", "ADULT_DAY_PROGRAM": "None" }, "geometry": { "type": "MultiPoint", "coordinates": [ [ -79.3594512166123, 43.773065606867199 ] ] } },
{ "type": "Feature", "properties": { "_id": 72, "ADDRESS_POINT_ID": "367187", "ADDRESS_FULL": "9 Neilson Rd", "POSTAL_CODE": "M1E5E1", "MUNICIPALITY": "SCARBOROUGH", "CITY": "Toronto", "OBJECTID": "72", "ID": "59", "NAME": "Seven Oaks", "BEDS": "247", "RESPITE": "2", "CONVALESCE": "None", "SMOKING": "Yes", "CITY_OP": "Y", "TELEPHONE": "416-392-3500", "ADULT_DAY_PROGRAM": "No" }, "geometry": { "type": "MultiPoint", "coordinates": [ [ -79.203575714274706, 43.781638101317398 ] ] } },
{ "type": "Feature", "properties": { "_id": 73, "ADDRESS_POINT_ID": "8594145", "ADDRESS_FULL": "2701 St Clair Ave E", "POSTAL_CODE": "M4B1M5", "MUNICIPALITY": "EAST YORK", "CITY": "Toronto", "OBJECTID": "73", "ID": "62", "NAME": "St. Clair O'Connor Community", "BEDS": "25", "RESPITE": "1", "CONVALESCE": "0", "SMOKING": "No", "CITY_OP": "None", "TELEPHONE": "None", "ADULT_DAY_PROGRAM": "None" }, "geometry": { "type": "MultiPoint", "coordinates": [ [ -79.311853536619793, 43.705440264590301 ] ] } },
{ "type": "Feature", "properties": { "_id": 74, "ADDRESS_POINT_ID": "9311782", "ADDRESS_FULL": "1020 McNicoll Ave", "POSTAL_CODE": "M1W2J6", "MUNICIPALITY": "SCARBOROUGH", "CITY": "Toronto", "OBJECTID": "74", "ID": "64", "NAME": "Tendercare Living Centre", "BEDS": "254", "RESPITE": "2", "CONVALESCE": "0", "SMOKING": "Yes", "CITY_OP": "None", "TELEPHONE": "None", "ADULT_DAY_PROGRAM": "None" }, "geometry": { "type": "MultiPoint", "coordinates": [ [ -79.3360097735751, 43.805763124702999 ] ] } },
{ "type": "Feature", "properties": { "_id": 75, "ADDRESS_POINT_ID": "354704", "ADDRESS_FULL": "59 Lawson Rd", "POSTAL_CODE": "M1C2J1", "MUNICIPALITY": "SCARBOROUGH", "CITY": "Toronto", "OBJECTID": "75", "ID": "66", "NAME": "Tony Stacey Center for Veterans Care", "BEDS": "100", "RESPITE": "2", "CONVALESCE": "0", "SMOKING": "Yes", "CITY_OP": "None", "TELEPHONE": "None", "ADULT_DAY_PROGRAM": "None" }, "geometry": { "type": "MultiPoint", "coordinates": [ [ -79.163315642511193, 43.7833019256177 ] ] } },
{ "type": "Feature", "properties": { "_id": 76, "ADDRESS_POINT_ID": "14258932", "ADDRESS_FULL": "495 The West Mall", "POSTAL_CODE": "M9C5S3", "MUNICIPALITY": "ETOBICOKE", "CITY": "Toronto", "OBJECTID": "76", "ID": "68", "NAME": "The Westbury", "BEDS": "187", "RESPITE": "0", "CONVALESCE": "0", "SMOKING": "Yes", "CITY_OP": "None", "TELEPHONE": "None", "ADULT_DAY_PROGRAM": "None" }, "geometry": { "type": "MultiPoint", "coordinates": [ [ -79.567662824870595, 43.648282811471802 ] ] } },
{ "type": "Feature", "properties": { "_id": 77, "ADDRESS_POINT_ID": "14235183", "ADDRESS_FULL": "340 McCowan Rd", "POSTAL_CODE": "M1J3P4", "MUNICIPALITY": "SCARBOROUGH", "CITY": "Toronto", "OBJECTID": "77", "ID": "70", "NAME": "Trilogy", "BEDS": "197", "RESPITE": "5", "CONVALESCE": "0", "SMOKING": "No", "CITY_OP": "None", "TELEPHONE": "None", "ADULT_DAY_PROGRAM": "None" }, "geometry": { "type": "MultiPoint", "coordinates": [ [ -79.238658493352503, 43.738213351402102 ] ] } },
{ "type": "Feature", "properties": { "_id": 78, "ADDRESS_POINT_ID": "836445", "ADDRESS_FULL": "77 Main St", "POSTAL_CODE": "M4E2V6", "MUNICIPALITY": "former TORONTO", "CITY": "Toronto", "OBJECTID": "78", "ID": "72", "NAME": "Versa-Care Centre (Main)", "BEDS": "150", "RESPITE": "2", "CONVALESCE": "0", "SMOKING": "No", "CITY_OP": "None", "TELEPHONE": "None", "ADULT_DAY_PROGRAM": "None" }, "geometry": { "type": "MultiPoint", "coordinates": [ [ -79.298787353346995, 43.681588642532397 ] ] } },
{ "type": "Feature", "properties": { "_id": 79, "ADDRESS_POINT_ID": "1008105", "ADDRESS_FULL": "95 Humber College Blvd", "POSTAL_CODE": "M9V 5B5", "MUNICIPALITY": "ETOBICOKE", "CITY": "Toronto", "OBJECTID": "79", "ID": "73", "NAME": "Versa-Care Centre (Humber)", "BEDS": "158", "RESPITE": "0", "CONVALESCE": "0", "SMOKING": "No", "CITY_OP": "None", "TELEPHONE": "None", "ADULT_DAY_PROGRAM": "None" }, "geometry": { "type": "MultiPoint", "coordinates": [ [ -79.596597049423593, 43.727216860084297 ] ] } },
{ "type": "Feature", "properties": { "_id": 80, "ADDRESS_POINT_ID": "14130851", "ADDRESS_FULL": "40 Playfair Ave", "POSTAL_CODE": "M6B2P9", "MUNICIPALITY": "NORTH YORK", "CITY": "Toronto", "OBJECTID": "80", "ID": "75", "NAME": "Villa Colombo Home for the Aged", "BEDS": "393", "RESPITE": "5", "CONVALESCE": "0", "SMOKING": "No", "CITY_OP": "None", "TELEPHONE": "None", "ADULT_DAY_PROGRAM": "None" }, "geometry": { "type": "MultiPoint", "coordinates": [ [ -79.456140595084193, 43.710502170412198 ] ] } },
{ "type": "Feature", "properties": { "_id": 81, "ADDRESS_POINT_ID": "2625668", "ADDRESS_FULL": "160 Wellesley St E", "POSTAL_CODE": "M4Y1J2", "MUNICIPALITY": "former TORONTO", "CITY": "Toronto", "OBJECTID": "81", "ID": "78", "NAME": "Wellesley Central Place", "BEDS": "150", "RESPITE": "4", "CONVALESCE": "0", "SMOKING": "None", "CITY_OP": "None", "TELEPHONE": "None", "ADULT_DAY_PROGRAM": "None" }, "geometry": { "type": "MultiPoint", "coordinates": [ [ -79.375473245170198, 43.667000348120197 ] ] } },
{ "type": "Feature", "properties": { "_id": 82, "ADDRESS_POINT_ID": "354292", "ADDRESS_FULL": "1860 Lawrence Ave E", "POSTAL_CODE": "M1R5B1", "MUNICIPALITY": "SCARBOROUGH", "CITY": "Toronto", "OBJECTID": "82", "ID": "80", "NAME": "Wexford Home for the Aged", "BEDS": "166", "RESPITE": "0", "CONVALESCE": "0", "SMOKING": "Yes", "CITY_OP": "None", "TELEPHONE": "None", "ADULT_DAY_PROGRAM": "None" }, "geometry": { "type": "MultiPoint", "coordinates": [ [ -79.303077424784902, 43.744062005293102 ] ] } },
{ "type": "Feature", "properties": { "_id": 83, "ADDRESS_POINT_ID": "14243093", "ADDRESS_FULL": "100 Scottfield Dr", "POSTAL_CODE": "M1S5W5", "MUNICIPALITY": "SCARBOROUGH", "CITY": "Toronto", "OBJECTID": "83", "ID": "82", "NAME": "Yee Hong - Finch", "BEDS": "250", "RESPITE": "1", "CONVALESCE": "0", "SMOKING": "None", "CITY_OP": "None", "TELEPHONE": "None", "ADULT_DAY_PROGRAM": "None" }, "geometry": { "type": "MultiPoint", "coordinates": [ [ -79.253720780427898, 43.8103894886669 ] ] } },
{ "type": "Feature", "properties": { "_id": 84, "ADDRESS_POINT_ID": "516006", "ADDRESS_FULL": "2045 Finch Ave W", "POSTAL_CODE": "M3N1M9", "MUNICIPALITY": "NORTH YORK", "CITY": "Toronto", "OBJECTID": "84", "ID": "84", "NAME": "Yorkview Lifecare Centre", "BEDS": "276", "RESPITE": "6", "CONVALESCE": "0", "SMOKING": "Yes", "CITY_OP": "None", "TELEPHONE": "None", "ADULT_DAY_PROGRAM": "None" }, "geometry": { "type": "MultiPoint", "coordinates": [ [ -79.521420865901206, 43.756067890448001 ] ] } }
]
}
