{"type": "FeatureCollection", "features": [{"type": "Feature", "geometry": {"type": "Point", "coordinates": [-79.40864403, 43.78786638]}, "properties": {"NAME": "Willowdale Manor", "ADDRESS_FULL": "175 Cummer Ave", "POSTAL_CODE": "M2M2E9", "MUNICIPALITY": "NORTH YORK", "CITY": "Toronto", "SUPPORTIVE": "Y", "TELEPHONE": "416-392-9535"}}, {"type": "Feature", "geometry": {"type": "Point", "coordinates": [-79.58119962, 43.7378797]}, "properties": {"NAME": "111 Kendleton Drive", "ADDRESS_FULL": "111 Kendleton Dr", "POSTAL_CODE": "M9V1V2", "MUNICIPALITY": "ETOBICOKE", "CITY": "Toronto", "SUPPORTIVE": "Y", "TELEPHONE": "416-397-0583"}}, {"type": "Feature", "geometry": {"type": "Point", "coordinates": [-79.2249179, 43.75487641]}, "properties": {"NAME": "Cedarbrook Lodge", "ADDRESS_FULL": "520 Markham Rd", "POSTAL_CODE": "M1H3A1", "MUNICIPALITY": "SCARBOROUGH", "CITY": "Toronto", "SUPPORTIVE": "Y", "TELEPHONE": "416-397-0575"}}, {"type": "Feature", "geometry": {"type": "Point", "coordinates": [-79.36147907, 43.81038658]}, "properties": {"NAME": "Cliffwood Manor", "ADDRESS_FULL": "4000 Don Mills Rd", "POSTAL_CODE": "M2H3N2", "MUNICIPALITY": "NORTH YORK", "CITY": "Toronto", "SUPPORTIVE": "Y", "TELEPHONE": "416-392-9562"}}, {"type": "Feature", "geometry": {"type": "Point", "coordinates": [-79.35975595, 43.67633044]}, "properties": {"NAME": "Broadview Manor", "ADDRESS_FULL": "80 Danforth Ave", "POSTAL_CODE": "M4K3Y5", "MUNICIPALITY": "former TORONTO", "CITY": "Toronto", "SUPPORTIVE": "Y", "TELEPHONE": "416-392-9659"}}, {"type": "Feature", "geometry": {"type": "Point", "coordinates": [-79.44619885, 43.79164818]}, "properties": {"NAME": "West Don Apartments", "ADDRESS_FULL": "6250 Bathurst St", "POSTAL_CODE": "M2R2A4", "MUNICIPALITY": "NORTH YORK", "CITY": "Toronto", "SUPPORTIVE": "Y", "TELEPHONE": "416-392-6762"}}, {"type": "Feature", "geometry": {"type": "Point", "coordinates": [-79.2505927, 43.75523277]}, "properties": {"NAME": "Brimley Acres", "ADDRESS_FULL": "2950 Lawrence Ave E", "POSTAL_CODE": "M1P2T9", "MUNICIPALITY": "SCARBOROUGH", "CITY": "Toronto", "SUPPORTIVE": "Y", "TELEPHONE": "416-392-6766"}}, {"type": "Feature", "geometry": {"type": "Point", "coordinates": [-79.37226647, 43.66443042]}, "properties": {"NAME": "Winchester Square", "ADDRESS_FULL": "55 Bleecker St", "POSTAL_CODE": "M4X1W9", "MUNICIPALITY": "former TORONTO", "CITY": "Toronto", "SUPPORTIVE": "Y", "TELEPHONE": "416-397-0508"}}, {"type": "Feature", "geometry": {"type": "Point", "coordinates": [-79.53072049, 43.64605397]}, "properties": {"NAME": "Dundas Mabelle", "ADDRESS_FULL": "5005 Dundas St W", "POSTAL_CODE": "M9A4Y6", "MUNICIPALITY": "ETOBICOKE", "CITY": "Toronto", "SUPPORTIVE": "Y", "TELEPHONE": "416-397-0586"}}]}